espacio_cultural_id,provincia_id,localidad_id,provincia,localidad,nombre,direccion,latitud,longitud,denominacion_especifica,fuente,descripcion,jurisdiccion _declaratoria,fecha_de_inauguracion,decreto_o_ley,numero_de_decreto_o_ley
9,2,2000010,Ciudad Autónoma de Buenos Aires,Ciudad Autónoma de Buenos Aires,Administración de los Mataderos,Lisandro de la Torre y El Resero,-34.66130556,-58.50172222,Monumento Histórico,"Comisión Nacional de Monumentos, de Lugares y de Bienes Históricos (CNMLBH)",s/d,Nacional,3/5/1979,Decreto,1021.0
9,2,2000010,Ciudad Autónoma de Buenos Aires,Ciudad Autónoma de Buenos Aires,Administración de Parques Nacionales,Avenida Santa Fe 690,-34.59580556,-58.37711111,Monumento Histórico,"Comisión Nacional de Monumentos, de Lugares y de Bienes Históricos (CNMLBH)",s/d,Nacional,18/4/2001,Ley,25427.0
9,2,2000010,Ciudad Autónoma de Buenos Aires,Ciudad Autónoma de Buenos Aires,Adolfo Alsina,Recoleta,-34.5875,-58.39338889,Sepulcro,"Comisión Nacional de Monumentos, de Lugares y de Bienes Históricos (CNMLBH)",s/d,Nacional,31/1/1946,Decreto,3039.0
9,2,2000010,Ciudad Autónoma de Buenos Aires,Ciudad Autónoma de Buenos Aires,Aduana Nacional,Azopardo 350,-34.61152778,-58.36772222,Monumento Histórico,"Comisión Nacional de Monumentos, de Lugares y de Bienes Históricos (CNMLBH)",s/d,Nacional,17/9/2009,Decreto,1309.0
9,2,2000010,Ciudad Autónoma de Buenos Aires,Ciudad Autónoma de Buenos Aires,Aguaribay (árbol) en terrenos del Instituto Bernasconi,s/d,-34.63408333,-58.402,Árbol Histórico,"Comisión Nacional de Monumentos, de Lugares y de Bienes Históricos (CNMLBH)",s/d,Nacional,23/7/1943,Decreto,3369.0
9,2,2000010,Ciudad Autónoma de Buenos Aires,Ciudad Autónoma de Buenos Aires,Alte. Guillermo Brown,Recoleta,-34.5875,-58.39338889,Sepulcro,"Comisión Nacional de Monumentos, de Lugares y de Bienes Históricos (CNMLBH)",s/d,Nacional,31/1/1946,Decreto,3039.0
9,2,2000010,Ciudad Autónoma de Buenos Aires,Ciudad Autónoma de Buenos Aires,Altos de Elorriaga,Defensa 183/85 Alsina 417/21,-34.61002778,-58.37227778,Monumento Histórico,"Comisión Nacional de Monumentos, de Lugares y de Bienes Históricos (CNMLBH)",s/d,Nacional,24/10/1997,Decreto,1110.0
9,2,2000010,Ciudad Autónoma de Buenos Aires,Ciudad Autónoma de Buenos Aires,Amadeo Jaques,Recoleta,-34.5875,-58.39338889,Sepulcro,"Comisión Nacional de Monumentos, de Lugares y de Bienes Históricos (CNMLBH)",s/d,Nacional,31/1/1946,Decreto,3039.0
9,2,2000010,Ciudad Autónoma de Buenos Aires,Ciudad Autónoma de Buenos Aires,Ambrosio Plácido Lezica,Recoleta,-34.5875,-58.39338889,Sepulcro,"Comisión Nacional de Monumentos, de Lugares y de Bienes Históricos (CNMLBH)",s/d,Nacional,7/6/1979,Decreto,1327.0
9,2,2000010,Ciudad Autónoma de Buenos Aires,Ciudad Autónoma de Buenos Aires,"Antigua casa central del ""Banco Hipotecario de la provincia de Buenos Aires"" (actual sede del Banco Central de la República Argentina)",San Martín 275 y Reconquista 258/66/74,-34.605,-58.37266667,Monumento Histórico,"Comisión Nacional de Monumentos, de Lugares y de Bienes Históricos (CNMLBH)",s/d,Nacional,9/12/2005,Decreto,1563.0
9,2,2000010,Ciudad Autónoma de Buenos Aires,Ciudad Autónoma de Buenos Aires,"Antigua casa central del Banco ""El Hogar Argentino""",Bartolomé Mitre 567/75/79,-34.60686111,-58.3745,Monumento Histórico,"Comisión Nacional de Monumentos, de Lugares y de Bienes Históricos (CNMLBH)",s/d,Nacional,9/12/2005,Decreto,1563.0
9,2,2000010,Ciudad Autónoma de Buenos Aires,Ciudad Autónoma de Buenos Aires,"Antigua residencia de don Gregorio Lezama, sede del Museo Histórico Nacional, quedando su entorno que fuera jardín particular, actual Parque Lezama",Defensa 1652 - Parque Lezama:Defensa/Brasil/Martín García/Paseo Colón,-34.62688889,-58.37075,Monumento Histórico,"Comisión Nacional de Monumentos, de Lugares y de Bienes Históricos (CNMLBH)",s/d,Nacional,16/5/1997,Decreto,437.0
9,2,2000010,Ciudad Autónoma de Buenos Aires,Ciudad Autónoma de Buenos Aires,"Antigua sede de la Bolsa de Comercio de Buenos Aires (actual Museo Numismático ""José E. Uriburu"" del Banco Central)",San Martín 216,-34.60533333,-58.37386111,Monumento Histórico,"Comisión Nacional de Monumentos, de Lugares y de Bienes Históricos (CNMLBH)",s/d,Nacional,9/12/2005,Decreto,1563.0
9,2,2000010,Ciudad Autónoma de Buenos Aires,Ciudad Autónoma de Buenos Aires,Antonio Sáenz,Recoleta,-34.5875,-58.39338889,Sepulcro,"Comisión Nacional de Monumentos, de Lugares y de Bienes Históricos (CNMLBH)",s/d,Nacional,31/1/1946,Decreto,3039.0
9,2,2000010,Ciudad Autónoma de Buenos Aires,Ciudad Autónoma de Buenos Aires,Apostadero Naval Buenos Aires,Dársena Norte del Puerto de Buenos Aires,-34.59366667,-58.36852778,Monumento Histórico,"Comisión Nacional de Monumentos, de Lugares y de Bienes Históricos (CNMLBH)",s/d,Nacional,15/4/1999,Decreto,339.0
9,2,2000010,Ciudad Autónoma de Buenos Aires,Ciudad Autónoma de Buenos Aires,Archivo Histórico del Cementerio de la Chacarita,s/d,-34.58925,-58.45925,Bien de interés histórico,"Comisión Nacional de Monumentos, de Lugares y de Bienes Históricos (CNMLBH)",s/d,Nacional,21/4/2010,Decreto,525.0
9,2,2000010,Ciudad Autónoma de Buenos Aires,Ciudad Autónoma de Buenos Aires,Archivo histórico del Crematorio Municipal,Cementerio de la Chacarita,-34.58925,-58.45925,Bien de Interés Histórico,"Comisión Nacional de Monumentos, de Lugares y de Bienes Históricos (CNMLBH)",s/d,Nacional,2/10/2007,Decreto,1289.0
9,2,2000010,Ciudad Autónoma de Buenos Aires,Ciudad Autónoma de Buenos Aires,Archivo Nacional sobre la desaparición de personas (CONADEP),"En custodia en el Archivo Nacional de la Memoria (Secretaría de Derechos Humanos - Ministerio de Justicia, Seguridad y Derechos Humanos)",-34.53819444,-58.46388889,Bien de Interés Histórico,"Comisión Nacional de Monumentos, de Lugares y de Bienes Históricos (CNMLBH)",s/d,Nacional,8/7/2004,Decreto,848.0
9,2,2000010,Ciudad Autónoma de Buenos Aires,Ciudad Autónoma de Buenos Aires,"Archivo y Museo Históricos del Banco de la Provincia de Buenos Aires ""Dr. Arturo Jauretche""",Sarmiento 364,-34.60427778,-58.37186111,Monumento Histórico,"Comisión Nacional de Monumentos, de Lugares y de Bienes Históricos (CNMLBH)",s/d,Nacional,9/12/2005,Decreto,1563.0
9,2,2000010,Ciudad Autónoma de Buenos Aires,Ciudad Autónoma de Buenos Aires,Archivos de Plano de Redes; Archivos de Planos domiciliarios y Archivos de Rentas de Buenos Aires de AYSA S.A.,Av. Córdoba 1950,-34.60016667,-58.39494444,Bien de Interés Histórico,"Comisión Nacional de Monumentos, de Lugares y de Bienes Históricos (CNMLBH)",s/d,Nacional,21/4/2010,Decreto,526.0
9,2,2000010,Ciudad Autónoma de Buenos Aires,Ciudad Autónoma de Buenos Aires,Área contigua al edificio Club de Pescadores,"El muelle y el área contigua desde su eje, en una extensión de 100 metros hacia el noroeste y el sudeste",-34.56261111,-58.40225,Lugar Histórico,"Comisión Nacional de Monumentos, de Lugares y de Bienes Históricos (CNMLBH)",s/d,Nacional,11/6/2001,Decreto,766.0
9,2,2000010,Ciudad Autónoma de Buenos Aires,Ciudad Autónoma de Buenos Aires,"Area Retiro (Avs. San Martín, Antártida Argentina, R. Mejía, Martínez Zuviría, Illia, Libertador)",s/d,-34.59038889,-58.37455556,Lugar Histórico,"Comisión Nacional de Monumentos, de Lugares y de Bienes Históricos (CNMLBH)",s/d,Nacional,20/3/1997,Decreto,262.0
9,2,2000010,Ciudad Autónoma de Buenos Aires,Ciudad Autónoma de Buenos Aires,Aristóbulo del Valle,Recoleta,-34.5875,-58.39338889,Sepulcro,"Comisión Nacional de Monumentos, de Lugares y de Bienes Históricos (CNMLBH)",s/d,Nacional,10/12/1945,Decreto,30837.0
9,2,2000010,Ciudad Autónoma de Buenos Aires,Ciudad Autónoma de Buenos Aires,Asociación Argentina de Actores,Alsina 1762/66,-34.61158333,-58.39125,Monumento Histórico Artístico,"Comisión Nacional de Monumentos, de Lugares y de Bienes Históricos (CNMLBH)",s/d,Nacional,22/9/1999,Ley,25176.0
9,2,2000010,Ciudad Autónoma de Buenos Aires,Ciudad Autónoma de Buenos Aires,Asociación Italiana de Mutualidad e Instrucción Unione e Benevolenza,Tte. Gral. Juan Domingo Perón Nros. 1352/72,-34.60641667,-58.38577778,Monumento Histórico,"Comisión Nacional de Monumentos, de Lugares y de Bienes Históricos (CNMLBH)",s/d,Nacional,22/7/2014,Decreto,1163.0
9,2,2000010,Ciudad Autónoma de Buenos Aires,Ciudad Autónoma de Buenos Aires,"Automóvil ""El Justicialista""",s/d,-34.56283333,-58.45316667,Bien de interés histórico nacional,"Comisión Nacional de Monumentos, de Lugares y de Bienes Históricos (CNMLBH)",s/d,Nacional,13/8/2015,Decreto,1673.0
9,2,2000010,Ciudad Autónoma de Buenos Aires,Ciudad Autónoma de Buenos Aires,Avenida de Mayo,s/d,-34.60891667,-58.38,Lugar Histórico,"Comisión Nacional de Monumentos, de Lugares y de Bienes Históricos (CNMLBH)",s/d,Nacional,16/5/1997,Decreto,437.0
9,2,2000010,Ciudad Autónoma de Buenos Aires,Ciudad Autónoma de Buenos Aires,Banco de la Nación Argentina - Casa Central,"Manzana entre Av Rivadavia y calles Reconquista, B Mitre y 25 de Mayo con entrada principal por Av Rivadavia 317/25/33",-34.60733333,-58.37144444,Monumento Histórico,"Comisión Nacional de Monumentos, de Lugares y de Bienes Históricos (CNMLBH)",s/d,Nacional,19/6/2002,Decreto,1055.0
9,2,2000010,Ciudad Autónoma de Buenos Aires,Ciudad Autónoma de Buenos Aires,Banco de la Provincia de Buenos Aires - Casa Central,San Martín 133/37/41 esquina Bartolomé Mitre 451/57/65/67/69,-34.60636111,-58.37363889,Monumento Histórico,"Comisión Nacional de Monumentos, de Lugares y de Bienes Históricos (CNMLBH)",s/d,Nacional,9/12/2005,Decreto,1563.0
9,2,2000010,Ciudad Autónoma de Buenos Aires,Ciudad Autónoma de Buenos Aires,Banco Hipotecario S.A. (ex Banco de Londres),Reconquista 101/105/135/151/157,-34.60647222,-58.37219444,Monumento Histórico,"Comisión Nacional de Monumentos, de Lugares y de Bienes Históricos (CNMLBH)",s/d,Nacional,2/12/1999,Decreto,1433.0
9,2,2000010,Ciudad Autónoma de Buenos Aires,Ciudad Autónoma de Buenos Aires,"Basílica ""Sagrado Corazón de Jesús""",Av. Vélez Sarsfield 1351,-34.65105556,-58.38936111,Bien de Interés Histórico Artístico,"Comisión Nacional de Monumentos, de Lugares y de Bienes Históricos (CNMLBH)",s/d,Nacional,25/3/2009,Ley,26482.0
9,2,2000010,Ciudad Autónoma de Buenos Aires,Ciudad Autónoma de Buenos Aires,Basílica del Pilar,Junín 1898/1904,-34.58683333,-58.39211111,Monumento Histórico,"Comisión Nacional de Monumentos, de Lugares y de Bienes Históricos (CNMLBH)",s/d,Nacional,21/5/1942,Decreto,120412.0
9,2,2000010,Ciudad Autónoma de Buenos Aires,Ciudad Autónoma de Buenos Aires,Benjamín Paz,Recoleta,-34.5875,-58.39338889,Sepulcro,"Comisión Nacional de Monumentos, de Lugares y de Bienes Históricos (CNMLBH)",s/d,Nacional,15/2/2007,Decreto,124.0
9,2,2000010,Ciudad Autónoma de Buenos Aires,Ciudad Autónoma de Buenos Aires,Bernardino Rivadavia,Plaza Once,-34.60969444,-58.40744444,Sepulcro,"Comisión Nacional de Monumentos, de Lugares y de Bienes Históricos (CNMLBH)",s/d,Nacional,31/1/1946,Decreto,3039.0
9,2,2000010,Ciudad Autónoma de Buenos Aires,Ciudad Autónoma de Buenos Aires,Bernardo Monteagudo,Recoleta,-34.587523,-58.39343,Sepulcro,"Comisión Nacional de Monumentos, de Lugares y de Bienes Históricos (CNMLBH)",s/d,Nacional,31/1/1946,Decreto,3039.0
9,2,2000010,Ciudad Autónoma de Buenos Aires,Ciudad Autónoma de Buenos Aires,Biblioteca Americana y el Archivo Histórico del Museo Mitre,San Martín 336,-34.604,-58.37388889,Bien de interés histórico,"Comisión Nacional de Monumentos, de Lugares y de Bienes Históricos (CNMLBH)",s/d,Nacional,16/6/2010,Decreto,856.0
9,2,2000010,Ciudad Autónoma de Buenos Aires,Ciudad Autónoma de Buenos Aires,Bóveda que guarda los restos de Carlos Gardel,Cementerio de la Chacarita,-34.58925,-58.45925,Sepulcro,"Comisión Nacional de Monumentos, de Lugares y de Bienes Históricos (CNMLBH)",s/d,Nacional,12/12/2006,Decreto,1839.0
9,2,2000010,Ciudad Autónoma de Buenos Aires,Ciudad Autónoma de Buenos Aires,Cabildo de la Ciudad de Buenos Aires,Bolivar 65,-34.60872222,-58.37361111,Monumento Histórico,"Comisión Nacional de Monumentos, de Lugares y de Bienes Históricos (CNMLBH)",s/d,Nacional,30/5/1933,Ley,11688.0
9,2,2000010,Ciudad Autónoma de Buenos Aires,Ciudad Autónoma de Buenos Aires,Caídos en la Revolución de 1890-L.N.Alem y H.Yrigoyen,Recoleta,-34.5875,-58.39338889,Sepulcro,"Comisión Nacional de Monumentos, de Lugares y de Bienes Históricos (CNMLBH)",s/d,Nacional,21/9/1960,Ley,15454.0
9,2,2000010,Ciudad Autónoma de Buenos Aires,Ciudad Autónoma de Buenos Aires,"Campo de Deportes del ""Buenos Aires Criket Club""",s/d,-34.57041667,-58.41225,Lugar Histórico,"Comisión Nacional de Monumentos, de Lugares y de Bienes Históricos (CNMLBH)",s/d,Nacional,14/5/1948,Decreto,14028.0
9,2,2000010,Ciudad Autónoma de Buenos Aires,Ciudad Autónoma de Buenos Aires,Canónigo Diego Estanislao Zavaleta,Catedral de Buenos Aires,-34.60775,-58.37325,Sepulcro,"Comisión Nacional de Monumentos, de Lugares y de Bienes Históricos (CNMLBH)",s/d,Nacional,11/7/1946,Decreto,2236.0
9,2,2000010,Ciudad Autónoma de Buenos Aires,Ciudad Autónoma de Buenos Aires,Canónigo José Eusebio de Aguero,Catedral de Buenos Aires,-34.60775,-58.37325,Sepulcro,"Comisión Nacional de Monumentos, de Lugares y de Bienes Históricos (CNMLBH)",s/d,Nacional,11/7/1946,Decreto,2236.0
9,2,2000010,Ciudad Autónoma de Buenos Aires,Ciudad Autónoma de Buenos Aires,Canónigo Julián Segundo Aguero,Catedral de Buenos Aires,-34.60775,-58.37325,Sepulcro,"Comisión Nacional de Monumentos, de Lugares y de Bienes Históricos (CNMLBH)",s/d,Nacional,11/7/1946,Decreto,2236.0
9,2,2000010,Ciudad Autónoma de Buenos Aires,Ciudad Autónoma de Buenos Aires,Cap.de Marina Alejandro Murature,Recoleta,-34.5875,-58.39338889,Sepulcro,"Comisión Nacional de Monumentos, de Lugares y de Bienes Históricos (CNMLBH)",s/d,Nacional,12/6/1962,Decreto,5407.0
9,2,2000010,Ciudad Autónoma de Buenos Aires,Ciudad Autónoma de Buenos Aires,Capilla de San Roque,Alsina y Defensa,-34.61033333,-58.37152778,Monumento Histórico,"Comisión Nacional de Monumentos, de Lugares y de Bienes Históricos (CNMLBH)",s/d,Nacional,21/5/1942,Decreto,120412.0
9,2,2000010,Ciudad Autónoma de Buenos Aires,Ciudad Autónoma de Buenos Aires,Capilla del Cementerio Británico,s/d,-34.59033333,-58.46544444,Monumento Histórico,"Comisión Nacional de Monumentos, de Lugares y de Bienes Históricos (CNMLBH)",s/d,Nacional,21/4/2010,Decreto,525.0
9,2,2000010,Ciudad Autónoma de Buenos Aires,Ciudad Autónoma de Buenos Aires,Carlos Pellegrini,Recoleta,-34.5875,-58.39338889,Sepulcro,"Comisión Nacional de Monumentos, de Lugares y de Bienes Históricos (CNMLBH)",s/d,Nacional,23/7/1964,Decreto,5485.0
9,2,2000010,Ciudad Autónoma de Buenos Aires,Ciudad Autónoma de Buenos Aires,Casa Carabassa,Lafinur 2988,-34.58069444,-58.41463889,Lugar Histórico,"Comisión Nacional de Monumentos, de Lugares y de Bienes Históricos (CNMLBH)",s/d,Nacional,15/4/1999,Decreto,349.0
9,2,2000010,Ciudad Autónoma de Buenos Aires,Ciudad Autónoma de Buenos Aires,Casa de Carlos Gardel,Jean Jaures 735,-34.60158333,-58.40794444,Lugar Histórico,"Comisión Nacional de Monumentos, de Lugares y de Bienes Históricos (CNMLBH)",s/d,Nacional,16/5/1997,Decreto,437.0
9,2,2000010,Ciudad Autónoma de Buenos Aires,Ciudad Autónoma de Buenos Aires,Casa de Estudios para Artistas,Paraguay 894/900,-34.59769444,-58.37975,Bien de Interés Histórico Arquitectónico,"Comisión Nacional de Monumentos, de Lugares y de Bienes Históricos (CNMLBH)",s/d,Nacional,2/5/2008,Ley,26365.0
9,2,2000010,Ciudad Autónoma de Buenos Aires,Ciudad Autónoma de Buenos Aires,Casa de Gobierno (Casa Rosada),Balcarce 50,-34.60825,-58.37041667,Monumento Histórico,"Comisión Nacional de Monumentos, de Lugares y de Bienes Históricos (CNMLBH)",s/d,Nacional,21/5/1942,Decreto,120412.0
9,2,2000010,Ciudad Autónoma de Buenos Aires,Ciudad Autónoma de Buenos Aires,Casa de Gobierno (Casa Rosada) y la totalidad de las construcciones pertenecientes a la Aduana Nueva o Aduana Taylor y al Fuerte de Buenos Aires (AMPLIACIÓN DEL DECRETO 120.412/42),s/d,-34.60825,-58.37041667,Monumento Histórico,"Comisión Nacional de Monumentos, de Lugares y de Bienes Históricos (CNMLBH)",s/d,Nacional,21/7/2014,Decreto,1137.0
9,2,2000010,Ciudad Autónoma de Buenos Aires,Ciudad Autónoma de Buenos Aires,"Casa de Gobierno (Casa Rosada), el Museo de la Casa de Gobierno (denominado Museo del Bicentenario), la Plaza Colón y la Reja Federal.",s/d,-34.60825,-58.37041667,Lugar Histórico,"Comisión Nacional de Monumentos, de Lugares y de Bienes Históricos (CNMLBH)",s/d,Nacional,21/7/2014,Decreto,1137.0
9,2,2000010,Ciudad Autónoma de Buenos Aires,Ciudad Autónoma de Buenos Aires,Casa de la Moneda,Defensa 628 y 646,-34.61519444,-58.37183333,Monumento Histórico,"Comisión Nacional de Monumentos, de Lugares y de Bienes Históricos (CNMLBH)",s/d,Nacional,4/9/1979,Decreto,2186.0
9,2,2000010,Ciudad Autónoma de Buenos Aires,Ciudad Autónoma de Buenos Aires,Casa de las Academias Nacionales,"Avenida Alvear 1711, Rodriguez Peña 1926/30",-34.58886111,-58.38708333,Monumento Histórico,"Comisión Nacional de Monumentos, de Lugares y de Bienes Históricos (CNMLBH)",s/d,Nacional,16/8/2002,Decreto,1495.0
9,2,2000010,Ciudad Autónoma de Buenos Aires,Ciudad Autónoma de Buenos Aires,Casa de Liniers,Venezuela 469,-34.61355556,-58.37277778,Monumento Histórico,"Comisión Nacional de Monumentos, de Lugares y de Bienes Históricos (CNMLBH)",s/d,Nacional,21/5/1942,Decreto,120412.0
9,2,2000010,Ciudad Autónoma de Buenos Aires,Ciudad Autónoma de Buenos Aires,Casa de Mansilla,"Frente sobre Pasaje Juan Angel Golfarini y fachada posterior sobre Tres de Febrero, entre Olazábal y Blanco Encalada",-34.55661111,-58.45405556,Monumento Histórico Artístico,"Comisión Nacional de Monumentos, de Lugares y de Bienes Históricos (CNMLBH)",s/d,Nacional,7/9/2000,Ley,25317.0
9,2,2000010,Ciudad Autónoma de Buenos Aires,Ciudad Autónoma de Buenos Aires,Casa de María Josefa Ezcurra de Ezcurra,Alsina 455/59,-34.61016667,-58.37283333,Monumento Histórico,"Comisión Nacional de Monumentos, de Lugares y de Bienes Históricos (CNMLBH)",s/d,Nacional,24/10/1997,Decreto,1110.0
9,2,2000010,Ciudad Autónoma de Buenos Aires,Ciudad Autónoma de Buenos Aires,Casa del Cmte.Tomas Espora,Caseros Nº 2522/26,-34.63566667,-58.39777778,Monumento Histórico,"Comisión Nacional de Monumentos, de Lugares y de Bienes Históricos (CNMLBH)",s/d,Nacional,3/3/1961,Decreto,1690.0
9,2,2000010,Ciudad Autónoma de Buenos Aires,Ciudad Autónoma de Buenos Aires,Casa del Dr. Baldomero Fernández Moreno,Francisco Bilbao 2384,-34.63491667,-58.45994444,Monumento Histórico Artístico,"Comisión Nacional de Monumentos, de Lugares y de Bienes Históricos (CNMLBH)",s/d,Nacional,14/8/1996,Ley,24678.0
9,2,2000010,Ciudad Autónoma de Buenos Aires,Ciudad Autónoma de Buenos Aires,Casa del Dr. Bernardo Alberto Houssay,Viamonte 2790,-34.60083333,-58.40541667,Lugar Histórico,"Comisión Nacional de Monumentos, de Lugares y de Bienes Históricos (CNMLBH)",s/d,Nacional,15/4/1999,Decreto,349.0
9,2,2000010,Ciudad Autónoma de Buenos Aires,Ciudad Autónoma de Buenos Aires,Casa del Gral. Miguel de Azcuénaga,Rivadavia 413,-34.60775,-58.37244444,Lugar Histórico,"Comisión Nacional de Monumentos, de Lugares y de Bienes Históricos (CNMLBH)",s/d,Nacional,30/5/1961,Decreto,4340.0
9,2,2000010,Ciudad Autónoma de Buenos Aires,Ciudad Autónoma de Buenos Aires,Casa del Teatro,Avenida Santa Fe Nº 1235/39/43/45,-34.59544444,-58.38483333,Monumento Histórico,"Comisión Nacional de Monumentos, de Lugares y de Bienes Históricos (CNMLBH)",s/d,Nacional,13/8/2002,Decreto,1462.0
9,2,2000010,Ciudad Autónoma de Buenos Aires,Ciudad Autónoma de Buenos Aires,Casa Marcó del Pont,General Artigas 206,-34.62733333,-58.46522222,Monumento Histórico,"Comisión Nacional de Monumentos, de Lugares y de Bienes Históricos (CNMLBH)",s/d,Nacional,22/7/1976,Decreto,1388.0
9,2,2000010,Ciudad Autónoma de Buenos Aires,Ciudad Autónoma de Buenos Aires,Casa Nacional de la Cultura - sede de la Secretaría de Cultura de la Nación,"Avenida Alvear 1690, Rodriguez Peña 1881",-34.58925,-58.38697222,Monumento Histórico,"Comisión Nacional de Monumentos, de Lugares y de Bienes Históricos (CNMLBH)",s/d,Nacional,16/8/2002,Decreto,1495.0
9,2,2000010,Ciudad Autónoma de Buenos Aires,Ciudad Autónoma de Buenos Aires,Casa natal del Gral. Antonio González Balcarce,Balcarce 151/61,-34.60941667,-58.37075,Lugar Histórico,"Comisión Nacional de Monumentos, de Lugares y de Bienes Históricos (CNMLBH)",s/d,Nacional,16/5/1997,Decreto,437.0
9,2,2000010,Ciudad Autónoma de Buenos Aires,Ciudad Autónoma de Buenos Aires,Casa proyectada por el arquitecto Alejandro Virasoro,Agüero 2038/42,-34.58822222,-58.40247222,Monumento Histórico,"Comisión Nacional de Monumentos, de Lugares y de Bienes Históricos (CNMLBH)",s/d,Nacional,13/8/2002,Decreto,1462.0
9,2,2000010,Ciudad Autónoma de Buenos Aires,Ciudad Autónoma de Buenos Aires,Casa que habitó Adolfo Alsina,Adolfo Alsina 1169/73,-34.61091667,-58.38291667,Lugar Histórico,"Comisión Nacional de Monumentos, de Lugares y de Bienes Históricos (CNMLBH)",s/d,Nacional,20/3/1979,Decreto,653.0
9,2,2000010,Ciudad Autónoma de Buenos Aires,Ciudad Autónoma de Buenos Aires,Casa que habitó Domingo F.Sarmiento,Sarmiento 1253,-34.60511111,-58.38447222,Monumento Histórico,"Comisión Nacional de Monumentos, de Lugares y de Bienes Históricos (CNMLBH)",s/d,Nacional,13/5/1948,Decreto,13725.0
9,2,2000010,Ciudad Autónoma de Buenos Aires,Ciudad Autónoma de Buenos Aires,Casa que habitó el Dr. Alfredo Palacios,Charcas 4741,-34.58105556,-58.42663889,Lugar Histórico,"Comisión Nacional de Monumentos, de Lugares y de Bienes Históricos (CNMLBH)",s/d,Nacional,26/10/1992,Ley,24169.0
9,2,2000010,Ciudad Autónoma de Buenos Aires,Ciudad Autónoma de Buenos Aires,Casa que habitó el Gral. Bartolomé Mitre (Sede del Museo Mitre),San Martín 336,-34.604,-58.37388889,Monumento Histórico,"Comisión Nacional de Monumentos, de Lugares y de Bienes Históricos (CNMLBH)",s/d,Nacional,21/5/1942,Decreto,120412.0
9,2,2000010,Ciudad Autónoma de Buenos Aires,Ciudad Autónoma de Buenos Aires,Casa que habitó Ricardo Rojas,Charcas 2837,-34.59391667,-58.4065,Monumento Histórico,"Comisión Nacional de Monumentos, de Lugares y de Bienes Históricos (CNMLBH)",s/d,Nacional,29/5/1958,Ley,14437.0
9,2,2000010,Ciudad Autónoma de Buenos Aires,Ciudad Autónoma de Buenos Aires,"Casa y Capilla de Ejercicios Espirituales y Colegio Nuestra Señora de Belén (actual Academia Superior de Estudios Penitenciarios y Museo Penitenciario ""Antonio Ballvé""",Humberto I 378 - ( Servicio Penitenciario Federal : Av San Juan 369),-34.62163889,-58.37091667,Monumento Histórico,"Comisión Nacional de Monumentos, de Lugares y de Bienes Históricos (CNMLBH)",s/d,Nacional,26/5/1982,Decreto,1034.0
9,2,2000010,Ciudad Autónoma de Buenos Aires,Ciudad Autónoma de Buenos Aires,Casal de Catalunya,"Chacabuco Nros. 855, 863, 869 y 875",-34.61805556,-58.37597222,Monumento Histórico,"Comisión Nacional de Monumentos, de Lugares y de Bienes Históricos (CNMLBH)",s/d,Nacional,22/7/2014,Decreto,1163.0
9,2,2000010,Ciudad Autónoma de Buenos Aires,Ciudad Autónoma de Buenos Aires,Catedral Anglicana de San Juan Bautista,25 de Mayo 276/82,-34.60455556,-58.37105556,Monumento Histórico Artístico,"Comisión Nacional de Monumentos, de Lugares y de Bienes Históricos (CNMLBH)",s/d,Nacional,29/12/2000,Decreto,1296.0
9,2,2000010,Ciudad Autónoma de Buenos Aires,Ciudad Autónoma de Buenos Aires,Catedral de la Ciudad de Buenos Aires,Rivadavia y San Martín,-34.60766667,-58.37338889,Monumento Histórico,"Comisión Nacional de Monumentos, de Lugares y de Bienes Históricos (CNMLBH)",s/d,Nacional,21/5/1942,Decreto,120412.0
9,2,2000010,Ciudad Autónoma de Buenos Aires,Ciudad Autónoma de Buenos Aires,Cecilia Grierson,Cementerio Británico,-34.59091667,-58.46488889,Sepulcro,"Comisión Nacional de Monumentos, de Lugares y de Bienes Históricos (CNMLBH)",s/d,Nacional,21/4/2010,Decreto,525.0
9,2,2000010,Ciudad Autónoma de Buenos Aires,Ciudad Autónoma de Buenos Aires,"Cementerio de la Chacarita - Sector identificado como Sección 2, Manzana 9, Tablón 13.",s/d,-34.59011111,-58.45847222,Lugar Histórico,"Comisión Nacional de Monumentos, de Lugares y de Bienes Históricos (CNMLBH)",s/d,Nacional,2/10/2007,Decreto,1289.0
9,2,2000010,Ciudad Autónoma de Buenos Aires,Ciudad Autónoma de Buenos Aires,Centro Cultural General San Martín,Sarmiento 1551,-34.60525,-58.38841667,Bien de interés histórico-artístico,"Comisión Nacional de Monumentos, de Lugares y de Bienes Históricos (CNMLBH)",s/d,Nacional,21/6/2011,Decreto,837.0
9,2,2000010,Ciudad Autónoma de Buenos Aires,Ciudad Autónoma de Buenos Aires,Centro Nacional de Alto Rendimiento Deportivo (CENARD),Av. Miguel B. Sánchez 1050,-34.54311111,-58.45588889,Monumento Histórico,"Comisión Nacional de Monumentos, de Lugares y de Bienes Históricos (CNMLBH)",s/d,Nacional,2/10/2007,Decreto,1272.0
9,2,2000010,Ciudad Autónoma de Buenos Aires,Ciudad Autónoma de Buenos Aires,Centro Nacional de la Música (ex Biblioteca Nacional),México 560/62/64/68/84,-34.61491667,-58.37397222,Monumento Histórico,"Comisión Nacional de Monumentos, de Lugares y de Bienes Históricos (CNMLBH)",s/d,Nacional,10/5/2004,Decreto,570.0
9,2,2000010,Ciudad Autónoma de Buenos Aires,Ciudad Autónoma de Buenos Aires,"Centro Nacional de Reeducación Social (CENARESO), Asociación de Lucha contra la Bulimia y la Anorexia, y el Instituto de Formación Juan Pablo II","Combate de los Pozos 2073, 2133 y 2193",-34.63280556,-58.39133333,Monumento Histórico,"Comisión Nacional de Monumentos, de Lugares y de Bienes Históricos (CNMLBH)",s/d,Nacional,24/11/2015,Decreto,2524.0
9,2,2000010,Ciudad Autónoma de Buenos Aires,Ciudad Autónoma de Buenos Aires,Centro Vasco Laurak Bat,Avenida Belgrano 1144,-34.61322222,-58.38247222,Bien de Interés Histórico,"Comisión Nacional de Monumentos, de Lugares y de Bienes Históricos (CNMLBH)",s/d,Nacional,22/7/2014,Decreto,1163.0
9,2,2000010,Ciudad Autónoma de Buenos Aires,Ciudad Autónoma de Buenos Aires,Cine Teatro Gran Rex,Av. Corrientes 837,-34.60341667,-58.37883333,Monumento Histórico,"Comisión Nacional de Monumentos, de Lugares y de Bienes Históricos (CNMLBH)",s/d,Nacional,21/6/2011,Decreto,837.0
9,2,2000010,Ciudad Autónoma de Buenos Aires,Ciudad Autónoma de Buenos Aires,Cine Teatro Ópera,Av. Corrientes 860,-34.60341667,-58.37883333,Monumento Histórico,"Comisión Nacional de Monumentos, de Lugares y de Bienes Históricos (CNMLBH)",s/d,Nacional,21/6/2011,Decreto,837.0
9,2,2000010,Ciudad Autónoma de Buenos Aires,Ciudad Autónoma de Buenos Aires,Cine Teatro Regio,Av. Córdoba 6056,-34.58416667,-58.44586111,Bien de interés histórico-artístico,"Comisión Nacional de Monumentos, de Lugares y de Bienes Históricos (CNMLBH)",s/d,Nacional,21/6/2011,Decreto,837.0
9,2,2000010,Ciudad Autónoma de Buenos Aires,Ciudad Autónoma de Buenos Aires,Club de Pescadores,"Sobre el Rio de la Plata, frente a la Avenida Costanera Rafael Obligado",-34.56325,-58.4035,Monumento Histórico,"Comisión Nacional de Monumentos, de Lugares y de Bienes Históricos (CNMLBH)",s/d,Nacional,11/6/2001,Decreto,766.0
9,2,2000010,Ciudad Autónoma de Buenos Aires,Ciudad Autónoma de Buenos Aires,Club Español,Bernardo de Irigoyen Nros. 172/180,-34.61047222,-58.38047222,Monumento Histórico,"Comisión Nacional de Monumentos, de Lugares y de Bienes Históricos (CNMLBH)",s/d,Nacional,22/7/2014,Decreto,1163.0
9,2,2000010,Ciudad Autónoma de Buenos Aires,Ciudad Autónoma de Buenos Aires,"Club Gimnasia y Esgrima de Buenos Aires, sede General San Martín",Avenida Presidente Figueroa Alcorta 5575,-34.56022222,-58.42594444,Monumento Histórico,"Comisión Nacional de Monumentos, de Lugares y de Bienes Históricos (CNMLBH)",s/d,Nacional,22/7/2014,Decreto,1163.0
9,2,2000010,Ciudad Autónoma de Buenos Aires,Ciudad Autónoma de Buenos Aires,Cnel. de Marina José Murature,Recoleta,-34.5875,-58.39338889,Sepulcro,"Comisión Nacional de Monumentos, de Lugares y de Bienes Históricos (CNMLBH)",s/d,Nacional,12/6/1962,Decreto,5407.0
9,2,2000010,Ciudad Autónoma de Buenos Aires,Ciudad Autónoma de Buenos Aires,Cnel. Federico Brandsen,Recoleta,-34.5875,-58.39338889,Sepulcro,"Comisión Nacional de Monumentos, de Lugares y de Bienes Históricos (CNMLBH)",s/d,Nacional,31/1/1946,Decreto,3039.0
9,2,2000010,Ciudad Autónoma de Buenos Aires,Ciudad Autónoma de Buenos Aires,Cnel. Hilario Ascasubi,Recoleta,-34.5875,-58.39338889,Sepulcro,"Comisión Nacional de Monumentos, de Lugares y de Bienes Históricos (CNMLBH)",s/d,Nacional,31/1/1946,Decreto,3039.0
9,2,2000010,Ciudad Autónoma de Buenos Aires,Ciudad Autónoma de Buenos Aires,Cnel. Ignacio Alvarez Thomas,Recoleta,-34.5875,-58.39338889,Sepulcro,"Comisión Nacional de Monumentos, de Lugares y de Bienes Históricos (CNMLBH)",s/d,Nacional,31/1/1946,Decreto,3039.0
9,2,2000010,Ciudad Autónoma de Buenos Aires,Ciudad Autónoma de Buenos Aires,Cnel. Isidoro Suárez,Recoleta,-34.5875,-58.39338889,Sepulcro,"Comisión Nacional de Monumentos, de Lugares y de Bienes Históricos (CNMLBH)",s/d,Nacional,2/10/1946,Decreto,12806.0
9,2,2000010,Ciudad Autónoma de Buenos Aires,Ciudad Autónoma de Buenos Aires,Cnel. Jordan Czeslaw Wysocki,Recoleta,-34.5875,-58.39338889,Sepulcro,"Comisión Nacional de Monumentos, de Lugares y de Bienes Históricos (CNMLBH)",s/d,Nacional,4/10/1976,Decreto,2367.0
9,2,2000010,Ciudad Autónoma de Buenos Aires,Ciudad Autónoma de Buenos Aires,Cnel. José de Olavarría,Recoleta,-34.5875,-58.39338889,Sepulcro,"Comisión Nacional de Monumentos, de Lugares y de Bienes Históricos (CNMLBH)",s/d,Nacional,2/10/1946,Decreto,12806.0
9,2,2000010,Ciudad Autónoma de Buenos Aires,Ciudad Autónoma de Buenos Aires,Cnel. Manuel Dorrego,Recoleta,-34.5875,-58.39338889,Sepulcro,"Comisión Nacional de Monumentos, de Lugares y de Bienes Históricos (CNMLBH)",s/d,Nacional,31/1/1946,Decreto,3039.0
9,2,2000010,Ciudad Autónoma de Buenos Aires,Ciudad Autónoma de Buenos Aires,Cnel. Pedro José Díaz,Recoleta,-34.5875,-58.39338889,Sepulcro,"Comisión Nacional de Monumentos, de Lugares y de Bienes Históricos (CNMLBH)",s/d,Nacional,2/10/1946,Decreto,12806.0
9,2,2000010,Ciudad Autónoma de Buenos Aires,Ciudad Autónoma de Buenos Aires,Cnel. Ramón L. Falcón,Recoleta,-34.5875,-58.39338889,Sepulcro,"Comisión Nacional de Monumentos, de Lugares y de Bienes Históricos (CNMLBH)",s/d,Nacional,30/10/1981,Decreto,1809.0
9,2,2000010,Ciudad Autónoma de Buenos Aires,Ciudad Autónoma de Buenos Aires,Cnel.de Marina Francisco Seguí,Recoleta,-34.5875,-58.39338889,Sepulcro,"Comisión Nacional de Monumentos, de Lugares y de Bienes Históricos (CNMLBH)",s/d,Nacional,3/11/1947,Decreto,34033.0
9,2,2000010,Ciudad Autónoma de Buenos Aires,Ciudad Autónoma de Buenos Aires,"Coches Nros. 5, 10, 16, 22, 27, 48, 81, 83, 86, 100, 107, 114, 121, 124, 125, y Nº 3 English Electric, coches tirados a caballo y el tranvía “Compañía Lacroze”","Línea ""A"" de subterráneos",-34.62805556,-58.44225,Monumento Histórico,"Comisión Nacional de Monumentos, de Lugares y de Bienes Históricos (CNMLBH)",s/d,Nacional,25/9/2014,Decreto,1670.0
9,2,2000010,Ciudad Autónoma de Buenos Aires,Ciudad Autónoma de Buenos Aires,Colegio Nacional de Buenos Aires,Bolívar 263,-34.61094444,-58.37363889,Lugar Histórico,"Comisión Nacional de Monumentos, de Lugares y de Bienes Históricos (CNMLBH)",s/d,Nacional,5/11/1943,Decreto,12904.0
9,2,2000010,Ciudad Autónoma de Buenos Aires,Ciudad Autónoma de Buenos Aires,Colegio Nacional de Buenos Aires,Bolívar Nros. 233/61/63/65,-34.61094444,-58.37363889,Monumento Histórico,"Comisión Nacional de Monumentos, de Lugares y de Bienes Históricos (CNMLBH)",s/d,Nacional,11/7/2016,Decreto,843.0
9,2,2000010,Ciudad Autónoma de Buenos Aires,Ciudad Autónoma de Buenos Aires,Colegio San José (Declarado también por Decreto 950/98,Azcuénaga 158/62 - Bartolomé Mitre 2455 - Tte. Gral. Perón 2450,-34.60816667,-58.401,Monumento Histórico,"Comisión Nacional de Monumentos, de Lugares y de Bienes Históricos (CNMLBH)",s/d,Nacional,28/10/1998,Ley,25045.0
9,2,2000010,Ciudad Autónoma de Buenos Aires,Ciudad Autónoma de Buenos Aires,Colegio San José (declarado también por Ley 25045),Azcuénaga 158/62 - Bartolomé Mitre 2455 - Tte. Gral. Perón 2450,-34.60816667,-58.401,Monumento Histórico,"Comisión Nacional de Monumentos, de Lugares y de Bienes Históricos (CNMLBH)",s/d,Nacional,14/8/1998,Decreto,950.0
9,2,2000010,Ciudad Autónoma de Buenos Aires,Ciudad Autónoma de Buenos Aires,Confederación General del Trabajo (C.G.T.),Azopardo 820,-34.61713889,-58.36725,Monumento Histórico,"Comisión Nacional de Monumentos, de Lugares y de Bienes Históricos (CNMLBH)",s/d,Nacional,12/9/2007,Decreto,1233.0
9,2,2000010,Ciudad Autónoma de Buenos Aires,Ciudad Autónoma de Buenos Aires,Confederación General Económica,Av. Rivadavia 1113/1115/1119/1123,-34.6085,-58.38225,Lugar Histórico,"Comisión Nacional de Monumentos, de Lugares y de Bienes Históricos (CNMLBH)",s/d,Nacional,21/4/2010,Decreto,523.0
9,2,2000010,Ciudad Autónoma de Buenos Aires,Ciudad Autónoma de Buenos Aires,Confitería El Molino,Rivadavia 1801,-34.60902778,-58.39225,Monumento Histórico,"Comisión Nacional de Monumentos, de Lugares y de Bienes Históricos (CNMLBH)",s/d,Nacional,24/10/1997,Decreto,1110.0
9,2,2000010,Ciudad Autónoma de Buenos Aires,Ciudad Autónoma de Buenos Aires,Congreso de la Nación,Av. Entre Ríos y Rivadavia,-34.60966667,-58.39258333,Monumento Histórico,"Comisión Nacional de Monumentos, de Lugares y de Bienes Históricos (CNMLBH)",s/d,Nacional,28/12/1993,Decreto,2676.0
9,2,2000010,Ciudad Autónoma de Buenos Aires,Ciudad Autónoma de Buenos Aires,Conjunto El Hogar Obrero Villa Ortúzar,"Giribone Nros. 1321/25, Álvarez Thomas Nros. 1320/26/30 y Elcano Nro. 3665",-34.57911111,-58.46086111,Bien de interés histórico nacional,"Comisión Nacional de Monumentos, de Lugares y de Bienes Históricos (CNMLBH)",s/d,Nacional,3/7/2015,Decreto,1302.0
9,2,2000010,Ciudad Autónoma de Buenos Aires,Ciudad Autónoma de Buenos Aires,Convento de las Catalinas. Convento de Santa Catalina de Siena,"Calles San Martín, Viamonte, Reconquista y Córdoba",-34.59913889,-58.37383333,Monumento Histórico,"Comisión Nacional de Monumentos, de Lugares y de Bienes Históricos (CNMLBH)",s/d,Nacional,18/2/1975,Decreto,369.0
9,2,2000010,Ciudad Autónoma de Buenos Aires,Ciudad Autónoma de Buenos Aires,Convento de los Mercedarios,Reconquista 269,-34.605,-58.37222222,Monumento Histórico,"Comisión Nacional de Monumentos, de Lugares y de Bienes Históricos (CNMLBH)",s/d,Nacional,14/8/1957,Decreto,9532.0
9,2,2000010,Ciudad Autónoma de Buenos Aires,Ciudad Autónoma de Buenos Aires,Convento de los Recoletos Franciscanos (Centro Cultural Recoleta - ex Asilo de ancianos Gob. Viamonte),Junin 1930,-34.58636111,-58.39169444,Monumento Histórico,"Comisión Nacional de Monumentos, de Lugares y de Bienes Históricos (CNMLBH)",s/d,Nacional,28/9/1948,Decreto,29746.0
9,2,2000010,Ciudad Autónoma de Buenos Aires,Ciudad Autónoma de Buenos Aires,"Corbeta ""Uruguay""",s/d,-34.60422222,-58.36625,Monumento Histórico,"Comisión Nacional de Monumentos, de Lugares y de Bienes Históricos (CNMLBH)",s/d,Nacional,6/6/1967,Decreto,3968.0
9,2,2000010,Ciudad Autónoma de Buenos Aires,Ciudad Autónoma de Buenos Aires,Cornelio Saavedra,Recoleta,-34.5875,-58.39338889,Sepulcro,"Comisión Nacional de Monumentos, de Lugares y de Bienes Históricos (CNMLBH)",s/d,Nacional,31/1/1946,Decreto,3039.0
9,2,2000010,Ciudad Autónoma de Buenos Aires,Ciudad Autónoma de Buenos Aires,Coronel Juan Bautista Thorne,Cementerio Británico,-34.59111111,-58.46488889,Sepulcro,"Comisión Nacional de Monumentos, de Lugares y de Bienes Históricos (CNMLBH)",s/d,Nacional,21/4/2010,Decreto,525.0
9,2,2000010,Ciudad Autónoma de Buenos Aires,Ciudad Autónoma de Buenos Aires,Crematorio Municipal,Cementerio de la Chacarita,-34.59105556,-58.46130556,Monumento Histórico,"Comisión Nacional de Monumentos, de Lugares y de Bienes Históricos (CNMLBH)",s/d,Nacional,2/10/2007,Decreto,1289.0
9,2,2000010,Ciudad Autónoma de Buenos Aires,Ciudad Autónoma de Buenos Aires,Dársena Norte (Combate Naval de Los Pozos),s/d,-34.59447222,-58.36627778,Lugar Histórico,"Comisión Nacional de Monumentos, de Lugares y de Bienes Históricos (CNMLBH)",s/d,Nacional,21/5/1942,Decreto,120412.0
9,2,2000010,Ciudad Autónoma de Buenos Aires,Ciudad Autónoma de Buenos Aires,Deán Saturnino Segurola,Catedral de Buenos Aires,-34.60763889,-58.37333333,Sepulcro,"Comisión Nacional de Monumentos, de Lugares y de Bienes Históricos (CNMLBH)",s/d,Nacional,11/7/1946,Decreto,2236.0
9,2,2000010,Ciudad Autónoma de Buenos Aires,Ciudad Autónoma de Buenos Aires,Delfina Vedia de Mitre,Recoleta,-34.5875,-58.39338889,Sepulcro,"Comisión Nacional de Monumentos, de Lugares y de Bienes Históricos (CNMLBH)",s/d,Nacional,31/1/1946,Decreto,3039.0
9,2,2000010,Ciudad Autónoma de Buenos Aires,Ciudad Autónoma de Buenos Aires,Diario La Prensa,Av de Mayo 567,-34.60833333,-58.37433333,Monumento Histórico,"Comisión Nacional de Monumentos, de Lugares y de Bienes Históricos (CNMLBH)",s/d,Nacional,15/11/1995,Ley,24594.0
9,2,2000010,Ciudad Autónoma de Buenos Aires,Ciudad Autónoma de Buenos Aires,Domingo Faustino Sarmiento,Recoleta,-34.5875,-58.39338889,Sepulcro,"Comisión Nacional de Monumentos, de Lugares y de Bienes Históricos (CNMLBH)",s/d,Nacional,31/1/1946,Decreto,3039.0
9,2,2000010,Ciudad Autónoma de Buenos Aires,Ciudad Autónoma de Buenos Aires,Domingo Matheu,Recoleta,-34.5875,-58.39338889,Sepulcro,"Comisión Nacional de Monumentos, de Lugares y de Bienes Históricos (CNMLBH)",s/d,Nacional,31/1/1946,Decreto,3039.0
9,2,2000010,Ciudad Autónoma de Buenos Aires,Ciudad Autónoma de Buenos Aires,Edificio “Teniente General Castiñeiras” (Ex SOMISA),Avenida Belgrano Nros. 751/69/91,-34.61263889,-58.37705556,Monumento Histórico,"Comisión Nacional de Monumentos, de Lugares y de Bienes Históricos (CNMLBH)",s/d,Nacional,3/12/2014,Decreto,2311.0
9,2,2000010,Ciudad Autónoma de Buenos Aires,Ciudad Autónoma de Buenos Aires,Edificio Ángel Giménez,Tte. Gral. Juan Domingo Perón Nros. 2070/72/74,-34.60708333,-58.39594444,Bien de interés histórico nacional,"Comisión Nacional de Monumentos, de Lugares y de Bienes Históricos (CNMLBH)",s/d,Nacional,3/7/2015,Decreto,1302.0
9,2,2000010,Ciudad Autónoma de Buenos Aires,Ciudad Autónoma de Buenos Aires,Edificio Juan B. Justo,Martín García Nros. 465/73/95 y Bolívar Nros. 1856/64/94,-34.63022222,-58.37130556,Bien de interés histórico nacional,"Comisión Nacional de Monumentos, de Lugares y de Bienes Históricos (CNMLBH)",s/d,Nacional,3/7/2015,Decreto,1302.0
9,2,2000010,Ciudad Autónoma de Buenos Aires,Ciudad Autónoma de Buenos Aires,Edificio Kavanagh,San Martín 1060/68/80/94 y Florida 1035/45/55/65/75/85/95,-34.5955,-58.37480556,Monumento Histórico,"Comisión Nacional de Monumentos, de Lugares y de Bienes Históricos (CNMLBH)",s/d,Nacional,15/4/1999,Decreto,349.0
9,2,2000010,Ciudad Autónoma de Buenos Aires,Ciudad Autónoma de Buenos Aires,Edificio que fuera el Ministerio de Obras y Servicios Públicos,"Manzana entre las avenidas 9 de Julio, Belgrano y las calles Moreno y Lima",-34.61216667,-58.38166667,Monumento Histórico,"Comisión Nacional de Monumentos, de Lugares y de Bienes Históricos (CNMLBH)",s/d,Nacional,11/4/2002,Ley,25582.0
9,2,2000010,Ciudad Autónoma de Buenos Aires,Ciudad Autónoma de Buenos Aires,Edificio Rochdale,Calles Owen Nros. 2921/31/37 y Rochdale Nros. 1134/38,-34.64738889,-58.38813889,Bien de interés histórico nacional,"Comisión Nacional de Monumentos, de Lugares y de Bienes Históricos (CNMLBH)",s/d,Nacional,3/7/2015,Decreto,1302.0
9,2,2000010,Ciudad Autónoma de Buenos Aires,Ciudad Autónoma de Buenos Aires,Edificio Tornquist,Bartolomé Mitre 523/31/59,-34.60675,-58.37461111,Monumento Histórico,"Comisión Nacional de Monumentos, de Lugares y de Bienes Históricos (CNMLBH)",s/d,Nacional,19/6/2002,Decreto,1055.0
9,2,2000010,Ciudad Autónoma de Buenos Aires,Ciudad Autónoma de Buenos Aires,Edificios de la calle Austria 2577/87/89/93/ 2601,Austria 2577/87/89/93 y 2601,-34.58433333,-58.3985,Lugar Histórico,"Comisión Nacional de Monumentos, de Lugares y de Bienes Históricos (CNMLBH)",s/d,Nacional,15/4/1999,Decreto,349.0
9,2,2000010,Ciudad Autónoma de Buenos Aires,Ciudad Autónoma de Buenos Aires,Emma Nicolay de Caprile,Recoleta,-34.5875,-58.39338889,Sepulcro,"Comisión Nacional de Monumentos, de Lugares y de Bienes Históricos (CNMLBH)",s/d,Nacional,3/9/1982,Decreto,508.0
9,2,2000010,Ciudad Autónoma de Buenos Aires,Ciudad Autónoma de Buenos Aires,"Escuela ""Catedral al Norte"" (actual J. M. Estrada)",Reconquista 461,-34.60241667,-58.37255556,Monumento Histórico,"Comisión Nacional de Monumentos, de Lugares y de Bienes Históricos (CNMLBH)",s/d,Nacional,16/1/1970,Decreto,151.0
9,2,2000010,Ciudad Autónoma de Buenos Aires,Ciudad Autónoma de Buenos Aires,"Escuela ""Otto Krause""","Paseo Colón 650, Chile - Azopardo - México",-34.61519444,-58.36869444,Bien de Interés Histórico,"Comisión Nacional de Monumentos, de Lugares y de Bienes Históricos (CNMLBH)",s/d,Nacional,31/5/1995,Ley,24491.0
9,2,2000010,Ciudad Autónoma de Buenos Aires,Ciudad Autónoma de Buenos Aires,"Escuela de Comercio Nº 2 ""Dr. Antonio Bermejo"" (fachada y primer patio)",Av. Callao 628,-34.60155556,-58.39288889,Monumento Histórico,"Comisión Nacional de Monumentos, de Lugares y de Bienes Históricos (CNMLBH)",s/d,Nacional,15/10/2012,Decreto,1946.0
9,2,2000010,Ciudad Autónoma de Buenos Aires,Ciudad Autónoma de Buenos Aires,"Escuela Nacional Normal de Profesores Nº 1 ""Pte.R.Sáenz Peña""",Avenida Córdoba 1951,-34.59936111,-58.39530556,Monumento Histórico,"Comisión Nacional de Monumentos, de Lugares y de Bienes Históricos (CNMLBH)",s/d,Nacional,30/9/1975,Ley,21181.0
9,2,2000010,Ciudad Autónoma de Buenos Aires,Ciudad Autónoma de Buenos Aires,"Escuela Normal ""Mariano Acosta""","General Urquiza 277, esquina Moreno",-34.61369444,-58.41019444,Monumento Histórico,"Comisión Nacional de Monumentos, de Lugares y de Bienes Históricos (CNMLBH)",s/d,Nacional,15/9/1999,Ley,25171.0
9,2,2000010,Ciudad Autónoma de Buenos Aires,Ciudad Autónoma de Buenos Aires,"Escuela Normal Nº 5 ""Gral. Don Martín Miguel de Güemes""",Arcamendia Nºs. 707/43/93,-34.64105556,-58.38016667,Monumento Histórico,"Comisión Nacional de Monumentos, de Lugares y de Bienes Históricos (CNMLBH)",s/d,Nacional,3/7/2015,Decreto,1288.0
9,2,2000010,Ciudad Autónoma de Buenos Aires,Ciudad Autónoma de Buenos Aires,Escuela Pedro de Mendoza Nº 19 Distrito Escolar Nº 4 – Museo de Bellas Artes de la Boca – Complejo Cultural Benito Quinquela Martín,Avenida Pedro de Mendoza 1835,-34.63902778,-58.36077778,Monumento Histórico,"Comisión Nacional de Monumentos, de Lugares y de Bienes Históricos (CNMLBH)",s/d,Nacional,29/3/2011,Decreto,373.0
9,2,2000010,Ciudad Autónoma de Buenos Aires,Ciudad Autónoma de Buenos Aires,"Escuela Técnica Nº 31, Distrito Escolar Nº 4 “Maestro Quinquela”",Avenida Pedro de Mendoza 1777,-34.63888889,-58.35963889,Monumento Histórico,"Comisión Nacional de Monumentos, de Lugares y de Bienes Históricos (CNMLBH)",s/d,Nacional,29/3/2011,Decreto,373.0
9,2,2000010,Ciudad Autónoma de Buenos Aires,Ciudad Autónoma de Buenos Aires,ESMA - Casino de Oficiales de la ex Escuela Superior de Mecánica de la Armada,"Polígono formado por las calles Pico, La Cachila, Muratore y San Martín con frente hacia Av. del Libertador",-34.53852778,-58.46380556,Monumento Histórico,"Comisión Nacional de Monumentos, de Lugares y de Bienes Históricos (CNMLBH)",s/d,Nacional,19/8/2008,Decreto,1333.0
9,2,2000010,Ciudad Autónoma de Buenos Aires,Ciudad Autónoma de Buenos Aires,ESMA - Predio y restantes edificios de la Escuela Superior de Mecánica de la Armada,"Av. del Libertador Nº 8151, 8209, 8305, 8401, 8461",-34.53852778,-58.46380556,Lugar Histórico,"Comisión Nacional de Monumentos, de Lugares y de Bienes Históricos (CNMLBH)",s/d,Nacional,19/8/2008,Decreto,1333.0
9,2,2000010,Ciudad Autónoma de Buenos Aires,Ciudad Autónoma de Buenos Aires,Esquina Homero Manzi,San Juan 3601 (y Boedo),-34.62536111,-58.41627778,Sitio Histórico,"Comisión Nacional de Monumentos, de Lugares y de Bienes Históricos (CNMLBH)",s/d,Nacional,25/9/1996,Ley,24704.0
9,2,2000010,Ciudad Autónoma de Buenos Aires,Ciudad Autónoma de Buenos Aires,Estación Terminal Retiro,Ramos Mejía 1340/1402,-34.59161111,-58.37516667,Monumento Histórico,"Comisión Nacional de Monumentos, de Lugares y de Bienes Históricos (CNMLBH)",s/d,Nacional,20/3/1997,Decreto,262.0
9,2,2000010,Ciudad Autónoma de Buenos Aires,Ciudad Autónoma de Buenos Aires,"Estación Plaza de Mayo, Línea A",s/d,-34.60869444,-58.37058333,Monumento Histórico,"Comisión Nacional de Monumentos, de Lugares y de Bienes Históricos (CNMLBH)",s/d,Nacional,16/5/1997,Decreto,437.0
9,2,2000010,Ciudad Autónoma de Buenos Aires,Ciudad Autónoma de Buenos Aires,"Estación Perú, Línea A",s/d,-34.60855556,-58.37455556,Monumento Histórico,"Comisión Nacional de Monumentos, de Lugares y de Bienes Históricos (CNMLBH)",s/d,Nacional,16/5/1997,Decreto,437.0
9,2,2000010,Ciudad Autónoma de Buenos Aires,Ciudad Autónoma de Buenos Aires,"Estación Piedras, Línea A",s/d,-34.60886111,-58.37852778,Monumento Histórico,"Comisión Nacional de Monumentos, de Lugares y de Bienes Históricos (CNMLBH)",s/d,Nacional,16/5/1997,Decreto,437.0
9,2,2000010,Ciudad Autónoma de Buenos Aires,Ciudad Autónoma de Buenos Aires,"Estación Lima, Línea A",s/d,-34.60911111,-58.38252778,Monumento Histórico,"Comisión Nacional de Monumentos, de Lugares y de Bienes Históricos (CNMLBH)",s/d,Nacional,16/5/1997,Decreto,437.0
9,2,2000010,Ciudad Autónoma de Buenos Aires,Ciudad Autónoma de Buenos Aires,Estación Saenz Peña Línea A,s/d,-34.60941667,-58.38669444,Monumento Histórico,"Comisión Nacional de Monumentos, de Lugares y de Bienes Históricos (CNMLBH)",s/d,Nacional,16/5/1997,Decreto,437.0
9,2,2000010,Ciudad Autónoma de Buenos Aires,Ciudad Autónoma de Buenos Aires,Estación Congreso,s/d,-34.60922222,-58.39269444,Monumento Histórico,"Comisión Nacional de Monumentos, de Lugares y de Bienes Históricos (CNMLBH)",s/d,Nacional,16/5/1997,Decreto,437.0
9,2,2000010,Ciudad Autónoma de Buenos Aires,Ciudad Autónoma de Buenos Aires,"Estación Pasco (Norte), Línea A",s/d,-34.60966667,-58.39830556,Monumento Histórico,"Comisión Nacional de Monumentos, de Lugares y de Bienes Históricos (CNMLBH)",s/d,Nacional,16/5/1997,Decreto,437.0
9,2,2000010,Ciudad Autónoma de Buenos Aires,Ciudad Autónoma de Buenos Aires,"Estación Alberti (Sur), Línea A",s/d,-34.60983333,-58.40075,Monumento Histórico,"Comisión Nacional de Monumentos, de Lugares y de Bienes Históricos (CNMLBH)",s/d,Nacional,16/5/1997,Decreto,437.0
9,2,2000010,Ciudad Autónoma de Buenos Aires,Ciudad Autónoma de Buenos Aires,"Estación Plaza Miserere, Línea A",s/d,-34.60972222,-58.40683333,Monumento Histórico,"Comisión Nacional de Monumentos, de Lugares y de Bienes Históricos (CNMLBH)",s/d,Nacional,16/5/1997,Decreto,437.0
9,2,2000010,Ciudad Autónoma de Buenos Aires,Ciudad Autónoma de Buenos Aires,"Estación San Juan, Línea C",s/d,-34.62275,-58.37994444,Monumento Histórico,"Comisión Nacional de Monumentos, de Lugares y de Bienes Históricos (CNMLBH)",s/d,Nacional,16/5/1997,Decreto,437.0
9,2,2000010,Ciudad Autónoma de Buenos Aires,Ciudad Autónoma de Buenos Aires,"Estación Independencia, Línea C",s/d,-34.61808333,-58.38022222,Monumento Histórico,"Comisión Nacional de Monumentos, de Lugares y de Bienes Históricos (CNMLBH)",s/d,Nacional,16/5/1997,Decreto,437.0
9,2,2000010,Ciudad Autónoma de Buenos Aires,Ciudad Autónoma de Buenos Aires,"Estación Moreno, Línea C",s/d,-34.61244444,-58.38055556,Monumento Histórico,"Comisión Nacional de Monumentos, de Lugares y de Bienes Históricos (CNMLBH)",s/d,Nacional,16/5/1997,Decreto,437.0
9,2,2000010,Ciudad Autónoma de Buenos Aires,Ciudad Autónoma de Buenos Aires,"Estación Av. De Mayo, Línea C",s/d,-34.609,-58.38069444,Monumento Histórico,"Comisión Nacional de Monumentos, de Lugares y de Bienes Históricos (CNMLBH)",s/d,Nacional,16/5/1997,Decreto,437.0
9,2,2000010,Ciudad Autónoma de Buenos Aires,Ciudad Autónoma de Buenos Aires,"Estación Diagonal Norte, Línea C",s/d,-34.60480556,-58.37930556,Monumento Histórico,"Comisión Nacional de Monumentos, de Lugares y de Bienes Históricos (CNMLBH)",s/d,Nacional,16/5/1997,Decreto,437.0
9,2,2000010,Ciudad Autónoma de Buenos Aires,Ciudad Autónoma de Buenos Aires,"Estación Lavalle, Línea C",s/d,-34.60205556,-58.37813889,Monumento Histórico,"Comisión Nacional de Monumentos, de Lugares y de Bienes Históricos (CNMLBH)",s/d,Nacional,16/5/1997,Decreto,437.0
9,2,2000010,Ciudad Autónoma de Buenos Aires,Ciudad Autónoma de Buenos Aires,"Estación San Martín,  Línea C",s/d,-34.59563889,-58.37741667,Monumento Histórico,"Comisión Nacional de Monumentos, de Lugares y de Bienes Históricos (CNMLBH)",s/d,Nacional,16/5/1997,Decreto,437.0
9,2,2000010,Ciudad Autónoma de Buenos Aires,Ciudad Autónoma de Buenos Aires,"Estación Catedral, Línea D",s/d,-34.59563889,-58.37741667,Monumento Histórico,"Comisión Nacional de Monumentos, de Lugares y de Bienes Históricos (CNMLBH)",s/d,Nacional,16/5/1997,Decreto,437.0
9,2,2000010,Ciudad Autónoma de Buenos Aires,Ciudad Autónoma de Buenos Aires,"Estación 9 de Julio, Linea D",s/d,-34.60433333,-58.38038889,Monumento Histórico,"Comisión Nacional de Monumentos, de Lugares y de Bienes Históricos (CNMLBH)",s/d,Nacional,16/5/1997,Decreto,437.0
9,2,2000010,Ciudad Autónoma de Buenos Aires,Ciudad Autónoma de Buenos Aires,"Estación Tribunales, Línea D",s/d,-34.60194444,-58.38483333,Monumento Histórico,"Comisión Nacional de Monumentos, de Lugares y de Bienes Históricos (CNMLBH)",s/d,Nacional,16/5/1997,Decreto,437.0
9,2,2000010,Ciudad Autónoma de Buenos Aires,Ciudad Autónoma de Buenos Aires,"Estación Facultad de Medicina, Línea D",s/d,-34.60194444,-58.38483333,Monumento Histórico,"Comisión Nacional de Monumentos, de Lugares y de Bienes Históricos (CNMLBH)",s/d,Nacional,16/5/1997,Decreto,437.0
9,2,2000010,Ciudad Autónoma de Buenos Aires,Ciudad Autónoma de Buenos Aires,"Estación Agüero, Línea D",s/d,-34.59172222,-58.40708333,Monumento Histórico,"Comisión Nacional de Monumentos, de Lugares y de Bienes Históricos (CNMLBH)",s/d,Nacional,16/5/1997,Decreto,437.0
9,2,2000010,Ciudad Autónoma de Buenos Aires,Ciudad Autónoma de Buenos Aires,"Estación Bulnes, Línea D",s/d,-34.58825,-58.41125,Monumento Histórico,"Comisión Nacional de Monumentos, de Lugares y de Bienes Históricos (CNMLBH)",s/d,Nacional,16/5/1997,Decreto,437.0
9,2,2000010,Ciudad Autónoma de Buenos Aires,Ciudad Autónoma de Buenos Aires,"Estación Scalabrini Ortiz, Línea D",s/d,-34.58519444,-58.41586111,Monumento Histórico,"Comisión Nacional de Monumentos, de Lugares y de Bienes Históricos (CNMLBH)",s/d,Nacional,16/5/1997,Decreto,437.0
9,2,2000010,Ciudad Autónoma de Buenos Aires,Ciudad Autónoma de Buenos Aires,"Estación Plaza Italia, Línea D",s/d,-34.58111111,-58.4215,Monumento Histórico,"Comisión Nacional de Monumentos, de Lugares y de Bienes Históricos (CNMLBH)",s/d,Nacional,16/5/1997,Decreto,437.0
9,2,2000010,Ciudad Autónoma de Buenos Aires,Ciudad Autónoma de Buenos Aires,Estación Palermo Línea D,s/d,-34.58111111,-58.4215,Monumento Histórico,"Comisión Nacional de Monumentos, de Lugares y de Bienes Históricos (CNMLBH)",s/d,Nacional,16/5/1997,Decreto,437.0
9,2,2000010,Ciudad Autónoma de Buenos Aires,Ciudad Autónoma de Buenos Aires,"Estación San José, Línea E",s/d,-34.62236111,-58.38555556,Monumento Histórico,"Comisión Nacional de Monumentos, de Lugares y de Bienes Históricos (CNMLBH)",s/d,Nacional,16/5/1997,Decreto,437.0
9,2,2000010,Ciudad Autónoma de Buenos Aires,Ciudad Autónoma de Buenos Aires,"Estación Entre Rios - Rodolfo Walsh, Línea E",s/d,-34.62236111,-58.38555556,Monumento Histórico,"Comisión Nacional de Monumentos, de Lugares y de Bienes Históricos (CNMLBH)",s/d,Nacional,16/5/1997,Decreto,437.0
9,2,2000010,Ciudad Autónoma de Buenos Aires,Ciudad Autónoma de Buenos Aires,"Estación Pichincha, Línea E",s/d,-34.62236111,-58.38555556,Monumento Histórico,"Comisión Nacional de Monumentos, de Lugares y de Bienes Históricos (CNMLBH)",s/d,Nacional,16/5/1997,Decreto,437.0
9,2,2000010,Ciudad Autónoma de Buenos Aires,Ciudad Autónoma de Buenos Aires,"Estación Jujuy, Línea E",s/d,-34.62386111,-58.40286111,Monumento Histórico,"Comisión Nacional de Monumentos, de Lugares y de Bienes Históricos (CNMLBH)",s/d,Nacional,16/5/1997,Decreto,437.0
9,2,2000010,Ciudad Autónoma de Buenos Aires,Ciudad Autónoma de Buenos Aires,"Estación Urquiza, Línea E",s/d,-34.62469444,-58.40961111,Monumento Histórico,"Comisión Nacional de Monumentos, de Lugares y de Bienes Históricos (CNMLBH)",s/d,Nacional,16/5/1997,Decreto,437.0
9,2,2000010,Ciudad Autónoma de Buenos Aires,Ciudad Autónoma de Buenos Aires,"Estación Boedo, Línea E",s/d,-34.62558333,-58.41663889,Monumento Histórico,"Comisión Nacional de Monumentos, de Lugares y de Bienes Históricos (CNMLBH)",s/d,Nacional,16/5/1997,Decreto,437.0
9,2,2000010,Ciudad Autónoma de Buenos Aires,Ciudad Autónoma de Buenos Aires,Estanislao del Campo,Recoleta,-34.5875,-58.39338889,Sepulcro,"Comisión Nacional de Monumentos, de Lugares y de Bienes Históricos (CNMLBH)",s/d,Nacional,31/1/1946,Decreto,3039.0
9,2,2000010,Ciudad Autónoma de Buenos Aires,Ciudad Autónoma de Buenos Aires,Eustoquio Díaz Vélez,Recoleta,-34.5875,-58.39338889,Sepulcro,"Comisión Nacional de Monumentos, de Lugares y de Bienes Históricos (CNMLBH)",s/d,Nacional,31/1/1946,Decreto,3039.0
9,2,2000010,Ciudad Autónoma de Buenos Aires,Ciudad Autónoma de Buenos Aires,Ex Administración del FFCC B.Mitre y el Museo Nacional Ferroviario,"Av del Libertador Gral San Martín 405, y Ramos Mejía",-34.59205556,-58.37563889,Bien de Interés Histórico Artístico,"Comisión Nacional de Monumentos, de Lugares y de Bienes Históricos (CNMLBH)",s/d,Nacional,20/3/1997,Decreto,262.0
9,2,2000010,Ciudad Autónoma de Buenos Aires,Ciudad Autónoma de Buenos Aires,"Ex Centro Clandestino de Detención ""Automotores Orletti""",General Venancio Flores Nros. 3519/21,-34.63111111,-58.47777778,Lugar Histórico,"Comisión Nacional de Monumentos, de Lugares y de Bienes Históricos (CNMLBH)",s/d,Nacional,2/10/2014,Decreto,1762.0
9,2,2000010,Ciudad Autónoma de Buenos Aires,Ciudad Autónoma de Buenos Aires,"Ex Centro Clandestino de Detención ""Club Atlético""","Cochabamba s/n, esquina Azopardo s/n",-34.62219444,-58.36811111,Lugar Histórico,"Comisión Nacional de Monumentos, de Lugares y de Bienes Históricos (CNMLBH)",s/d,Nacional,2/10/2014,Decreto,1762.0
9,2,2000010,Ciudad Autónoma de Buenos Aires,Ciudad Autónoma de Buenos Aires,"Ex Centro Clandestino de Detención ""Olimpo""","Calles Fernández, Ramón L. Falcón Nº 4202/4500, Avenida Olivera, Lacarra y Rafaela 4271",-34.63669444,-58.48672222,Lugar Histórico,"Comisión Nacional de Monumentos, de Lugares y de Bienes Históricos (CNMLBH)",s/d,Nacional,2/10/2014,Decreto,1762.0
9,2,2000010,Ciudad Autónoma de Buenos Aires,Ciudad Autónoma de Buenos Aires,"Ex Centro Clandestino de Detención ""Virrey Cevallos""",Virrey Cevallos Nros. 628/30/36,-34.61588889,-58.38911111,Lugar Histórico,"Comisión Nacional de Monumentos, de Lugares y de Bienes Históricos (CNMLBH)",s/d,Nacional,2/10/2014,Decreto,1762.0
9,2,2000010,Ciudad Autónoma de Buenos Aires,Ciudad Autónoma de Buenos Aires,ex-Hotel de Inmigrantes,Av Antártida Argentina 1355,-34.59283333,-58.36872222,Monumento Histórico,"Comisión Nacional de Monumentos, de Lugares y de Bienes Históricos (CNMLBH)",s/d,Nacional,19/11/1990,Decreto,2402.0
9,2,2000010,Ciudad Autónoma de Buenos Aires,Ciudad Autónoma de Buenos Aires,Facultad de Ingeniería (ex Sede de la Fundación Eva Perón),Av. Paseo Colón 850,-34.61736111,-58.36830556,Monumento Histórico,"Comisión Nacional de Monumentos, de Lugares y de Bienes Históricos (CNMLBH)",s/d,Nacional,27/12/2011,Ley,26714.0
9,2,2000010,Ciudad Autónoma de Buenos Aires,Ciudad Autónoma de Buenos Aires,Federación de Asociaciones Católicas de empleadas (FACE) (Casa de la Empleada),Sarmiento 1272,-34.60522222,-58.38469444,Monumento Histórico,"Comisión Nacional de Monumentos, de Lugares y de Bienes Históricos (CNMLBH)",s/d,Nacional,6/2/2006,Decreto,129.0
9,2,2000010,Ciudad Autónoma de Buenos Aires,Ciudad Autónoma de Buenos Aires,Federación de Círculos Católicos de Obreros,Junín 1063,-34.59633333,-58.3975,Bien de Interés Histórico,"Comisión Nacional de Monumentos, de Lugares y de Bienes Históricos (CNMLBH)",s/d,Nacional,11/11/2013,Decreto,1741.0
9,2,2000010,Ciudad Autónoma de Buenos Aires,Ciudad Autónoma de Buenos Aires,Feliciano Antonio Chiclana,Recoleta,-34.5875,-58.39338889,Sepulcro,"Comisión Nacional de Monumentos, de Lugares y de Bienes Históricos (CNMLBH)",s/d,Nacional,31/1/1946,Decreto,3039.0
9,2,2000010,Ciudad Autónoma de Buenos Aires,Ciudad Autónoma de Buenos Aires,First National Bank of Boston - Casa Central,Florida 99,-34.60702778,-58.37491667,Monumento Histórico,"Comisión Nacional de Monumentos, de Lugares y de Bienes Históricos (CNMLBH)",s/d,Nacional,19/6/2002,Decreto,1055.0
9,2,2000010,Ciudad Autónoma de Buenos Aires,Ciudad Autónoma de Buenos Aires,Fondeadero y espejo de agua del Yacht Club Argentino,Antepuerto Pto de Bs As,-34.59561111,-58.36325,Lugar Histórico,"Comisión Nacional de Monumentos, de Lugares y de Bienes Históricos (CNMLBH)",s/d,Nacional,11/6/2001,Decreto,766.0
9,2,2000010,Ciudad Autónoma de Buenos Aires,Ciudad Autónoma de Buenos Aires,"Fragata Escuela ""Presidente Sarmiento""",s/d,-34.60886111,-58.36572222,Monumento Histórico,"Comisión Nacional de Monumentos, de Lugares y de Bienes Históricos (CNMLBH)",s/d,Nacional,18/6/1962,Decreto,5589.0
9,2,2000010,Ciudad Autónoma de Buenos Aires,Ciudad Autónoma de Buenos Aires,Francis Amstrong de Bessler,Cementerio Británico,-34.59111111,-58.46494444,Sepulcro,"Comisión Nacional de Monumentos, de Lugares y de Bienes Históricos (CNMLBH)",s/d,Nacional,21/4/2010,Decreto,525.0
9,2,2000010,Ciudad Autónoma de Buenos Aires,Ciudad Autónoma de Buenos Aires,Francisco de Escalada,Recoleta,-34.5875,-58.39338889,Sepulcro,"Comisión Nacional de Monumentos, de Lugares y de Bienes Históricos (CNMLBH)",s/d,Nacional,31/1/1946,Decreto,3039.0
9,2,2000010,Ciudad Autónoma de Buenos Aires,Ciudad Autónoma de Buenos Aires,Francisco Javier Muñiz,Recoleta,-34.5875,-58.39338889,Sepulcro,"Comisión Nacional de Monumentos, de Lugares y de Bienes Históricos (CNMLBH)",s/d,Nacional,2/10/1946,Decreto,12806.0
9,2,2000010,Ciudad Autónoma de Buenos Aires,Ciudad Autónoma de Buenos Aires,Fuente de las Nereidas,Av. Tristán Achaval Rodriguez frente a espigón (Costanera Sur),-34.61697222,-58.35675,Bien de Interés Histórico Artístico,"Comisión Nacional de Monumentos, de Lugares y de Bienes Históricos (CNMLBH)",s/d,Nacional,16/5/1997,Decreto,437.0
9,2,2000010,Ciudad Autónoma de Buenos Aires,Ciudad Autónoma de Buenos Aires,Galerías Pacífico,"Florida, Viamonte, Av Córdoba y San Martín",-34.59922222,-58.37494444,Monumento Histórico,"Comisión Nacional de Monumentos, de Lugares y de Bienes Históricos (CNMLBH)",s/d,Nacional,3/10/1989,Decreto,929.0
9,2,2000010,Ciudad Autónoma de Buenos Aires,Ciudad Autónoma de Buenos Aires,Gral. Antonio González Balcarce,Convento Santo Domingo,-34.60702778,-58.37491667,Sepulcro,"Comisión Nacional de Monumentos, de Lugares y de Bienes Históricos (CNMLBH)",s/d,Nacional,31/1/1946,Decreto,3039.0
9,2,2000010,Ciudad Autónoma de Buenos Aires,Ciudad Autónoma de Buenos Aires,Gral. Bartolomé Mitre,Recoleta,-34.5875,-58.39338889,Sepulcro,"Comisión Nacional de Monumentos, de Lugares y de Bienes Históricos (CNMLBH)",s/d,Nacional,31/1/1946,Decreto,3039.0
9,2,2000010,Ciudad Autónoma de Buenos Aires,Ciudad Autónoma de Buenos Aires,Gral. Carlos de Alvear,Recoleta,-34.5875,-58.39338889,Sepulcro,"Comisión Nacional de Monumentos, de Lugares y de Bienes Históricos (CNMLBH)",s/d,Nacional,31/1/1946,Decreto,3039.0
9,2,2000010,Ciudad Autónoma de Buenos Aires,Ciudad Autónoma de Buenos Aires,Gral. Emilio Mitre,Recoleta,-34.5875,-58.39338889,Sepulcro,"Comisión Nacional de Monumentos, de Lugares y de Bienes Históricos (CNMLBH)",s/d,Nacional,2/10/1946,Decreto,12806.0
9,2,2000010,Ciudad Autónoma de Buenos Aires,Ciudad Autónoma de Buenos Aires,Gral. Felix Benavides,Recoleta,-34.5875,-58.39338889,Sepulcro,"Comisión Nacional de Monumentos, de Lugares y de Bienes Históricos (CNMLBH)",s/d,Nacional,21/9/1983,Decreto,2465.0
9,2,2000010,Ciudad Autónoma de Buenos Aires,Ciudad Autónoma de Buenos Aires,Gral. José de San Martín,Catedral de Buenos Aires,-34.60777778,-58.37336111,Sepulcro,"Comisión Nacional de Monumentos, de Lugares y de Bienes Históricos (CNMLBH)",s/d,Nacional,31/1/1946,Decreto,3039.0
9,2,2000010,Ciudad Autónoma de Buenos Aires,Ciudad Autónoma de Buenos Aires,Gral. José M. Piran,Recoleta,-34.5875,-58.39338889,Sepulcro,"Comisión Nacional de Monumentos, de Lugares y de Bienes Históricos (CNMLBH)",s/d,Nacional,31/1/1946,Decreto,3039.0
9,2,2000010,Ciudad Autónoma de Buenos Aires,Ciudad Autónoma de Buenos Aires,Gral. José Matías Zapiola,Convento de Santo Domingo,-34.60702778,-58.37491667,Sepulcro,"Comisión Nacional de Monumentos, de Lugares y de Bienes Históricos (CNMLBH)",s/d,Nacional,2/10/1946,Decreto,12806.0
9,2,2000010,Ciudad Autónoma de Buenos Aires,Ciudad Autónoma de Buenos Aires,Gral. Juan A.Gelly y Obes,Recoleta,-34.5875,-58.39338889,Sepulcro,"Comisión Nacional de Monumentos, de Lugares y de Bienes Históricos (CNMLBH)",s/d,Nacional,31/1/1946,Decreto,3039.0
9,2,2000010,Ciudad Autónoma de Buenos Aires,Ciudad Autónoma de Buenos Aires,Gral. Juan Florencio Terrada,Recoleta,-34.5875,-58.39338889,Sepulcro,"Comisión Nacional de Monumentos, de Lugares y de Bienes Históricos (CNMLBH)",s/d,Nacional,2/10/1946,Decreto,12806.0
9,2,2000010,Ciudad Autónoma de Buenos Aires,Ciudad Autónoma de Buenos Aires,Gral. Juan José Viamonte,Recoleta,-34.5875,-58.39338889,Sepulcro,"Comisión Nacional de Monumentos, de Lugares y de Bienes Históricos (CNMLBH)",s/d,Nacional,31/1/1946,Decreto,3039.0
9,2,2000010,Ciudad Autónoma de Buenos Aires,Ciudad Autónoma de Buenos Aires,Gral. Juan Lavalle,Recoleta,-34.5875,-58.39338889,Sepulcro,"Comisión Nacional de Monumentos, de Lugares y de Bienes Históricos (CNMLBH)",s/d,Nacional,31/1/1946,Decreto,3039.0
9,2,2000010,Ciudad Autónoma de Buenos Aires,Ciudad Autónoma de Buenos Aires,Gral. Juan O'Brein,Recoleta,-34.5875,-58.39338889,Sepulcro,"Comisión Nacional de Monumentos, de Lugares y de Bienes Históricos (CNMLBH)",s/d,Nacional,31/1/1946,Decreto,3039.0
9,2,2000010,Ciudad Autónoma de Buenos Aires,Ciudad Autónoma de Buenos Aires,Gral. Julio A.Roca,Recoleta,-34.5875,-58.39338889,Sepulcro,"Comisión Nacional de Monumentos, de Lugares y de Bienes Históricos (CNMLBH)",s/d,Nacional,31/1/1946,Decreto,3039.0
9,2,2000010,Ciudad Autónoma de Buenos Aires,Ciudad Autónoma de Buenos Aires,Gral. Lucio Mansilla,Recoleta,-34.5875,-58.39338889,Sepulcro,"Comisión Nacional de Monumentos, de Lugares y de Bienes Históricos (CNMLBH)",s/d,Nacional,31/1/1946,Decreto,3039.0
9,2,2000010,Ciudad Autónoma de Buenos Aires,Ciudad Autónoma de Buenos Aires,Gral. Manuel Belgrano,Iglesia Santo Domingo,-34.60702778,-58.37491667,Sepulcro,"Comisión Nacional de Monumentos, de Lugares y de Bienes Históricos (CNMLBH)",s/d,Nacional,31/1/1946,Decreto,3039.0
9,2,2000010,Ciudad Autónoma de Buenos Aires,Ciudad Autónoma de Buenos Aires,Gral. Manuel Guillermo Pinto,Catedral de Buenos Aires,-34.60777778,-58.37336111,Sepulcro,"Comisión Nacional de Monumentos, de Lugares y de Bienes Históricos (CNMLBH)",s/d,Nacional,2/10/1946,Decreto,12806.0
9,2,2000010,Ciudad Autónoma de Buenos Aires,Ciudad Autónoma de Buenos Aires,Gral. Tomas Guido,Recoleta,-34.5875,-58.39338889,Sepulcro,"Comisión Nacional de Monumentos, de Lugares y de Bienes Históricos (CNMLBH)",s/d,Nacional,31/1/1946,Decreto,3039.0
9,2,2000010,Ciudad Autónoma de Buenos Aires,Ciudad Autónoma de Buenos Aires,Gral. Wenceslao Paunero,Recoleta,-34.5875,-58.39338889,Sepulcro,"Comisión Nacional de Monumentos, de Lugares y de Bienes Históricos (CNMLBH)",s/d,Nacional,2/10/1946,Decreto,12806.0
9,2,2000010,Ciudad Autónoma de Buenos Aires,Ciudad Autónoma de Buenos Aires,Gral.Miguel Estanislao Soler,Recoleta,-34.5875,-58.39338889,Sepulcro,"Comisión Nacional de Monumentos, de Lugares y de Bienes Históricos (CNMLBH)",s/d,Nacional,10/12/1945,Decreto,30838.0
9,2,2000010,Ciudad Autónoma de Buenos Aires,Ciudad Autónoma de Buenos Aires,Guerreros del Paraguay,Recoleta,-34.5875,-58.39338889,Sepulcro,"Comisión Nacional de Monumentos, de Lugares y de Bienes Históricos (CNMLBH)",s/d,Nacional,21/9/1983,Decreto,2464.0
9,2,2000010,Ciudad Autónoma de Buenos Aires,Ciudad Autónoma de Buenos Aires,Guillermo Rawson,Recoleta,-34.5875,-58.39338889,Sepulcro,"Comisión Nacional de Monumentos, de Lugares y de Bienes Históricos (CNMLBH)",s/d,Nacional,31/1/1946,Decreto,3039.0
9,2,2000010,Ciudad Autónoma de Buenos Aires,Ciudad Autónoma de Buenos Aires,Hogar de Tránsito Nº 2,Lafinur 2988,-34.58061111,-58.41486111,Monumento Histórico,"Comisión Nacional de Monumentos, de Lugares y de Bienes Históricos (CNMLBH)",s/d,Nacional,14/3/2007,Decreto,231.0
9,2,2000010,Ciudad Autónoma de Buenos Aires,Ciudad Autónoma de Buenos Aires,Hospital del Rey (actual Hospital de Santa Catalina),"Defensa Nº 628 y 646, con acceso por la calle Balcarce 677",-34.61513889,-58.37158333,Lugar Histórico,"Comisión Nacional de Monumentos, de Lugares y de Bienes Históricos (CNMLBH)",s/d,Nacional,4/9/1979,Decreto,2186.0
9,2,2000010,Ciudad Autónoma de Buenos Aires,Ciudad Autónoma de Buenos Aires,Iglesia de la Merced,Reconquista 207,-34.60522222,-58.37208333,Monumento Histórico,"Comisión Nacional de Monumentos, de Lugares y de Bienes Históricos (CNMLBH)",s/d,Nacional,21/5/1942,Decreto,120412.0
9,2,2000010,Ciudad Autónoma de Buenos Aires,Ciudad Autónoma de Buenos Aires,Iglesia de la Santa Cruz,Carlos Calvo 3121,-34.62161111,-58.40958333,Monumento Histórico,"Comisión Nacional de Monumentos, de Lugares y de Bienes Históricos (CNMLBH)",s/d,Nacional,11/12/2008,Decreto,2130.0
9,2,2000010,Ciudad Autónoma de Buenos Aires,Ciudad Autónoma de Buenos Aires,Iglesia de la Santa Cruz - Predio donde se encuentra ubicada,"Carlos Calvo, Gral. Urquiza, Estados Unidios y 24 de Noviembre",-34.62186111,-58.40938889,Lugar Histórico,"Comisión Nacional de Monumentos, de Lugares y de Bienes Históricos (CNMLBH)",s/d,Nacional,11/12/2008,Decreto,2130.0
9,2,2000010,Ciudad Autónoma de Buenos Aires,Ciudad Autónoma de Buenos Aires,Iglesia de las Catalinas. Iglesia de Santa Catalina de Siena,San Martín y Viamonte,-34.59958333,-58.37377778,Monumento Histórico,"Comisión Nacional de Monumentos, de Lugares y de Bienes Históricos (CNMLBH)",s/d,Nacional,21/5/1942,Decreto,120412.0
9,2,2000010,Ciudad Autónoma de Buenos Aires,Ciudad Autónoma de Buenos Aires,Iglesia de San Juan Bautista,"Alsina 824, esquina Piedras",-34.61083333,-58.37788889,Monumento Histórico,"Comisión Nacional de Monumentos, de Lugares y de Bienes Históricos (CNMLBH)",s/d,Nacional,21/5/1942,Decreto,120412.0
9,2,2000010,Ciudad Autónoma de Buenos Aires,Ciudad Autónoma de Buenos Aires,Iglesia de San Miguel,Bartolomé Mitre y Suipacha,-34.60744444,-58.379,Monumento Histórico,"Comisión Nacional de Monumentos, de Lugares y de Bienes Históricos (CNMLBH)",s/d,Nacional,11/8/1983,Decreto,2088.0
9,2,2000010,Ciudad Autónoma de Buenos Aires,Ciudad Autónoma de Buenos Aires,Iglesia de Santo Domingo,Av. Belgrano y Defensa,-34.60702778,-58.37491667,Monumento Histórico,"Comisión Nacional de Monumentos, de Lugares y de Bienes Históricos (CNMLBH)",s/d,Nacional,21/5/1942,Decreto,120412.0
9,2,2000010,Ciudad Autónoma de Buenos Aires,Ciudad Autónoma de Buenos Aires,Iglesia Nuestra Señora de Balvanera,"Bartolomé Mitre 2411/31 Circunscripción 11, Sector 9, Manzana 26",-34.60833333,-58.40097222,Monumento Histórico,"Comisión Nacional de Monumentos, de Lugares y de Bienes Históricos (CNMLBH)",s/d,Nacional,14/8/1998,Decreto,950.0
9,2,2000010,Ciudad Autónoma de Buenos Aires,Ciudad Autónoma de Buenos Aires,Iglesia Ortodoxa Rusa de la Santísima Trinidad,Brasil 315,-34.62516667,-58.37008333,Monumento Histórico Artístico,"Comisión Nacional de Monumentos, de Lugares y de Bienes Históricos (CNMLBH)",s/d,Nacional,29/12/2000,Decreto,1296.0
9,2,2000010,Ciudad Autónoma de Buenos Aires,Ciudad Autónoma de Buenos Aires,Iglesia Parroquial de Monserrat,Avenida Belgrano 1151,-34.61280556,-58.38275,Monumento Histórico,"Comisión Nacional de Monumentos, de Lugares y de Bienes Históricos (CNMLBH)",s/d,Nacional,20/10/1978,Decreto,2494.0
9,2,2000010,Ciudad Autónoma de Buenos Aires,Ciudad Autónoma de Buenos Aires,Iglesia Parroquial de San Juan Evangelista,Olavarría 486,-34.63691667,-58.35955556,Bien de Interés Histórico,"Comisión Nacional de Monumentos, de Lugares y de Bienes Históricos (CNMLBH)",s/d,Nacional,29/12/2000,Decreto,1296.0
9,2,2000010,Ciudad Autónoma de Buenos Aires,Ciudad Autónoma de Buenos Aires,Iglesia Santa Felicitas,Isabel la Católica 520,-34.63708333,-58.37338889,Monumento Histórico Artístico,"Comisión Nacional de Monumentos, de Lugares y de Bienes Históricos (CNMLBH)",s/d,Nacional,6/7/2012,Decreto,1113.0
9,2,2000010,Ciudad Autónoma de Buenos Aires,Ciudad Autónoma de Buenos Aires,Inmueble de la calle Agüero Nº 2024,Agüero 2024,-34.58836111,-58.40288889,Monumento Histórico,"Comisión Nacional de Monumentos, de Lugares y de Bienes Históricos (CNMLBH)",s/d,Nacional,3/4/2008,Decreto,562.0
9,2,2000010,Ciudad Autónoma de Buenos Aires,Ciudad Autónoma de Buenos Aires,Instituto Félix Bernasconi,Catamarca Nº 2085/2089/2095,-34.63441667,-58.40186111,Monumento Histórico,"Comisión Nacional de Monumentos, de Lugares y de Bienes Históricos (CNMLBH)",s/d,Nacional,23/6/2009,Decreto,756.0
9,2,2000010,Ciudad Autónoma de Buenos Aires,Ciudad Autónoma de Buenos Aires,Instituto Nacional Juan Domingo Perón,Austria 2593,-34.58452778,-58.39913889,Monumento Histórico,"Comisión Nacional de Monumentos, de Lugares y de Bienes Históricos (CNMLBH)",s/d,Nacional,2/5/2008,Ley,26367.0
9,2,2000010,Ciudad Autónoma de Buenos Aires,Ciudad Autónoma de Buenos Aires,Instituto Oncológico “Ángel Honorio Roffo” - Pabellón Helena Larroque de Roffo,s/d,-34.59622222,-58.49444444,Monumento Histórico,"Comisión Nacional de Monumentos, de Lugares y de Bienes Históricos (CNMLBH)",s/d,Nacional,19/5/2015,Decreto,868.0
9,2,2000010,Ciudad Autónoma de Buenos Aires,Ciudad Autónoma de Buenos Aires,Instituto Oncológico “Ángel Honorio Roffo” - Predio,Avenidas San Martín. Beiró y Nazca,-34.59622222,-58.49444444,Lugar Histórico,"Comisión Nacional de Monumentos, de Lugares y de Bienes Históricos (CNMLBH)",s/d,Nacional,19/5/2015,Decreto,868.0
9,2,2000010,Ciudad Autónoma de Buenos Aires,Ciudad Autónoma de Buenos Aires,Jardín Botánico ¨Carlos Thays¨,"Av Santa Fé, Av Las Heras, República Árabe Siria",-34.58241667,-58.41763889,Monumento Histórico,"Comisión Nacional de Monumentos, de Lugares y de Bienes Históricos (CNMLBH)",s/d,Nacional,3/4/1996,Decreto,366.0
9,2,2000010,Ciudad Autónoma de Buenos Aires,Ciudad Autónoma de Buenos Aires,Jardín Japonés,Avenida Casares 2966,-34.57505556,-58.40852778,Bien de Interés Histórico Artístico,"Comisión Nacional de Monumentos, de Lugares y de Bienes Históricos (CNMLBH)",s/d,Nacional,16/4/2008,Decreto,652.0
9,2,2000010,Ciudad Autónoma de Buenos Aires,Ciudad Autónoma de Buenos Aires,Jardín Zoológico,"Av. Las Heras, Av. Sarmiento, Av. del Libertador, República de la India",-34.58025,-58.41833333,Monumento Histórico,"Comisión Nacional de Monumentos, de Lugares y de Bienes Históricos (CNMLBH)",s/d,Nacional,16/5/1997,Decreto,437.0
9,2,2000010,Ciudad Autónoma de Buenos Aires,Ciudad Autónoma de Buenos Aires,Jennie Howard,Cementerio Británico,-34.59086111,-58.46461111,Sepulcro,"Comisión Nacional de Monumentos, de Lugares y de Bienes Históricos (CNMLBH)",s/d,Nacional,21/4/2010,Decreto,525.0
9,2,2000010,Ciudad Autónoma de Buenos Aires,Ciudad Autónoma de Buenos Aires,Jorge Alejandro Newbery,Cementerio de la Chacarita,-34.59216667,-58.46016667,Sepulcro,"Comisión Nacional de Monumentos, de Lugares y de Bienes Históricos (CNMLBH)",s/d,Nacional,16/4/2008,Decreto,654.0
9,2,2000010,Ciudad Autónoma de Buenos Aires,Ciudad Autónoma de Buenos Aires,José Antonio Terry,Recoleta,-34.5875,-58.39338889,Sepulcro,"Comisión Nacional de Monumentos, de Lugares y de Bienes Históricos (CNMLBH)",s/d,Nacional,4/6/1982,Decreto,1117.0
9,2,2000010,Ciudad Autónoma de Buenos Aires,Ciudad Autónoma de Buenos Aires,José Hernández,Recoleta,-34.5875,-58.39338889,Sepulcro,"Comisión Nacional de Monumentos, de Lugares y de Bienes Históricos (CNMLBH)",s/d,Nacional,31/1/1946,Decreto,3039.0
9,2,2000010,Ciudad Autónoma de Buenos Aires,Ciudad Autónoma de Buenos Aires,José Manuel de Estrada,Recoleta,-34.5875,-58.39338889,Sepulcro,"Comisión Nacional de Monumentos, de Lugares y de Bienes Históricos (CNMLBH)",s/d,Nacional,2/10/1946,Decreto,12806.0
9,2,2000010,Ciudad Autónoma de Buenos Aires,Ciudad Autónoma de Buenos Aires,Juan Bautista Alberdi,Recoleta,-34.5875,-58.39338889,Sepulcro,"Comisión Nacional de Monumentos, de Lugares y de Bienes Históricos (CNMLBH)",s/d,Nacional,31/1/1946,Decreto,3039.0
9,2,2000010,Ciudad Autónoma de Buenos Aires,Ciudad Autónoma de Buenos Aires,Juan Bautista Ambrosetti,Cementerio de la Chacarita,-34.59216667,-58.46016667,Sepulcro,"Comisión Nacional de Monumentos, de Lugares y de Bienes Históricos (CNMLBH)",s/d,Nacional,21/4/2010,Decreto,525.0
9,2,2000010,Ciudad Autónoma de Buenos Aires,Ciudad Autónoma de Buenos Aires,Juan Cruz Varela,Recoleta,-34.5875,-58.39338889,Sepulcro,"Comisión Nacional de Monumentos, de Lugares y de Bienes Históricos (CNMLBH)",s/d,Nacional,31/1/1946,Decreto,3039.0
9,2,2000010,Ciudad Autónoma de Buenos Aires,Ciudad Autónoma de Buenos Aires,Juan José Castelli,Iglesia de San Ignacio,-34.61044444,-58.37391667,Sepulcro,"Comisión Nacional de Monumentos, de Lugares y de Bienes Históricos (CNMLBH)",s/d,Nacional,31/1/1946,Decreto,3039.0
9,2,2000010,Ciudad Autónoma de Buenos Aires,Ciudad Autónoma de Buenos Aires,Juan José Paso,Recoleta,-34.5875,-58.39338889,Sepulcro,"Comisión Nacional de Monumentos, de Lugares y de Bienes Históricos (CNMLBH)",s/d,Nacional,31/1/1946,Decreto,3039.0
9,2,2000010,Ciudad Autónoma de Buenos Aires,Ciudad Autónoma de Buenos Aires,Juan María Gutiérrez,Recoleta,-34.5875,-58.39338889,Sepulcro,"Comisión Nacional de Monumentos, de Lugares y de Bienes Históricos (CNMLBH)",s/d,Nacional,31/1/1946,Decreto,3039.0
9,2,2000010,Ciudad Autónoma de Buenos Aires,Ciudad Autónoma de Buenos Aires,Juan Martín de Pueyrredón,Recoleta,-34.5875,-58.39338889,Sepulcro,"Comisión Nacional de Monumentos, de Lugares y de Bienes Históricos (CNMLBH)",s/d,Nacional,31/1/1946,Decreto,3039.0
9,2,2000010,Ciudad Autónoma de Buenos Aires,Ciudad Autónoma de Buenos Aires,Juan Pujol,Recoleta,-34.5875,-58.39338889,Sepulcro,"Comisión Nacional de Monumentos, de Lugares y de Bienes Históricos (CNMLBH)",s/d,Nacional,31/1/1946,Decreto,3039.0
9,2,2000010,Ciudad Autónoma de Buenos Aires,Ciudad Autónoma de Buenos Aires,Juan Ramón González Balcarce,Recoleta,-34.5875,-58.39338889,Sepulcro,"Comisión Nacional de Monumentos, de Lugares y de Bienes Históricos (CNMLBH)",s/d,Nacional,31/1/1946,Decreto,3039.0
9,2,2000010,Ciudad Autónoma de Buenos Aires,Ciudad Autónoma de Buenos Aires,Legislatura de la Ciudad de Buenos Aires,Av. Pte. Julio A. Roca Nºs 501 a 523,-34.60969444,-58.37466667,Monumento Histórico,"Comisión Nacional de Monumentos, de Lugares y de Bienes Históricos (CNMLBH)",s/d,Nacional,26/9/2011,Decreto,1495.0
9,2,2000010,Ciudad Autónoma de Buenos Aires,Ciudad Autónoma de Buenos Aires,Librería de Avila,"Alsina 500, esquina Bolívar 218",-34.61036111,-58.37336111,Lugar Histórico,"Comisión Nacional de Monumentos, de Lugares y de Bienes Históricos (CNMLBH)",s/d,Nacional,30/3/2011,Decreto,383.0
9,2,2000010,Ciudad Autónoma de Buenos Aires,Ciudad Autónoma de Buenos Aires,Lucio V. López,Recoleta,-34.5875,-58.39338889,Sepulcro,"Comisión Nacional de Monumentos, de Lugares y de Bienes Históricos (CNMLBH)",s/d,Nacional,31/1/1946,Decreto,3039.0
9,2,2000010,Ciudad Autónoma de Buenos Aires,Ciudad Autónoma de Buenos Aires,Luis Vernet,Recoleta,-34.5875,-58.39338889,Sepulcro,"Comisión Nacional de Monumentos, de Lugares y de Bienes Históricos (CNMLBH)",s/d,Nacional,26/7/1983,Decreto,1867.0
9,2,2000010,Ciudad Autónoma de Buenos Aires,Ciudad Autónoma de Buenos Aires,Luna Park,Av. Eduardo Madero 412,-34.60225,-58.36869444,Monumento Histórico,"Comisión Nacional de Monumentos, de Lugares y de Bienes Históricos (CNMLBH)",s/d,Nacional,15/2/2007,Decreto,123.0
9,2,2000010,Ciudad Autónoma de Buenos Aires,Ciudad Autónoma de Buenos Aires,Magnolia (árbol) en el Parque 3 de Febrero,Palermo,-34.57463889,-58.40844444,Árbol Histórico,"Comisión Nacional de Monumentos, de Lugares y de Bienes Históricos (CNMLBH)",s/d,Nacional,4/7/1946,Decreto,2232.0
9,2,2000010,Ciudad Autónoma de Buenos Aires,Ciudad Autónoma de Buenos Aires,Magnolias del Protomedicato (Dos ejemplares de magnolia que se encuentran en la entrada de la Escuela Nº 22),Humberto I 343,-34.62047222,-58.37080556,Árbol Histórico,"Comisión Nacional de Monumentos, de Lugares y de Bienes Históricos (CNMLBH)",s/d,Nacional,12/9/1969,Decreto,5241.0
9,2,2000010,Ciudad Autónoma de Buenos Aires,Ciudad Autónoma de Buenos Aires,Manuel G. Argerich,Chacarita,-34.59216667,-58.46016667,Sepulcro,"Comisión Nacional de Monumentos, de Lugares y de Bienes Históricos (CNMLBH)",s/d,Nacional,31/12/1970,Decreto,3395.0
9,2,2000010,Ciudad Autónoma de Buenos Aires,Ciudad Autónoma de Buenos Aires,Manzana de las Luces,Perú 222/72/94,-34.61083333,-58.37441667,Lugar Histórico,"Comisión Nacional de Monumentos, de Lugares y de Bienes Históricos (CNMLBH)",s/d,Nacional,28/9/1981,Decreto,1479.0
9,2,2000010,Ciudad Autónoma de Buenos Aires,Ciudad Autónoma de Buenos Aires,Marcos Avellaneda,Recoleta,-34.5875,-58.39338889,Sepulcro,"Comisión Nacional de Monumentos, de Lugares y de Bienes Históricos (CNMLBH)",s/d,Nacional,31/1/1946,Decreto,3039.0
9,2,2000010,Ciudad Autónoma de Buenos Aires,Ciudad Autónoma de Buenos Aires,Marcos Balcarce,Recoleta,-34.5875,-58.39338889,Sepulcro,"Comisión Nacional de Monumentos, de Lugares y de Bienes Históricos (CNMLBH)",s/d,Nacional,11/7/1946,Decreto,2236.0
9,2,2000010,Ciudad Autónoma de Buenos Aires,Ciudad Autónoma de Buenos Aires,Marcos Paz,Recoleta,-34.5875,-58.39338889,Sepulcro,"Comisión Nacional de Monumentos, de Lugares y de Bienes Históricos (CNMLBH)",s/d,Nacional,15/2/2007,Decreto,125.0
9,2,2000010,Ciudad Autónoma de Buenos Aires,Ciudad Autónoma de Buenos Aires,María Sánchez de Mendeville,Recoleta,-34.5875,-58.39338889,Sepulcro,"Comisión Nacional de Monumentos, de Lugares y de Bienes Históricos (CNMLBH)",s/d,Nacional,31/1/1946,Decreto,3039.0
9,2,2000010,Ciudad Autónoma de Buenos Aires,Ciudad Autónoma de Buenos Aires,Mariano Moreno,Recoleta,-34.5875,-58.39338889,Sepulcro,"Comisión Nacional de Monumentos, de Lugares y de Bienes Históricos (CNMLBH)",s/d,Nacional,31/1/1946,Decreto,3039.0
9,2,2000010,Ciudad Autónoma de Buenos Aires,Ciudad Autónoma de Buenos Aires,Martín Rodríguez,Recoleta,-34.5875,-58.39338889,Sepulcro,"Comisión Nacional de Monumentos, de Lugares y de Bienes Históricos (CNMLBH)",s/d,Nacional,31/1/1946,Decreto,3039.0
9,2,2000010,Ciudad Autónoma de Buenos Aires,Ciudad Autónoma de Buenos Aires,Martiniano Leguizamón,Recoleta,-34.5875,-58.39338889,Sepulcro,"Comisión Nacional de Monumentos, de Lugares y de Bienes Históricos (CNMLBH)",s/d,Nacional,8/2/1962,Decreto,1259.0
9,2,2000010,Ciudad Autónoma de Buenos Aires,Ciudad Autónoma de Buenos Aires,Mausoleo que guarda los restos de Sor María Antonia De Paz y Figueroa,Iglesia de Nuestra Señora de la Piedad,-34.60752778,-58.38811111,Sepulcro,"Comisión Nacional de Monumentos, de Lugares y de Bienes Históricos (CNMLBH)",s/d,Nacional,2/10/2014,Decreto,1752.0
9,2,2000010,Ciudad Autónoma de Buenos Aires,Ciudad Autónoma de Buenos Aires,Mercado de San Telmo,"Bolivar 950/54/58/62/64/66/68/70/74/80/82/86/94/98, Carlos Calvo 455/59/63/67/71/75/79/85/87/91/95/99, Defensa 957/61/63 y Estados Unidos 458/60/64/68/70",-34.61922222,-58.37280556,Monumento Histórico,"Comisión Nacional de Monumentos, de Lugares y de Bienes Históricos (CNMLBH)",s/d,Nacional,8/1/2001,Decreto,12.0
9,2,2000010,Ciudad Autónoma de Buenos Aires,Ciudad Autónoma de Buenos Aires,Miguel de Azcuénaga,Recoleta,-34.5875,-58.39338889,Sepulcro,"Comisión Nacional de Monumentos, de Lugares y de Bienes Históricos (CNMLBH)",s/d,Nacional,31/1/1946,Decreto,3039.0
9,2,2000010,Ciudad Autónoma de Buenos Aires,Ciudad Autónoma de Buenos Aires,Minnie Amstrong de Ridley,Cementerio Británico,-34.59086111,-58.46461111,Sepulcro,"Comisión Nacional de Monumentos, de Lugares y de Bienes Históricos (CNMLBH)",s/d,Nacional,21/4/2010,Decreto,525.0
9,2,2000010,Ciudad Autónoma de Buenos Aires,Ciudad Autónoma de Buenos Aires,"Mural ""Ejercicio Plástico"" de David A. Siqueiros",Museo Casa de Gobierno,-34.60805556,-58.3695,Bien de Interés Histórico Artístico,"Comisión Nacional de Monumentos, de Lugares y de Bienes Históricos (CNMLBH)",s/d,Nacional,11/11/2003,Decreto,1045.0
9,2,2000010,Ciudad Autónoma de Buenos Aires,Ciudad Autónoma de Buenos Aires,Museo de la Historia del Traje,Chile 832,-34.61633333,-58.37786111,Monumento Histórico,"Comisión Nacional de Monumentos, de Lugares y de Bienes Históricos (CNMLBH)",s/d,Nacional,10/10/1990,Decreto,2140.0
9,2,2000010,Ciudad Autónoma de Buenos Aires,Ciudad Autónoma de Buenos Aires,Nicolás Avellaneda,Recoleta,-34.5875,-58.39338889,Sepulcro,"Comisión Nacional de Monumentos, de Lugares y de Bienes Históricos (CNMLBH)",s/d,Nacional,31/1/1946,Decreto,3039.0
9,2,2000010,Ciudad Autónoma de Buenos Aires,Ciudad Autónoma de Buenos Aires,Nicolás Rodríguez Peña,Recoleta,-34.5875,-58.39338889,Sepulcro,"Comisión Nacional de Monumentos, de Lugares y de Bienes Históricos (CNMLBH)",s/d,Nacional,31/1/1946,Decreto,3039.0
9,2,2000010,Ciudad Autónoma de Buenos Aires,Ciudad Autónoma de Buenos Aires,Nunciatura Apostólica,"Avenida Alvear 1605/37, Montevideo 1816, Posadas 1310/20/30",-34.58933333,-58.38597222,Monumento Histórico,"Comisión Nacional de Monumentos, de Lugares y de Bienes Históricos (CNMLBH)",s/d,Nacional,16/8/2002,Decreto,1495.0
9,2,2000010,Ciudad Autónoma de Buenos Aires,Ciudad Autónoma de Buenos Aires,Obispo Manuel Azamor y Ramírez,Catedral de Buenos Aires,-34.60777778,-58.37327778,Sepulcro,"Comisión Nacional de Monumentos, de Lugares y de Bienes Históricos (CNMLBH)",s/d,Nacional,11/7/1946,Decreto,2236.0
9,2,2000010,Ciudad Autónoma de Buenos Aires,Ciudad Autónoma de Buenos Aires,Observatorio Naval Buenos Aires,Av. España 2055,-34.62422222,-58.34522222,Monumento Histórico,"Comisión Nacional de Monumentos, de Lugares y de Bienes Históricos (CNMLBH)",s/d,Nacional,15/10/2001,Decreto,1292.0
9,2,2000010,Ciudad Autónoma de Buenos Aires,Ciudad Autónoma de Buenos Aires,Olegario Andrade,Recoleta,-34.5875,-58.39338889,Sepulcro,"Comisión Nacional de Monumentos, de Lugares y de Bienes Históricos (CNMLBH)",s/d,Nacional,31/1/1946,Decreto,3039.0
9,2,2000010,Ciudad Autónoma de Buenos Aires,Ciudad Autónoma de Buenos Aires,Pabellón de Investigaciones en Psicofísica y Neurobiología del Hptal. Borda,Avenida Amancio Alcorta 1602,-34.63658333,-58.38358333,Monumento Histórico,"Comisión Nacional de Monumentos, de Lugares y de Bienes Históricos (CNMLBH)",s/d,Nacional,15/4/1999,Decreto,349.0
9,2,2000010,Ciudad Autónoma de Buenos Aires,Ciudad Autónoma de Buenos Aires,"Pabellón Principal de la Sede Central de la Administración Nacional de Laboratorios e Institutos de Salud ""Dr. Carlos G. Malbrán""",Avenida Velez Sarsfield 563,-34.64186111,-58.39027778,Monumento Histórico,"Comisión Nacional de Monumentos, de Lugares y de Bienes Históricos (CNMLBH)",s/d,Nacional,8/1/2001,Decreto,12.0
9,2,2000010,Ciudad Autónoma de Buenos Aires,Ciudad Autónoma de Buenos Aires,"Pabellones de equinos, la pista central, el salón de ventas,etc. de la Sociedad Rural Argentina",Avenida Sarmiento,-34.57975,-58.42091667,Monumento Histórico,"Comisión Nacional de Monumentos, de Lugares y de Bienes Históricos (CNMLBH)",s/d,Nacional,24/10/1997,Decreto,1110.0
9,2,2000010,Ciudad Autónoma de Buenos Aires,Ciudad Autónoma de Buenos Aires,Pacará (árbol) en el Parque Chacabuco,Parque Chacabuco,-34.63313889,-58.44430556,Árbol Histórico,"Comisión Nacional de Monumentos, de Lugares y de Bienes Históricos (CNMLBH)",s/d,Nacional,4/7/1946,Decreto,2232.0
9,2,2000010,Ciudad Autónoma de Buenos Aires,Ciudad Autónoma de Buenos Aires,Palace Hotel,"Calles Leandro N. Alem, Perón y 25 de Mayo",-34.60541667,-58.37088889,Monumento Histórico,"Comisión Nacional de Monumentos, de Lugares y de Bienes Históricos (CNMLBH)",s/d,Nacional,18/4/2001,Ley,25426.0
9,2,2000010,Ciudad Autónoma de Buenos Aires,Ciudad Autónoma de Buenos Aires,Palacio Barolo,Avenida de Mayo 1366/70/80,-34.60958333,-58.38597222,Monumento Histórico,"Comisión Nacional de Monumentos, de Lugares y de Bienes Históricos (CNMLBH)",s/d,Nacional,16/5/1997,Decreto,437.0
9,2,2000010,Ciudad Autónoma de Buenos Aires,Ciudad Autónoma de Buenos Aires,"Palacio de Aguas Corrientes (Edificio Aguas Argentinas, ex Obras Sanitarias)",Av. Córdoba 1950,-34.60019444,-58.39508333,Monumento Histórico,"Comisión Nacional de Monumentos, de Lugares y de Bienes Históricos (CNMLBH)",s/d,Nacional,9/3/1989,Decreto,325.0
9,2,2000010,Ciudad Autónoma de Buenos Aires,Ciudad Autónoma de Buenos Aires,Palacio de Correos,"Sarmiento, Leandro N. Alem, Corrientes, Bouchard",-34.6035,-58.36938889,Monumento Histórico,"Comisión Nacional de Monumentos, de Lugares y de Bienes Históricos (CNMLBH)",s/d,Nacional,20/3/1997,Decreto,262.0
9,2,2000010,Ciudad Autónoma de Buenos Aires,Ciudad Autónoma de Buenos Aires,Palacio de Justicia,Talcahuano 550,-34.60216667,-58.38580556,Monumento Histórico,"Comisión Nacional de Monumentos, de Lugares y de Bienes Históricos (CNMLBH)",s/d,Nacional,15/4/1999,Decreto,349.0
9,2,2000010,Ciudad Autónoma de Buenos Aires,Ciudad Autónoma de Buenos Aires,"Palacio Errázuriz, sede del Museo Nacional de Arte Decorativo, de la Academia Nacional de Bellas Artes y de la Academia Argentina de Letras","Av. del Libertador 1902, Pereyra Lucena 2674, Sanchez de Bustamante 2663",-34.58263889,-58.40130556,Monumento Histórico Artístico,"Comisión Nacional de Monumentos, de Lugares y de Bienes Históricos (CNMLBH)",s/d,Nacional,16/5/1997,Decreto,437.0
9,2,2000010,Ciudad Autónoma de Buenos Aires,Ciudad Autónoma de Buenos Aires,Palacio San Martín (ex Palacio Anchorena),"Basavilbaso 1210, Arenales 761/63/65 y Esmeralda 1235",-34.59388889,-58.37827778,Monumento Histórico,"Comisión Nacional de Monumentos, de Lugares y de Bienes Históricos (CNMLBH)",s/d,Nacional,16/5/1997,Decreto,437.0
9,2,2000010,Ciudad Autónoma de Buenos Aires,Ciudad Autónoma de Buenos Aires,Palacio Sarmiento (Ministerio de Educación),Pasaje Pizzurno 935/953,-34.59775,-58.39097222,Monumento Histórico,"Comisión Nacional de Monumentos, de Lugares y de Bienes Históricos (CNMLBH)",s/d,Nacional,10/1/2006,Decreto,35.0
9,2,2000010,Ciudad Autónoma de Buenos Aires,Ciudad Autónoma de Buenos Aires,Panteón de la Asociación Española de Socorros Mutuos,Cementerio de la Chacarita,-34.59216667,-58.46016667,Monumento Histórico,"Comisión Nacional de Monumentos, de Lugares y de Bienes Históricos (CNMLBH)",s/d,Nacional,21/4/2010,Decreto,525.0
9,2,2000010,Ciudad Autónoma de Buenos Aires,Ciudad Autónoma de Buenos Aires,Panteón de la Asociación Francesa Filantrópica y de Beneficencia,Cementerio de la Chacarita,-34.59216667,-58.46016667,Monumento Histórico,"Comisión Nacional de Monumentos, de Lugares y de Bienes Históricos (CNMLBH)",s/d,Nacional,21/4/2010,Decreto,525.0
9,2,2000010,Ciudad Autónoma de Buenos Aires,Ciudad Autónoma de Buenos Aires,"Panteón de la Sociedad de Socorros Mutuos ""San Crispín""",Cementerio de la Chacarita,-34.59216667,-58.46016667,Monumento Histórico,"Comisión Nacional de Monumentos, de Lugares y de Bienes Históricos (CNMLBH)",s/d,Nacional,21/4/2010,Decreto,525.0
9,2,2000010,Ciudad Autónoma de Buenos Aires,Ciudad Autónoma de Buenos Aires,Panteón de la Societé Francaise de Secours Mutuels de Buenos Aires,Cementerio de la Chacarita,-34.59216667,-58.46016667,Monumento Histórico,"Comisión Nacional de Monumentos, de Lugares y de Bienes Históricos (CNMLBH)",s/d,Nacional,21/4/2010,Decreto,525.0
9,2,2000010,Ciudad Autónoma de Buenos Aires,Ciudad Autónoma de Buenos Aires,Panteón de los Padres Salesianos,Cementerio de la Chacarita,-34.59216667,-58.46016667,Monumento Histórico,"Comisión Nacional de Monumentos, de Lugares y de Bienes Históricos (CNMLBH)",s/d,Nacional,21/4/2010,Decreto,525.0
9,2,2000010,Ciudad Autónoma de Buenos Aires,Ciudad Autónoma de Buenos Aires,Panteón del Centro Gallego,Cementerio de la Chacarita,-34.59216667,-58.46016667,Monumento Histórico,"Comisión Nacional de Monumentos, de Lugares y de Bienes Históricos (CNMLBH)",s/d,Nacional,21/4/2010,Decreto,525.0
9,2,2000010,Ciudad Autónoma de Buenos Aires,Ciudad Autónoma de Buenos Aires,Parque de la Memoria,s/d,-34.54127778,-58.43794444,Lugar Histórico,"Comisión Nacional de Monumentos, de Lugares y de Bienes Históricos (CNMLBH)",s/d,Nacional,5/8/2014,Decreto,1285.0
9,2,2000010,Ciudad Autónoma de Buenos Aires,Ciudad Autónoma de Buenos Aires,Parque de la Memoria - Centro de Documentación y Archivo Digital que se encuentra en la Sala PAyS,s/d,-34.54127778,-58.43794444,Bien de interés histórico,"Comisión Nacional de Monumentos, de Lugares y de Bienes Históricos (CNMLBH)",s/d,Nacional,5/8/2014,Decreto,1285.0
9,2,2000010,Ciudad Autónoma de Buenos Aires,Ciudad Autónoma de Buenos Aires,Parque de la Memoria - Conjunto de obras escultóricas que se encuentran emplazadas.,s/d,-34.54127778,-58.43794444,Bien de interés histórico artístico,"Comisión Nacional de Monumentos, de Lugares y de Bienes Históricos (CNMLBH)",s/d,Nacional,5/8/2014,Decreto,1285.0
9,2,2000010,Ciudad Autónoma de Buenos Aires,Ciudad Autónoma de Buenos Aires,Parque de la Memoria - Monumento a las Víctimas del Terrorismo de Estado,s/d,-34.54127778,-58.43794444,Monumento Histórico,"Comisión Nacional de Monumentos, de Lugares y de Bienes Históricos (CNMLBH)",s/d,Nacional,5/8/2014,Decreto,1285.0
9,2,2000010,Ciudad Autónoma de Buenos Aires,Ciudad Autónoma de Buenos Aires,"Parroquia ""Ntra. Sra. de la Medalla Milagrosa""",Curapaligüe 1185,-34.63658333,-58.44652778,Bien de Interés Histórico,"Comisión Nacional de Monumentos, de Lugares y de Bienes Históricos (CNMLBH)",s/d,Nacional,12/1/2009,Ley,26471.0
9,2,2000010,Ciudad Autónoma de Buenos Aires,Ciudad Autónoma de Buenos Aires,Pedro Alcántara de Somellera,Recoleta,-34.5875,-58.39338889,Sepulcro,"Comisión Nacional de Monumentos, de Lugares y de Bienes Históricos (CNMLBH)",s/d,Nacional,1/8/1951,Decreto,15090.0
9,2,2000010,Ciudad Autónoma de Buenos Aires,Ciudad Autónoma de Buenos Aires,Pedro Benoit,Recoleta,-34.5875,-58.39338889,Sepulcro,"Comisión Nacional de Monumentos, de Lugares y de Bienes Históricos (CNMLBH)",s/d,Nacional,8/9/1983,Decreto,2317.0
9,2,2000010,Ciudad Autónoma de Buenos Aires,Ciudad Autónoma de Buenos Aires,Peristilo Cementerio de la Recoleta,s/d,-34.57463889,-58.40844444,Monumento Histórico,"Comisión Nacional de Monumentos, de Lugares y de Bienes Históricos (CNMLBH)",s/d,Nacional,30/9/2007,Decreto,1289.0
9,2,2000010,Ciudad Autónoma de Buenos Aires,Ciudad Autónoma de Buenos Aires,Peristilo del Cementerio de la Chacarita,s/d,-34.57463889,-58.40844444,Monumento Histórico,"Comisión Nacional de Monumentos, de Lugares y de Bienes Históricos (CNMLBH)",s/d,Nacional,1/10/2007,Decreto,1289.0
9,2,2000010,Ciudad Autónoma de Buenos Aires,Ciudad Autónoma de Buenos Aires,Peristilos de los cementerios de Flores,s/d,-34.64766667,-58.45388889,Monumento Histórico,"Comisión Nacional de Monumentos, de Lugares y de Bienes Históricos (CNMLBH)",s/d,Nacional,2/10/2007,Decreto,1289.0
9,2,2000010,Ciudad Autónoma de Buenos Aires,Ciudad Autónoma de Buenos Aires,Pirámide de Mayo,En la Plaza de Mayo,-34.60841667,-58.37216667,Monumento Histórico,"Comisión Nacional de Monumentos, de Lugares y de Bienes Históricos (CNMLBH)",s/d,Nacional,21/5/1942,Decreto,120412.0
9,2,2000010,Ciudad Autónoma de Buenos Aires,Ciudad Autónoma de Buenos Aires,"Planetario ""Galileo Galilei""",Avenida Sarmiento y Belisario Roldán,-34.56963889,-58.41175,Bien de Interés Histórico y Artístico,"Comisión Nacional de Monumentos, de Lugares y de Bienes Históricos (CNMLBH)",s/d,Nacional,10/1/2007,Ley,26203.0
9,2,2000010,Ciudad Autónoma de Buenos Aires,Ciudad Autónoma de Buenos Aires,Plaza Coronel Dorrego,Defensa y Humberto I,-34.62055556,-58.37161111,Lugar Histórico,"Comisión Nacional de Monumentos, de Lugares y de Bienes Históricos (CNMLBH)",s/d,Nacional,28/9/1978,Decreto,2272.0
9,2,2000010,Ciudad Autónoma de Buenos Aires,Ciudad Autónoma de Buenos Aires,Plaza de la Memoria,Arroyo 916,-34.59161111,-58.38030556,Lugar Histórico,"Comisión Nacional de Monumentos, de Lugares y de Bienes Históricos (CNMLBH)",s/d,Nacional,16/7/2007,Ley,26269.0
9,2,2000010,Ciudad Autónoma de Buenos Aires,Ciudad Autónoma de Buenos Aires,Plaza de Mayo,"Av. Rivadavia, Balcarce, Bolívar e Hipólito Yrigoyen",-34.60838889,-58.37180556,Lugar Histórico,"Comisión Nacional de Monumentos, de Lugares y de Bienes Históricos (CNMLBH)",s/d,Nacional,9/6/1942,Decreto,122096.0
9,2,2000010,Ciudad Autónoma de Buenos Aires,Ciudad Autónoma de Buenos Aires,"Plaza del Congreso, Plaza Lorea y Plaza Mariano Moreno","Av. Rivadavia, Av. Entre Ríos, Hipólito Yrigoyen y Luis Sáenz Peña",-34.60963889,-58.38944444,Lugar Histórico,"Comisión Nacional de Monumentos, de Lugares y de Bienes Históricos (CNMLBH)",s/d,Nacional,16/5/1997,Decreto,437.0
9,2,2000010,Ciudad Autónoma de Buenos Aires,Ciudad Autónoma de Buenos Aires,Plaza Jardín de los Maestros,"Entre las calles Marcelo T. De Alvear, Rodríguez Peña, Paraguay y Pje. Pizzurno",-34.59802778,-58.39147222,Lugar Histórico,"Comisión Nacional de Monumentos, de Lugares y de Bienes Históricos (CNMLBH)",s/d,Nacional,10/1/2006,Decreto,35.0
9,2,2000010,Ciudad Autónoma de Buenos Aires,Ciudad Autónoma de Buenos Aires,Plaza Rodríguez Peña,"Entre las calles Marcelo T. De Alvear, Rodríguez Peña, Paraguay y Av. Callao",-34.59827778,-58.39247222,Lugar Histórico,"Comisión Nacional de Monumentos, de Lugares y de Bienes Históricos (CNMLBH)",s/d,Nacional,10/1/2006,Decreto,35.0
9,2,2000010,Ciudad Autónoma de Buenos Aires,Ciudad Autónoma de Buenos Aires,Plaza San Martín,s/d,-34.59386111,-58.37525,Lugar Histórico,"Comisión Nacional de Monumentos, de Lugares y de Bienes Históricos (CNMLBH)",s/d,Nacional,9/6/1942,Decreto,122096.0
9,2,2000010,Ciudad Autónoma de Buenos Aires,Ciudad Autónoma de Buenos Aires,Plazoleta Petronila Rodríguez,"Entre las calles Paraguay, Rodríguez Peña y Arturo Capdevila",-34.59880556,-58.39133333,Lugar Histórico,"Comisión Nacional de Monumentos, de Lugares y de Bienes Históricos (CNMLBH)",s/d,Nacional,10/1/2006,Decreto,35.0
9,2,2000010,Ciudad Autónoma de Buenos Aires,Ciudad Autónoma de Buenos Aires,Portal de acceso y Capilla del Cementerio Alemán,s/d,-34.58858333,-58.46452778,Monumento Histórico,"Comisión Nacional de Monumentos, de Lugares y de Bienes Históricos (CNMLBH)",s/d,Nacional,21/4/2010,Decreto,525.0
9,2,2000010,Ciudad Autónoma de Buenos Aires,Ciudad Autónoma de Buenos Aires,"Predio de la Administración Nacional de Laboratorios e Institutos de Salud ""Dr. Carlos G. Malbrán""",Avenida Velez Sarsfield 563,-34.64136111,-58.39027778,Lugar Histórico,"Comisión Nacional de Monumentos, de Lugares y de Bienes Históricos (CNMLBH)",s/d,Nacional,8/1/2001,Decreto,12.0
9,2,2000010,Ciudad Autónoma de Buenos Aires,Ciudad Autónoma de Buenos Aires,Predio del Yacht Club Argentino,Espigón sudeste de Dársena Norte de Puerto Madero con acceso por Av. Intendente Carlos Noel,-34.59602778,-58.36394444,Lugar Histórico,"Comisión Nacional de Monumentos, de Lugares y de Bienes Históricos (CNMLBH)",s/d,Nacional,11/6/2001,Decreto,766.0
9,2,2000010,Ciudad Autónoma de Buenos Aires,Ciudad Autónoma de Buenos Aires,Primer Arsenal de Guerra. Casa de Esteban de Luca,s/d,-34.61952778,-58.37136111,Monumento Histórico,"Comisión Nacional de Monumentos, de Lugares y de Bienes Históricos (CNMLBH)",s/d,Nacional,21/5/1942,Decreto,120412.0
9,2,2000010,Ciudad Autónoma de Buenos Aires,Ciudad Autónoma de Buenos Aires,Procuraduría Jesuítica,Perú 222,-34.61052778,-58.37480556,Monumento Histórico,"Comisión Nacional de Monumentos, de Lugares y de Bienes Históricos (CNMLBH)",s/d,Nacional,28/9/1981,Decreto,1479.0
9,2,2000010,Ciudad Autónoma de Buenos Aires,Ciudad Autónoma de Buenos Aires,"Puente Transbordador ""Nicolás Avellaneda""",La Boca-Avellaneda,-34.63788889,-58.35588889,Monumento Histórico,"Comisión Nacional de Monumentos, de Lugares y de Bienes Históricos (CNMLBH)",s/d,Nacional,15/4/1999,Decreto,349.0
9,2,2000010,Ciudad Autónoma de Buenos Aires,Ciudad Autónoma de Buenos Aires,Quinta de Valentín Alsina,11 de Septiembre Nº 1918/50,-34.56041667,-58.44972222,Monumento Histórico,"Comisión Nacional de Monumentos, de Lugares y de Bienes Históricos (CNMLBH)",s/d,Nacional,7/12/1977,Decreto,3698.0
9,2,2000010,Ciudad Autónoma de Buenos Aires,Ciudad Autónoma de Buenos Aires,Real Consulado de Buenos Aires (actual Bco.Prov. Buenos Aires),San Martín 135,-34.60636111,-58.37358333,Lugar Histórico,"Comisión Nacional de Monumentos, de Lugares y de Bienes Históricos (CNMLBH)",s/d,Nacional,30/5/1961,Decreto,4339.0
9,2,2000010,Ciudad Autónoma de Buenos Aires,Ciudad Autónoma de Buenos Aires,Recinto del antiguo Congreso Nacional,Balcarce 139,-34.60938889,-58.37075,Monumento Histórico,"Comisión Nacional de Monumentos, de Lugares y de Bienes Históricos (CNMLBH)",s/d,Nacional,21/5/1942,Decreto,120412.0
9,2,2000010,Ciudad Autónoma de Buenos Aires,Ciudad Autónoma de Buenos Aires,"Regimiento de Granaderos a Caballo ""Gral. San Martín""",Luis María Campos 554,-34.57680556,-58.42708333,Monumento Histórico,"Comisión Nacional de Monumentos, de Lugares y de Bienes Históricos (CNMLBH)",s/d,Nacional,24/10/1997,Decreto,1109.0
9,2,2000010,Ciudad Autónoma de Buenos Aires,Ciudad Autónoma de Buenos Aires,"Regimiento de Infantería 1 ""Patricios - Alojamiento y oficinas (Cuartel 1)",Int. Bullrich 475 al 517,-34.57591667,-58.42775,Monumento Histórico,"Comisión Nacional de Monumentos, de Lugares y de Bienes Históricos (CNMLBH)",s/d,Nacional,20/9/2010,Decreto,1358.0
9,2,2000010,Ciudad Autónoma de Buenos Aires,Ciudad Autónoma de Buenos Aires,"Regimiento de Infantería 1 ""Patricios - Alojamiento y oficinas (Cuartel 2)",Int. Bullrich 475 al 517,-34.57533333,-58.42825,Monumento Histórico,"Comisión Nacional de Monumentos, de Lugares y de Bienes Históricos (CNMLBH)",s/d,Nacional,20/9/2010,Decreto,1358.0
9,2,2000010,Ciudad Autónoma de Buenos Aires,Ciudad Autónoma de Buenos Aires,"Regimiento de Infantería 1 ""Patricios - Caballerizas",Int. Bullrich 475 al 517,-34.57488889,-58.429,Bien de Interés Histórico,"Comisión Nacional de Monumentos, de Lugares y de Bienes Históricos (CNMLBH)",s/d,Nacional,20/9/2010,Decreto,1358.0
9,2,2000010,Ciudad Autónoma de Buenos Aires,Ciudad Autónoma de Buenos Aires,"Regimiento de Infantería 1 ""Patricios - Capilla",Int. Bullrich 475 al 517,-34.57686111,-58.42663889,Monumento Histórico,"Comisión Nacional de Monumentos, de Lugares y de Bienes Históricos (CNMLBH)",s/d,Nacional,20/9/2010,Decreto,1358.0
9,2,2000010,Ciudad Autónoma de Buenos Aires,Ciudad Autónoma de Buenos Aires,"Regimiento de Infantería 1 ""Patricios - Cocina de tropa",Int. Bullrich 475 al 517,-34.57591667,-58.42641667,Bien de Interés Histórico,"Comisión Nacional de Monumentos, de Lugares y de Bienes Históricos (CNMLBH)",s/d,Nacional,20/9/2010,Decreto,1358.0
9,2,2000010,Ciudad Autónoma de Buenos Aires,Ciudad Autónoma de Buenos Aires,"Regimiento de Infantería 1 ""Patricios - Edificios pertenecientes al Estado Mayor",Int. Bullrich 475 al 517,-34.5755,-58.42622222,Monumento Histórico,"Comisión Nacional de Monumentos, de Lugares y de Bienes Históricos (CNMLBH)",s/d,Nacional,20/9/2010,Decreto,1358.0
9,2,2000010,Ciudad Autónoma de Buenos Aires,Ciudad Autónoma de Buenos Aires,"Regimiento de Infantería 1 ""Patricios - Gimnasio",Int. Bullrich 475 al 517,-34.57533333,-58.42694444,Bien de Interés Histórico,"Comisión Nacional de Monumentos, de Lugares y de Bienes Históricos (CNMLBH)",s/d,Nacional,20/9/2010,Decreto,1358.0
9,2,2000010,Ciudad Autónoma de Buenos Aires,Ciudad Autónoma de Buenos Aires,"Regimiento de Infantería 1 ""Patricios - Pabellón del Centenario",Int. Bullrich 475 al 517,-34.57516667,-58.42733333,Monumento Histórico,"Comisión Nacional de Monumentos, de Lugares y de Bienes Históricos (CNMLBH)",s/d,Nacional,20/9/2010,Decreto,1358.0
9,2,2000010,Ciudad Autónoma de Buenos Aires,Ciudad Autónoma de Buenos Aires,"Regimiento de Infantería 1 ""Patricios - Parque automotor",Int. Bullrich 475 al 517,-34.57486111,-58.42791667,Bien de Interés Histórico,"Comisión Nacional de Monumentos, de Lugares y de Bienes Históricos (CNMLBH)",s/d,Nacional,20/9/2010,Decreto,1358.0
9,2,2000010,Ciudad Autónoma de Buenos Aires,Ciudad Autónoma de Buenos Aires,"Regimiento de Infantería 1 ""Patricios - Predio y jardines",Int. Bullrich 475 al 517,-34.57486111,-58.42838889,Lugar Histórico,"Comisión Nacional de Monumentos, de Lugares y de Bienes Históricos (CNMLBH)",s/d,Nacional,20/9/2010,Decreto,1358.0
9,2,2000010,Ciudad Autónoma de Buenos Aires,Ciudad Autónoma de Buenos Aires,"Regimiento de Infantería 1 ""Patricios - Puesto de seguridad",Int. Bullrich 475 al 517,-34.57469444,-58.42875,Bien de Interés Histórico,"Comisión Nacional de Monumentos, de Lugares y de Bienes Históricos (CNMLBH)",s/d,Nacional,20/9/2010,Decreto,1358.0
9,2,2000010,Ciudad Autónoma de Buenos Aires,Ciudad Autónoma de Buenos Aires,"Regimiento de Infantería 1 ""Patricios - Salón Patricios",Int. Bullrich 475 al 517,-34.57455556,-58.42922222,Monumento Histórico,"Comisión Nacional de Monumentos, de Lugares y de Bienes Históricos (CNMLBH)",s/d,Nacional,20/9/2010,Decreto,1358.0
9,2,2000010,Ciudad Autónoma de Buenos Aires,Ciudad Autónoma de Buenos Aires,"Regimiento de Infantería 1 ""Patricios - Sanitarios",Int. Bullrich 475 al 517,-34.57491667,-58.43008333,Bien de Interés Histórico,"Comisión Nacional de Monumentos, de Lugares y de Bienes Históricos (CNMLBH)",s/d,Nacional,20/9/2010,Decreto,1358.0
9,2,2000010,Ciudad Autónoma de Buenos Aires,Ciudad Autónoma de Buenos Aires,"Regimiento de Infantería 1 ""Patricios - Taller automotor",Int. Bullrich 475 al 517,-34.57538889,-58.42963889,Bien de Interés Histórico,"Comisión Nacional de Monumentos, de Lugares y de Bienes Históricos (CNMLBH)",s/d,Nacional,20/9/2010,Decreto,1358.0
9,2,2000010,Ciudad Autónoma de Buenos Aires,Ciudad Autónoma de Buenos Aires,"Regimiento de Infantería 1 ""Patricios - Talleres",Int. Bullrich 475 al 517,-34.57605556,-58.42911111,Bien de Interés Histórico,"Comisión Nacional de Monumentos, de Lugares y de Bienes Históricos (CNMLBH)",s/d,Nacional,20/9/2010,Decreto,1358.0
9,2,2000010,Ciudad Autónoma de Buenos Aires,Ciudad Autónoma de Buenos Aires,Remedios de Escalada,Recoleta,-34.5875,-58.39338889,Sepulcro,"Comisión Nacional de Monumentos, de Lugares y de Bienes Históricos (CNMLBH)",s/d,Nacional,31/1/1946,Decreto,3039.0
9,2,2000010,Ciudad Autónoma de Buenos Aires,Ciudad Autónoma de Buenos Aires,Residencia del Embajador del Reino Unido de Gran Bretaña e Irlanda del Norte (antigua Quinta Hale y Residencia Flia. Madero),"Gelly y Obes 2301,entre Agote, Guido, Newton y Rep del Líbano, y Plaza Mitre",-34.58494444,-58.39622222,Monumento Histórico,"Comisión Nacional de Monumentos, de Lugares y de Bienes Históricos (CNMLBH)",s/d,Nacional,11/6/2001,Decreto,767.0
9,2,2000010,Ciudad Autónoma de Buenos Aires,Ciudad Autónoma de Buenos Aires,Residencia Duhau,"Avenida Alvear 1657/71, Posadas 1350",-34.58938889,-58.38661111,Monumento Histórico,"Comisión Nacional de Monumentos, de Lugares y de Bienes Históricos (CNMLBH)",s/d,Nacional,16/8/2002,Decreto,1495.0
9,2,2000010,Ciudad Autónoma de Buenos Aires,Ciudad Autónoma de Buenos Aires,Residencia Maguire (ex Palacio Duhau),"Avenida Alvear 1683/93, Rodriguez Peña 1915/25",-34.58911111,-58.38680556,Monumento Histórico,"Comisión Nacional de Monumentos, de Lugares y de Bienes Históricos (CNMLBH)",s/d,Nacional,16/8/2002,Decreto,1495.0
9,2,2000010,Ciudad Autónoma de Buenos Aires,Ciudad Autónoma de Buenos Aires,Residencia Alzaga Unzué,Cerrito 1433,-34.59105556,-58.38283333,Bien de Interés Histórico Artístico,"Comisión Nacional de Monumentos, de Lugares y de Bienes Históricos (CNMLBH)",s/d,Nacional,20/3/1997,Decreto,262.0
9,2,2000010,Ciudad Autónoma de Buenos Aires,Ciudad Autónoma de Buenos Aires,Residencia Ortiz Basualdo (Embajada de Francia),Arroyo 1060/96,-34.59180556,-58.38261111,Bien de Interés Histórico Artístico,"Comisión Nacional de Monumentos, de Lugares y de Bienes Históricos (CNMLBH)",s/d,Nacional,20/3/1997,Decreto,262.0
9,2,2000010,Ciudad Autónoma de Buenos Aires,Ciudad Autónoma de Buenos Aires,Palacio Atucha,Cerrito 1405,-34.59141667,-58.383,Bien de Interés Histórico Artístico,"Comisión Nacional de Monumentos, de Lugares y de Bienes Históricos (CNMLBH)",s/d,Nacional,20/3/1997,Decreto,262.0
9,2,2000010,Ciudad Autónoma de Buenos Aires,Ciudad Autónoma de Buenos Aires,Palacio Pereda,Arroyo 1097,-34.59172222,-58.38352778,Bien de Interés Histórico Artístico,"Comisión Nacional de Monumentos, de Lugares y de Bienes Históricos (CNMLBH)",s/d,Nacional,20/3/1997,Decreto,262.0
9,2,2000010,Ciudad Autónoma de Buenos Aires,Ciudad Autónoma de Buenos Aires,Plazoleta Carlos Pellegrini,Cerrito 1350,-34.59133333,-58.38394444,Bien de Interés Histórico Artístico,"Comisión Nacional de Monumentos, de Lugares y de Bienes Históricos (CNMLBH)",s/d,Nacional,20/3/1997,Decreto,262.0
9,2,2000010,Ciudad Autónoma de Buenos Aires,Ciudad Autónoma de Buenos Aires,Residencias Jesuíticas,Perú 272/94,-34.61108333,-58.37472222,Monumento Histórico,"Comisión Nacional de Monumentos, de Lugares y de Bienes Históricos (CNMLBH)",s/d,Nacional,28/9/1981,Decreto,1479.0
9,2,2000010,Ciudad Autónoma de Buenos Aires,Ciudad Autónoma de Buenos Aires,Ricardo Gutiérrez,Recoleta,-34.5875,-58.39338889,Sepulcro,"Comisión Nacional de Monumentos, de Lugares y de Bienes Históricos (CNMLBH)",s/d,Nacional,31/1/1946,Decreto,3039.0
9,2,2000010,Ciudad Autónoma de Buenos Aires,Ciudad Autónoma de Buenos Aires,Roque Sáenz Peña,Recoleta,-34.5875,-58.39338889,Sepulcro,"Comisión Nacional de Monumentos, de Lugares y de Bienes Históricos (CNMLBH)",s/d,Nacional,23/9/2011,Decreto,1470.0
9,2,2000010,Ciudad Autónoma de Buenos Aires,Ciudad Autónoma de Buenos Aires,Sala de Sesiones de la antigua Junta de Representantes de la Provincia de Buenos Aires,Perú 272,-34.61108333,-58.37472222,Monumento Histórico,"Comisión Nacional de Monumentos, de Lugares y de Bienes Históricos (CNMLBH)",s/d,Nacional,21/5/1942,Decreto,120412.0
9,2,2000010,Ciudad Autónoma de Buenos Aires,Ciudad Autónoma de Buenos Aires,Salas Nacionales de Exposición (Palais de Glace),Posadas 1725,-34.58561111,-58.38936111,Monumento Histórico,"Comisión Nacional de Monumentos, de Lugares y de Bienes Históricos (CNMLBH)",s/d,Nacional,10/5/2004,Decreto,570.0
9,2,2000010,Ciudad Autónoma de Buenos Aires,Ciudad Autónoma de Buenos Aires,Salvador María del Carril,Recoleta,-34.5875,-58.39338889,Sepulcro,"Comisión Nacional de Monumentos, de Lugares y de Bienes Históricos (CNMLBH)",s/d,Nacional,3/5/1979,Decreto,1022.0
9,2,2000010,Ciudad Autónoma de Buenos Aires,Ciudad Autónoma de Buenos Aires,Santa Casa de Ejercicios Espirituales,Salta e Independencia,-34.61791667,-58.38255556,Monumento Histórico,"Comisión Nacional de Monumentos, de Lugares y de Bienes Históricos (CNMLBH)",s/d,Nacional,21/5/1942,Decreto,120412.0
9,2,2000010,Ciudad Autónoma de Buenos Aires,Ciudad Autónoma de Buenos Aires,Sara Eccleston,Cementerio Británico,-34.59083333,-58.46466667,Sepulcro,"Comisión Nacional de Monumentos, de Lugares y de Bienes Históricos (CNMLBH)",s/d,Nacional,21/4/2010,Decreto,525.0
9,2,2000010,Ciudad Autónoma de Buenos Aires,Ciudad Autónoma de Buenos Aires,"Sector de la fachada principal sobre av. Córdoba desde vestíbulo de acceso hasta calle Ayacucho y el ala oeste hasta calle Paraguay de la Escuela Normal Nº 1 ""Presidente Roque Saenz Peña""",Córdoba 1951,-34.59938889,-58.39544444,Monumento Histórico,"Comisión Nacional de Monumentos, de Lugares y de Bienes Históricos (CNMLBH)",s/d,Nacional,16/5/1997,Decreto,437.0
9,2,2000010,Ciudad Autónoma de Buenos Aires,Ciudad Autónoma de Buenos Aires,Sede Central del Círculo Militar (ex Palacio Paz),Avenida Santa Fe Nros. 702/750/754,-34.59566667,-58.37794444,Monumento Histórico Artístico,"Comisión Nacional de Monumentos, de Lugares y de Bienes Históricos (CNMLBH)",s/d,Nacional,21/7/2014,Decreto,1150.0
9,2,2000010,Ciudad Autónoma de Buenos Aires,Ciudad Autónoma de Buenos Aires,Sede del Congreso de 1880. (Museo Histórico Sarmiento),"Cuba 2061/79, esquina Juramento 2156",-34.561,-58.45441667,Monumento Histórico,"Comisión Nacional de Monumentos, de Lugares y de Bienes Históricos (CNMLBH)",s/d,Nacional,30/9/1938,Ley,12569.0
9,2,2000010,Ciudad Autónoma de Buenos Aires,Ciudad Autónoma de Buenos Aires,Servicio Nacional de Rehabilitación - Ampliación declaratoria Ley 24976,"Pabellón (Automotores), Pabellón (cedidos a la USAM), Pabellón (cedido al INCUCAI), Pabellón (Administración), Pabellón (de rehabilitación y deportes), pileta de natación descubierta (con sus instalaciones), chalet que actualmente ocupa el sector de auto",-34.55233333,-58.44061111,Monumento Histórico,"Comisión Nacional de Monumentos, de Lugares y de Bienes Históricos (CNMLBH)",s/d,Nacional,24/1/2013,Decreto,106.0
9,2,2000010,Ciudad Autónoma de Buenos Aires,Ciudad Autónoma de Buenos Aires,"Servicio Nacional de Rehabilitación - Chalet en escala infantil, edificio del Banco (actual capilla), a la fuente diseñados a escala infantil, y el edificio original",s/d,-34.55233333,-58.44061111,Monumento Histórico,"Comisión Nacional de Monumentos, de Lugares y de Bienes Históricos (CNMLBH)",s/d,Nacional,24/1/2013,Decreto,106.0
9,2,2000010,Ciudad Autónoma de Buenos Aires,Ciudad Autónoma de Buenos Aires,"Servicio Nacional de Rehabilitación - Jardín con sus caminos, accesos, equipamiento mobiliario y lumínico, vegetación, pérgola y fuente",s/d,-34.55233333,-58.44061111,Bien de Interés Histórico Artístico,"Comisión Nacional de Monumentos, de Lugares y de Bienes Históricos (CNMLBH)",s/d,Nacional,24/1/2013,Decreto,106.0
9,2,2000010,Ciudad Autónoma de Buenos Aires,Ciudad Autónoma de Buenos Aires,Servicio Nacional de Rehabilitación y del Instituto de Rehabilitación Psicofísico - Conjunto edilicio,"Calles Blanco Encalada, Ramsay, Echeverría, Húsares, Juramento y Dragones",-34.55233333,-58.44061111,Lugar Histórico,"Comisión Nacional de Monumentos, de Lugares y de Bienes Históricos (CNMLBH)",s/d,Nacional,24/1/2013,Decreto,106.0
9,2,2000010,Ciudad Autónoma de Buenos Aires,Ciudad Autónoma de Buenos Aires,Servicio Nacional de Rehabilitación y Promoción de la Persona con Discapacidad-Instituto Nacional de rehabilitación del lisiado (INCUCAI),Ramsay 2250,-34.55233333,-58.44061111,Monumento Histórico,"Comisión Nacional de Monumentos, de Lugares y de Bienes Históricos (CNMLBH)","Conjunto edilicio. Chalet en escala infantil, edificio del banco (actual capilla), a la fuente diseñada a escala infantil, y el edificio original. Jardín con sus caminos, accesos, equipamiento mobiliario y lumínico, vegetación, pérgola y fuente.",Nacional,20/5/1998,Ley,24976.0
9,2,2000010,Ciudad Autónoma de Buenos Aires,Ciudad Autónoma de Buenos Aires,Sinagoga de la Congregación Israelita Argentina,Libertad 761/69/73/85,-34.59955556,-58.38380556,Monumento Histórico,"Comisión Nacional de Monumentos, de Lugares y de Bienes Históricos (CNMLBH)",s/d,Nacional,29/12/2000,Decreto,1296.0
9,2,2000010,Ciudad Autónoma de Buenos Aires,Ciudad Autónoma de Buenos Aires,Sitio donde fue fusilado el Gral. Juan José Valle,Salguero y Av. Las Heras,-34.58244444,-58.41013889,Lugar Histórico,"Comisión Nacional de Monumentos, de Lugares y de Bienes Históricos (CNMLBH)",s/d,Nacional,30/12/2008,Decreto,2388.0
9,2,2000010,Ciudad Autónoma de Buenos Aires,Ciudad Autónoma de Buenos Aires,Solar donde vivió y murió el Alte. Guillermo Brown,Martín García 584,-34.63141667,-58.37241667,Lugar Histórico,"Comisión Nacional de Monumentos, de Lugares y de Bienes Históricos (CNMLBH)",s/d,Nacional,22/6/1948,Decreto,18536.0
9,2,2000010,Ciudad Autónoma de Buenos Aires,Ciudad Autónoma de Buenos Aires,Solar que ocupa el edificio de la Asociación Mutual Israelita Argentina (AMIA),Pasteur 633,-34.60180556,-58.39969444,Lugar Histórico,"Comisión Nacional de Monumentos, de Lugares y de Bienes Históricos (CNMLBH)",s/d,Nacional,16/7/2007,Ley,26269.0
9,2,2000010,Ciudad Autónoma de Buenos Aires,Ciudad Autónoma de Buenos Aires,Teatro Colón,"Libertad, Tucumán, Arturo Toscanini y Cerrito",-34.601,-58.38316667,Monumento Histórico,"Comisión Nacional de Monumentos, de Lugares y de Bienes Históricos (CNMLBH)",s/d,Nacional,20/11/1989,Decreto,1259.0
9,2,2000010,Ciudad Autónoma de Buenos Aires,Ciudad Autónoma de Buenos Aires,Teatro General San Martín,Av. Corrientes 1530,-34.60444444,-58.38872222,Monumento Histórico,"Comisión Nacional de Monumentos, de Lugares y de Bienes Históricos (CNMLBH)",s/d,Nacional,21/6/2011,Decreto,837.0
9,2,2000010,Ciudad Autónoma de Buenos Aires,Ciudad Autónoma de Buenos Aires,Teatro Liceo,Av. Rivadavia 1485 y 1499,-34.60875,-58.3875,Monumento Histórico,"Comisión Nacional de Monumentos, de Lugares y de Bienes Históricos (CNMLBH)",s/d,Nacional,21/6/2011,Decreto,837.0
9,2,2000010,Ciudad Autónoma de Buenos Aires,Ciudad Autónoma de Buenos Aires,Teatro Maipo,Esmeralda 433,-34.60313889,-58.37802778,Monumento Histórico,"Comisión Nacional de Monumentos, de Lugares y de Bienes Históricos (CNMLBH)",s/d,Nacional,21/6/2011,Decreto,837.0
9,2,2000010,Ciudad Autónoma de Buenos Aires,Ciudad Autónoma de Buenos Aires,Teatro Nacional Cervantes,"Libertad 807/15/21/27/35/41, esq. Av. Córdoba 1167/71/85/87/95/99",-34.59886111,-58.38380556,Monumento Histórico,"Comisión Nacional de Monumentos, de Lugares y de Bienes Históricos (CNMLBH)",s/d,Nacional,27/9/1995,Ley,24570.0
9,2,2000010,Ciudad Autónoma de Buenos Aires,Ciudad Autónoma de Buenos Aires,Templo de San Francisco,Alsina y Defensa,-34.61041667,-58.37188889,Monumento Histórico,"Comisión Nacional de Monumentos, de Lugares y de Bienes Históricos (CNMLBH)",s/d,Nacional,21/5/1942,Decreto,120412.0
9,2,2000010,Ciudad Autónoma de Buenos Aires,Ciudad Autónoma de Buenos Aires,Templo de San Ignacio,Bolívar 225,-34.61052778,-58.37369444,Monumento Histórico,"Comisión Nacional de Monumentos, de Lugares y de Bienes Históricos (CNMLBH)",s/d,Nacional,21/5/1942,Decreto,120412.0
9,2,2000010,Ciudad Autónoma de Buenos Aires,Ciudad Autónoma de Buenos Aires,Templo de San Telmo. Iglesia de San Pedro González Telmo,Humberto I 340,-34.62077778,-58.3705,Monumento Histórico,"Comisión Nacional de Monumentos, de Lugares y de Bienes Históricos (CNMLBH)",s/d,Nacional,21/5/1942,Decreto,120412.0
9,2,2000010,Ciudad Autónoma de Buenos Aires,Ciudad Autónoma de Buenos Aires,Tercera Orden Franciscana Seglar,Alsina 340/44/46/48,-34.61025,-58.37138889,Monumento Histórico,"Comisión Nacional de Monumentos, de Lugares y de Bienes Históricos (CNMLBH)",s/d,Nacional,21/11/2000,Decreto,1079.0
9,2,2000010,Ciudad Autónoma de Buenos Aires,Ciudad Autónoma de Buenos Aires,Thomas Bridges,Cementerio Británico,-34.59083333,-58.46466667,Sepulcro,"Comisión Nacional de Monumentos, de Lugares y de Bienes Históricos (CNMLBH)",s/d,Nacional,21/4/2010,Decreto,525.0
9,2,2000010,Ciudad Autónoma de Buenos Aires,Ciudad Autónoma de Buenos Aires,Tiro Federal Argentino,Av. del Libertador 7001,-34.54722222,-58.45461111,Monumento Histórico,"Comisión Nacional de Monumentos, de Lugares y de Bienes Históricos (CNMLBH)",s/d,Nacional,28/12/2005,Decreto,1680.0
9,2,2000010,Ciudad Autónoma de Buenos Aires,Ciudad Autónoma de Buenos Aires,Tte. Gral. Donato Alvarez,Recoleta,-34.5875,-58.39338889,Sepulcro,"Comisión Nacional de Monumentos, de Lugares y de Bienes Históricos (CNMLBH)",s/d,Nacional,22/2/1974,Decreto,649.0
9,2,2000010,Ciudad Autónoma de Buenos Aires,Ciudad Autónoma de Buenos Aires,Tte. Gral. Eduardo Lonardi,Recoleta,-34.5875,-58.39338889,Sepulcro,"Comisión Nacional de Monumentos, de Lugares y de Bienes Históricos (CNMLBH)",s/d,Nacional,25/10/1960,Ley,15451.0
9,2,2000010,Ciudad Autónoma de Buenos Aires,Ciudad Autónoma de Buenos Aires,Tte.Cnel.de Marina Erasmo Obligado,Recoleta,-34.5875,-58.39338889,Sepulcro,"Comisión Nacional de Monumentos, de Lugares y de Bienes Históricos (CNMLBH)",s/d,Nacional,12/6/1962,Decreto,5407.0
9,2,2000010,Ciudad Autónoma de Buenos Aires,Ciudad Autónoma de Buenos Aires,Usina Pedro de Mendoza de la Compañía ex Italo Argentina de Electricidad de Buenos Aires,Avenida Pedro de Mendoza 501,-34.62888889,-58.35677778,Bien de Interés Histórico Arquitectónico,"Comisión Nacional de Monumentos, de Lugares y de Bienes Históricos (CNMLBH)",s/d,Nacional,2/5/2008,Ley,26366.0
9,2,2000010,Ciudad Autónoma de Buenos Aires,Ciudad Autónoma de Buenos Aires,Valentín Alsina,Recoleta,-34.5875,-58.39338889,Sepulcro,"Comisión Nacional de Monumentos, de Lugares y de Bienes Históricos (CNMLBH)",s/d,Nacional,11/7/1946,Decreto,2236.0
9,2,2000010,Ciudad Autónoma de Buenos Aires,Ciudad Autónoma de Buenos Aires,Vicente Fidel López,Recoleta,-34.5875,-58.39338889,Sepulcro,"Comisión Nacional de Monumentos, de Lugares y de Bienes Históricos (CNMLBH)",s/d,Nacional,31/1/1946,Decreto,3039.0
9,2,2000010,Ciudad Autónoma de Buenos Aires,Ciudad Autónoma de Buenos Aires,Vicente López y Planes,Recoleta,-34.5875,-58.39338889,Sepulcro,"Comisión Nacional de Monumentos, de Lugares y de Bienes Históricos (CNMLBH)",s/d,Nacional,31/1/1946,Decreto,3039.0
9,2,2000010,Ciudad Autónoma de Buenos Aires,Ciudad Autónoma de Buenos Aires,Vuelta de Rocha,s/d,-34.63947222,-58.36161111,Lugar Histórico,"Comisión Nacional de Monumentos, de Lugares y de Bienes Históricos (CNMLBH)",s/d,Nacional,22/6/1948,Decreto,18540.0
9,2,2000010,Ciudad Autónoma de Buenos Aires,Ciudad Autónoma de Buenos Aires,Yacht Club Argentino,Espigón sur de la Dársena Norte del antiguo Puerto Madero,-34.5955,-58.36416667,Monumento Histórico,"Comisión Nacional de Monumentos, de Lugares y de Bienes Históricos (CNMLBH)",s/d,Nacional,11/6/2001,Decreto,766.0
9,2,2000010,Ciudad Autónoma de Buenos Aires,Ciudad Autónoma de Buenos Aires,Yacimientos Petrolíferos Fiscales (YPF),Diagonal Norte 765/777,-34.60558333,-58.37766667,Monumento Histórico,"Comisión Nacional de Monumentos, de Lugares y de Bienes Históricos (CNMLBH)",s/d,Nacional,14/1/2010,Decreto,71.0
9,2,2000010,Ciudad Autónoma de Buenos Aires,Ciudad Autónoma de Buenos Aires,sede central del Automóvil club Argentino,Avenida del Libertador 1850,-34.58294444,-58.39997222,Monumento Histórico Nacional,"Comisión Nacional de Monumentos, de Lugares y de Bienes Históricos (CNMLBH)",s/d,Nacional,11/8/2017,Decreto,637.0
9,2,2000010,Ciudad Autónoma de Buenos Aires,Ciudad Autónoma de Buenos Aires,"Hospital Militar Central  - Hospital General 601- Cirujano Mayor ""Dr. Cosme Argerich""",Av. Luis María Campos 726-800,-34.57036111,-58.43697222,Monumento Histórico Nacional,"Comisión Nacional de Monumentos, de Lugares y de Bienes Históricos (CNMLBH)",s/d,Nacional,19/1/2018,Decreto,56.0
9,2,2000010,Ciudad Autónoma de Buenos Aires,Ciudad Autónoma de Buenos Aires,Instituto Nacional Sanmartiniano,Alejandro María de Aguado  2842,-34.58044444,-58.40169444,Monumento Histórico Nacional,"Comisión Nacional de Monumentos, de Lugares y de Bienes Históricos (CNMLBH)",s/d,Nacional,20/12/2017,Decreto,1056.0
9,2,2000010,Ciudad Autónoma de Buenos Aires,Ciudad Autónoma de Buenos Aires,"Conjunto escultórico ""El Abuelo Inmortal""",Plaza Grand Bourg,-34.58063889,-58.40094444,Bien de interés artístico Nacional,"Comisión Nacional de Monumentos, de Lugares y de Bienes Históricos (CNMLBH)",s/d,Nacional,20/12/2017,Decreto,1056.0
9,2,2000010,Ciudad Autónoma de Buenos Aires,Ciudad Autónoma de Buenos Aires,Escuela Presidente Roca,Libertad 581,-34.60166667,-58.38361111,Monumento Histórico Nacional,"Comisión Nacional de Monumentos, de Lugares y de Bienes Históricos (CNMLBH)",s/d,Nacional,18/10/2017,Decreto,832.0
