Cod_Loc,IdProvincia,IdDepartamento,Observaciones,categoria,subcategoria,provincia,localidad,nombre,direccion,piso,CP,cod_area,telefono,Mail,Web,Latitud,Longitud,TipoLatitudLongitud,Info_adicional,fuente,jurisdiccion,año_inauguracion,actualizacion
2000010,2,2000,,Espacios de Exhibición Patrimonial,Museos,Ciudad Autónoma de Buenos Aires,Ciudad Autónoma de Buenos Aires,Museo Malvinas E Islas Del Atlántico Sur,Av. del Libertador 8151,,C1429BNB,11.0,4701 7083,,,-34.540283,-58.46409,Localización precisa,,DNPyM,Nacional,,2017
2000010,2,2000,,Espacios de Exhibición Patrimonial,Museos,Ciudad Autónoma de Buenos Aires,Ciudad Autónoma de Buenos Aires,Museo De Maquetas,Ciudad Universitaria - Pabellón iii,,1428,11.0,4789 6200,,,-34.544363,-58.440278,Localización precisa,,DNPyM,Nacional,,2017
2000010,2,2000,,Espacios de Exhibición Patrimonial,Museos,Ciudad Autónoma de Buenos Aires,Ciudad Autónoma de Buenos Aires,Museo De Matemática Mateuba,"Ciudad Universitaria, pabellón i, 2do. Piso",,1428,11.0,4576 3335,,,-34.544363,-58.440278,Localización precisa,,DNPyM,Nacional,,2017
2000010,2,2000,,Espacios de Exhibición Patrimonial,Museos,Ciudad Autónoma de Buenos Aires,Ciudad Autónoma de Buenos Aires,Museo De Mineralogía Dra. Elmira Inés Mórtola,Ciudad Universitaria pabellón ii,,1428,11.0,4576 3300 INT. 284,,,-34.544363,-58.440278,Localización precisa,,DNPyM,Nacional,,2017
2000010,2,2000,,Espacios de Exhibición Patrimonial,Museos,Ciudad Autónoma de Buenos Aires,Ciudad Autónoma de Buenos Aires,Museo Líbero Badii,11 de Setiembre 1990,,C1428AID,11.0,4784 8650,,,-34.559824,-58.450187,Localización precisa,,DNPyM,Privada,,2017
2000010,2,2000,,Espacios de Exhibición Patrimonial,Museos,Ciudad Autónoma de Buenos Aires,Ciudad Autónoma de Buenos Aires,Museo De Los Patricios De Buenos Ayres,Av. Int. Bullrich 481,,C1425FTE,11.0,4576 5537 INT. 5448,,,-34.576542,-58.426072,Localización precisa,,DNPyM,Nacional,,2017
2000010,2,2000,,Espacios de Exhibición Patrimonial,Museos,Ciudad Autónoma de Buenos Aires,Ciudad Autónoma de Buenos Aires,Museo De Arte Latinoamericano De Buenos Aires Malba - Fundación Constantín,Av. Figueroa Alcorta 3415,,C1425CLA,11.0,4808 6500,,,-34.577484,-58.4037,Localización precisa,,DNPyM,Privada,,2017
2000010,2,2000,,Espacios de Exhibición Patrimonial,Museos,Ciudad Autónoma de Buenos Aires,Ciudad Autónoma de Buenos Aires,Museo Del Automóvil Club Argentino,Avda. del Libertador 1850,,C1425AAR,11.0,4801 5675,relinsti@aca.org.ar,,-34.5826,-58.3998,Localización precisa,,DNPyM,Privada,,2017
2000010,2,2000,,Espacios de Exhibición Patrimonial,Museos,Ciudad Autónoma de Buenos Aires,Ciudad Autónoma de Buenos Aires,Museo Y Archivo Histórico De La Facultad De Derecho De La Universidad De Buenos Aires,Av. Figueroa Alcorta 2263,,C1425CKB,11.0,4809 5638,,,-34.583246,-58.392699,Localización precisa,,DNPyM,Nacional,,2017
2000010,2,2000,,Espacios de Exhibición Patrimonial,Museos,Ciudad Autónoma de Buenos Aires,Ciudad Autónoma de Buenos Aires,Museo Fotográfico Simik,Av. Federico Lacroze 3901,,C1427EDE,11.0,4554 5529,,,-34.584383,-58.453649,Localización precisa,,DNPyM,Privada,,2017
2000010,2,2000,,Espacios de Exhibición Patrimonial,Museos,Ciudad Autónoma de Buenos Aires,Ciudad Autónoma de Buenos Aires,Museo Nacional De Bellas Artes,Avda. del Libertador 1473,,C1425AAA,11.0,4803 8817,,,-34.5846,-58.3923,Localización precisa,,DNPyM,Nacional,,2017
2000010,2,2000,,Espacios de Exhibición Patrimonial,Museos,Ciudad Autónoma de Buenos Aires,Ciudad Autónoma de Buenos Aires,Palais De Glace - Palacio Nacional De Las Artes,Posadas 1725,,C1112ADE,11.0,4804 1163,,,-34.585994,-58.389655,Localización precisa,,DNPyM,Nacional,,2017
2000010,2,2000,,Espacios de Exhibición Patrimonial,Museos,Ciudad Autónoma de Buenos Aires,Ciudad Autónoma de Buenos Aires,Museo De Arquitectura Y Diseño,Avda. del Libertador 999,,C1001ABJ,11.0,4800 1888,,,-34.58663,-58.385729,Localización precisa,,DNPyM,Privada,,2017
2000010,2,2000,,Espacios de Exhibición Patrimonial,Museos,Ciudad Autónoma de Buenos Aires,Ciudad Autónoma de Buenos Aires,Claustros Del Pilar,Junín 1904,,C1113AAX,11.0,4803 6793,,,-34.587287,-58.391969,Localización precisa,,DNPyM,Privada,,2017
2000010,2,2000,,Espacios de Exhibición Patrimonial,Museos,Ciudad Autónoma de Buenos Aires,Ciudad Autónoma de Buenos Aires,Museo Notario Roberto Mario Arata,Guido 1841,,C1119AAA,11.0,4804 7743,,,-34.589645,-58.390332,Localización precisa,,DNPyM,Nacional,,2017
2000010,2,2000,,Espacios de Exhibición Patrimonial,Museos,Ciudad Autónoma de Buenos Aires,Ciudad Autónoma de Buenos Aires,Museo Padre Cool,Junín 1223,,C1113AAI,11.0,4821 8146,,,-34.594167,-58.397069,Localización precisa,,DNPyM,Privada,,2017
2000010,2,2000,,Espacios de Exhibición Patrimonial,Museos,Ciudad Autónoma de Buenos Aires,Ciudad Autónoma de Buenos Aires,Museo Casa Del Teatro,Av. Santa Fe 1243,,C1059ABG,11.0,4811 7678,,,-34.595599,-58.384959,Localización precisa,,DNPyM,Privada,,2017
2000010,2,2000,,Espacios de Exhibición Patrimonial,Museos,Ciudad Autónoma de Buenos Aires,Ciudad Autónoma de Buenos Aires,Comisión De Historia Y Museo De Odontología De La Asociación Odontológica Argentina,Junín 959,,C1113AAC,11.0,4961 6141,,,-34.597805,-58.397211,Localización precisa,,DNPyM,Privada,,2017
2000010,2,2000,,Espacios de Exhibición Patrimonial,Museos,Ciudad Autónoma de Buenos Aires,Ciudad Autónoma de Buenos Aires,Museo De La Historia De La Cirugía Vicente Aníbal Risolía,Paraguay 2155,,C1121ABG,11.0,5950 9500 INT. 2104,,,-34.598038,-58.398271,Localización precisa,,DNPyM,,,2017
2000010,2,2000,,Espacios de Exhibición Patrimonial,Museos,Ciudad Autónoma de Buenos Aires,Ciudad Autónoma de Buenos Aires,Museo Del Holocausto,Montevideo 919,,C1019ABS,11.0,4811 3588,informaciones@fmh.org.ar,,-34.5982,-58.3897,Localización precisa,,DNPyM,,,2017
2000010,2,2000,,Espacios de Exhibición Patrimonial,Museos,Ciudad Autónoma de Buenos Aires,Ciudad Autónoma de Buenos Aires,Museo Forense De La Justicia Nacional Dr. Juan Bautista Bafico,Junín 760,,C1026ABP,11.0,4374 2035,,,-34.6003,-58.3972,Localización precisa,,DNPyM,Nacional,,2017
2000010,2,2000,,Espacios de Exhibición Patrimonial,Museos,Ciudad Autónoma de Buenos Aires,Ciudad Autónoma de Buenos Aires,Taller Museo Gyula Kosice,Humahuaca 4662,,C1192ACP,11.0,4801 8615,,,-34.601011,-58.430613,Localización precisa,,DNPyM,Privada,,2017
2000010,2,2000,,Espacios de Exhibición Patrimonial,Museos,Ciudad Autónoma de Buenos Aires,Ciudad Autónoma de Buenos Aires,Museo Casa De Batato Barea,"Tucumán 3054, dpto. 11",,C1189AAH,11.0,4962 2592,,,-34.601022,-58.40858,Localización precisa,,DNPyM,Privada,,2017
2000010,2,2000,,Espacios de Exhibición Patrimonial,Museos,Ciudad Autónoma de Buenos Aires,Ciudad Autónoma de Buenos Aires,Museo Del Colegio  De La Salle De Ciencias Naturales Y Del Hombre,Riobamba 650,,C1025ABN,11.0,4374 6449,dirgral@delasalle.esc.edu.ar,,-34.6015,-58.3942,Localización precisa,,DNPyM,Privada,,2017
2000010,2,2000,,Espacios de Exhibición Patrimonial,Museos,Ciudad Autónoma de Buenos Aires,Ciudad Autónoma de Buenos Aires,Museo Casa Carlos Gardel,Jean Jaurés 735,,C1215ACM,11.0,4964 2015,,,-34.601615,-58.407894,Localización precisa,,DNPyM,Municipal,,2017
2000010,2,2000,,Espacios de Exhibición Patrimonial,Museos,Ciudad Autónoma de Buenos Aires,Ciudad Autónoma de Buenos Aires,Buque Museo Corbeta A.R.A. Uruguay,"Puerto Madero, dique 4",,1104,11.0,4314 1090,,www.ara.mil.ar,-34.6037,-58.3664,Localización precisa,,DNPyM,Nacional,,2017
2000010,2,2000,,Espacios de Exhibición Patrimonial,Museos,Ciudad Autónoma de Buenos Aires,Ciudad Autónoma de Buenos Aires,Museo De Los Niños Abasto,"Av. Corrientes 3247, segundo nivel del Shopping Abasto",,C1193AAE,11.0,4861 2325,,,-34.603944,-58.411006,Localización precisa,,DNPyM,Privada,,2017
2000010,2,2000,,Espacios de Exhibición Patrimonial,Museos,Ciudad Autónoma de Buenos Aires,Ciudad Autónoma de Buenos Aires,Museo Mitre,San Martín 336,,C1004AAH,11.0,4394 7659,,,-34.604,-58.3738,Localización precisa,,DNPyM,Nacional,,2017
2000010,2,2000,,Espacios de Exhibición Patrimonial,Museos,Ciudad Autónoma de Buenos Aires,Ciudad Autónoma de Buenos Aires,Museo De La Mujer,Pasaje Rivarola 175,,C1015AAA,11.0,4383 9054,,,-34.606723,-58.385337,Localización precisa,,DNPyM,Privada,,2017
2000010,2,2000,,Espacios de Exhibición Patrimonial,Museos,Ciudad Autónoma de Buenos Aires,Ciudad Autónoma de Buenos Aires,Museo Mundial Del Tango De La Ademia Nacional,Rivadavia 830,,C1002AAT,11.0,4345 6967,,,-34.608244,-58.378263,Localización precisa,,DNPyM,,,2017
2000010,2,2000,,Espacios de Exhibición Patrimonial,Museos,Ciudad Autónoma de Buenos Aires,Ciudad Autónoma de Buenos Aires,Museo Histórico De La Honorable Cámara De Diputados,Av. Rivadavia 1864,,C1033AAV,11.0,6310 7100 INT. 3633,,,-34.609307,-58.392925,Localización precisa,,DNPyM,Nacional,,2017
2000010,2,2000,,Espacios de Exhibición Patrimonial,Museos,Ciudad Autónoma de Buenos Aires,Ciudad Autónoma de Buenos Aires,Museo De Arte Hispanoamericano Isaac Fernández Blanco - Sede Casa Fernández Blanco,Hipólito Irigoyen 1420,,C1089AAB,11.0,4326 3396,,,-34.610001,-58.386447,Localización precisa,,DNPyM,Gobierno de la Ciudad,,2017
2000010,2,2000,,Espacios de Exhibición Patrimonial,Museos,Ciudad Autónoma de Buenos Aires,Ciudad Autónoma de Buenos Aires,Museo Parlamentario Senador Domingo Faustino Sarmiento,Hipólito Irigoyen 1702,,C1089AAH,11.0,4010 3020,dcampos@senado.gov.ar,www.senado.gov.ar,-34.6102,-58.3905,Localización precisa,,DNPyM,Nacional,,2017
2000010,2,2000,,Espacios de Exhibición Patrimonial,Museos,Ciudad Autónoma de Buenos Aires,Ciudad Autónoma de Buenos Aires,Museo Del Bicentenario,Av. Paseo Colón 100,,C1063ACN,11.0,4344 3802,,,-34.610515,-58.36945,Localización precisa,,DNPyM,,,2017
2000010,2,2000,,Espacios de Exhibición Patrimonial,Museos,Ciudad Autónoma de Buenos Aires,Ciudad Autónoma de Buenos Aires,Museo Participativo Minero - Mumin,Avda. Diagonal Sur Julio A. Roca 651 p.b.,,C1067ABB,11.0,4349 4450,,,-34.610994,-58.375757,Localización precisa,,DNPyM,Nacional,,2017
2000010,2,2000,,Espacios de Exhibición Patrimonial,Museos,Ciudad Autónoma de Buenos Aires,Ciudad Autónoma de Buenos Aires,Complejo Histórico Cultural Manzana De Las Luces,Perú 272,,C1067AAF,11.0,4342 9930,,,-34.611098,-58.374751,Localización precisa,,DNPyM,Nacional,,2017
2000010,2,2000,,Espacios de Exhibición Patrimonial,Museos,Ciudad Autónoma de Buenos Aires,Ciudad Autónoma de Buenos Aires,Museo Etnográfico Juan Bautista Ambrosetti,Moreno 350,,C1091AAH,11.0,4331 7788,,,-34.6113,-58.3713,Localización precisa,,DNPyM,Nacional,,2017
2000010,2,2000,,Espacios de Exhibición Patrimonial,Museos,Ciudad Autónoma de Buenos Aires,Ciudad Autónoma de Buenos Aires,Museo De La Luz,Boyacá 1553,,C1416AAI,11.0,4582 1922,,,-34.611756,-58.467495,Localización precisa,,DNPyM,Privada,,2017
2000010,2,2000,,Espacios de Exhibición Patrimonial,Museos,Ciudad Autónoma de Buenos Aires,Ciudad Autónoma de Buenos Aires,Museo Santo Domingo,Defensa 422 / Av. Belgrano s/n,,C1065AAH,11.0,4331 1668 INT. 102,,,-34.612779,-58.371804,Localización precisa,,DNPyM,Privada,,2017
2000010,2,2000,,Espacios de Exhibición Patrimonial,Museos,Ciudad Autónoma de Buenos Aires,Ciudad Autónoma de Buenos Aires,Museo De La Fotografía Humberto F. Zappa,Avda. Paseo Colón 470,,C1063ACR,11.0,4331 9734,,,-34.6132,-58.3691,Localización precisa,,DNPyM,Privada,,2017
2000010,2,2000,,Espacios de Exhibición Patrimonial,Museos,Ciudad Autónoma de Buenos Aires,Ciudad Autónoma de Buenos Aires,Museo De Marcapasos Y Precursores De La Medicina Moderna,Catamarca 536,,C1231AAB,11.0,4931 2560,,,-34.616607,-58.405657,Localización precisa,,DNPyM,Nacional,,2017
2000010,2,2000,,Espacios de Exhibición Patrimonial,Museos,Ciudad Autónoma de Buenos Aires,Ciudad Autónoma de Buenos Aires,Museo De La Psicología Argentina Horacio Piñero,Av. Independencia 3065,,C1225AAM,11.0,4957 4348 INT. 116,,,-34.619677,-58.408732,Localización precisa,,DNPyM,,,2017
2000010,2,2000,,Espacios de Exhibición Patrimonial,Museos,Ciudad Autónoma de Buenos Aires,Ciudad Autónoma de Buenos Aires,Fundación Museo Del Automóvil De La Ciudad De Buenos Aires,Irigoyen 2265,,C1408CPU,11.0,4644 0828,,,-34.620794,-58.526163,Localización precisa,,DNPyM,Privada,,2017
2000010,2,2000,,Espacios de Exhibición Patrimonial,Museos,Ciudad Autónoma de Buenos Aires,Ciudad Autónoma de Buenos Aires,Museo De Arte Moderno De La Ciudad De Buenos Aires,Avda. San Juan 350,,C1147AAO,11.0,4342 2970,,,-34.6218,-58.3705,Localización precisa,,DNPyM,Municipal,,2017
2000010,2,2000,,Espacios de Exhibición Patrimonial,Museos,Ciudad Autónoma de Buenos Aires,Ciudad Autónoma de Buenos Aires,Museo De Calcos Y Escultura Comparada Ernesto De La Cárcova,Avda. España 1701,,C1107CND,11.0,4361 4419,,,-34.624209,-58.345305,Localización precisa,,DNPyM,Nacional,,2017
2000010,2,2000,,Espacios de Exhibición Patrimonial,Museos,Ciudad Autónoma de Buenos Aires,Ciudad Autónoma de Buenos Aires,Museo Itinerante De Arte Contemporáneo Del Mercosur,av. Caseros 2739,,C1264AAH,11.0,4941 5478,,,-34.636359,-58.401144,Localización precisa,,DNPyM,Privada,,2017
2000010,2,2000,,Espacios de Exhibición Patrimonial,Museos,Ciudad Autónoma de Buenos Aires,Ciudad Autónoma de Buenos Aires,Museo Memorias De San Juan Evangelista,Olavarría 486,,C1162ABJ,11.0,4302 2194,,,-34.636672,-58.359566,Localización precisa,,DNPyM,Privada,,2017
2000010,2,2000,,Espacios de Exhibición Patrimonial,Museos,Ciudad Autónoma de Buenos Aires,Ciudad Autónoma de Buenos Aires,Museo De La Pasión Boquense,Brandsen 805,,C1161AAQ,11.0,4362 1100,,,-34.636675,-58.364741,Localización precisa,,DNPyM,Privada,,2017
2000010,2,2000,,Espacios de Exhibición Patrimonial,Museos,Ciudad Autónoma de Buenos Aires,Ciudad Autónoma de Buenos Aires,Museo De Los Corrales Viejos De Parque Patricios,Zavaleta 140,,C1437EYD,11.0,4308 0056,,,-34.638393,-58.403311,Localización precisa,,DNPyM,Privada,,2017
2000010,2,2000,,Espacios de Exhibición Patrimonial,Museos,Ciudad Autónoma de Buenos Aires,Ciudad Autónoma de Buenos Aires,"Museo Maguncia. Museo Del Papel, Grabado Y Estampa",Av. Pedro de Mendoza 1855,,C1169AAC,11.0,4116 5550,,,-34.639321,-58.361646,Localización precisa,,DNPyM,Privada,,2017
2000010,2,2000,,Espacios de Exhibición Patrimonial,Museos,Ciudad Autónoma de Buenos Aires,Ciudad Autónoma de Buenos Aires,Museo De Bellas Artes Al Aire Libre Caminito,"Pasaje Caminito, entre Magallanes y Gral. Gregorio Aráoz de Lamadrid",,1427,11.0,4114 5736,,,-34.639337,-58.362798,Localización precisa,,DNPyM,Municipal,,2017
2000010,2,2000,,Espacios de Exhibición Patrimonial,Museos,Ciudad Autónoma de Buenos Aires,Ciudad Autónoma de Buenos Aires,Museo De Ciencias Naturales De Especialidad Zoológica Médica,Av. Vélez Sársfield 563,,C1282AFF,11.0,4301 2888,,,-34.641309,-58.39018,Localización precisa,,DNPyM,Nacional,,2017
2000010,2,2000,,Espacios de Exhibición Patrimonial,Museos,Ciudad Autónoma de Buenos Aires,Ciudad Autónoma de Buenos Aires,Museo De La Balanza,California 2000,,C1289AAN,11.0,4303 0000,,,-34.647543,-58.376487,Localización precisa,,DNPyM,,,2017
2000010,2,2000,,Espacios de Exhibición Patrimonial,Museos,Ciudad Autónoma de Buenos Aires,Ciudad Autónoma de Buenos Aires,Taller-Museo José Pallarols Torrás,Defensa 1094,,C1065AAT,11.0,4361 7360,,,-34.6206,-58.3714,Localización precisa,,DNPyM,Privada,,2017
2000010,2,2000,,Espacios de Exhibición Patrimonial,Museos,Ciudad Autónoma de Buenos Aires,Ciudad Autónoma de Buenos Aires,Museo Etnográfico De Las Obras Misionales Pontificias,Medrano 735,,C1179AAM,11.0,4863 1357,,,-34.6015,-58.4207,Localización precisa,,DNPyM,Privada,,2017
2000010,2,2000,,Espacios de Exhibición Patrimonial,Museos,Ciudad Autónoma de Buenos Aires,Ciudad Autónoma de Buenos Aires,Museo De Anestesiología Y Biblioteca Histórica,Fragata Sarmiento 541,,C1405APC,11.0,4433 0023 INT. 108,museo@aaarba.org,,-34.6081,-58.3665,Localización precisa,,DNPyM,Privada,,2017
2000010,2,2000,,Espacios de Exhibición Patrimonial,Museos,Ciudad Autónoma de Buenos Aires,Ciudad Autónoma de Buenos Aires,Museo De Artes Plásticas Eduardo Sívori,Avda. Infanta Isabel 555,,C1425ABX,11.0,4778 3899,,,-34.5696,-58.4171,Localización precisa,,DNPyM,Municipal,,2017
2000010,2,2000,,Espacios de Exhibición Patrimonial,Museos,Ciudad Autónoma de Buenos Aires,Ciudad Autónoma de Buenos Aires,Museo Del Regimiento Granaderos A Caballo Gral. San Martín,Luis María Campos 554,,C1426BOQ,11.0,4576 5666 INT. 211,,,-34.5715,-58.4345,Localización precisa,,DNPyM,Nacional,,2017
2000010,2,2000,,Espacios de Exhibición Patrimonial,Museos,Ciudad Autónoma de Buenos Aires,Ciudad Autónoma de Buenos Aires,Museo Nacional De La Inmigración,Avda. Antártida Argentina 1355,,C1104ACA,11.0,4317 0285,,,-34.584889,-58.372753,Localización precisa,,DNPyM,Nacional,,2017
2000010,2,2000,,Espacios de Exhibición Patrimonial,Museos,Ciudad Autónoma de Buenos Aires,Ciudad Autónoma de Buenos Aires,Museo De Ciencias Naturales Del Colegio San José,Bartolomé Mitre 2455,,C1029AAM,11.0,4951 4303,,,-34.608573,-58.401317,Localización precisa,,DNPyM,Privada,1918.0,2017
2000010,2,2000,,Espacios de Exhibición Patrimonial,Museos,Ciudad Autónoma de Buenos Aires,Ciudad Autónoma de Buenos Aires,Museo Histórico De Buenos Aires Brigadier General Cornelio De Saavedra,Crisólogo Larralde 6309,,C1431AQG,11.0,4572 0746,,,-34.5688,-58.5075,Localización precisa,,DNPyM,Municipal,1925.0,2017
2000010,2,2000,,Espacios de Exhibición Patrimonial,Museos,Ciudad Autónoma de Buenos Aires,Ciudad Autónoma de Buenos Aires,Museo S.E. Casa De La Moneda,Av. Antártida Argentina 2085,,C1104ACH,11.0,5776 3545,,,-34.581173,-58.374032,Localización precisa,,DNPyM,,1931.0,2017
2000010,2,2000,,Espacios de Exhibición Patrimonial,Museos,Ciudad Autónoma de Buenos Aires,Ciudad Autónoma de Buenos Aires,Museo Histórico Sarmiento,Juramento 2180,,C1428DNJ,11.0,4781 2989,,,-34.560825,-58.454546,Localización precisa,,DNPyM,Nacional,1942.0,2017
2000010,2,2000,,Espacios de Exhibición Patrimonial,Museos,Ciudad Autónoma de Buenos Aires,Ciudad Autónoma de Buenos Aires,Museo Histórico Nacional Del Cabildo De Buenos Aires Y De La Revolución De Mayo,Bolívar 65,,C1066AAA,11.0,4334 1782,,,-34.6086,-58.3735,Localización precisa,,DNPyM,Nacional,1943.0,2017
2000010,2,2000,,Espacios de Exhibición Patrimonial,Museos,Ciudad Autónoma de Buenos Aires,Ciudad Autónoma de Buenos Aires,Museo De Armas De La Nación Tte. Gral. Pablo Riccheri,Av. Santa Fe 702-750,,C1059ABO,11.0,4311 1071 INT. 179,museo@circulumilitar.org,,-34.5958,-58.3769,Localización precisa,,DNPyM,Nacional,1944.0,2017
2000010,2,2000,,Espacios de Exhibición Patrimonial,Museos,Ciudad Autónoma de Buenos Aires,Ciudad Autónoma de Buenos Aires,Museo De Arte Popular José Hernández,Avda. del Libertador 2373,,C1425AAJ,11.0,4803 2384,,,-34.5803,-58.4049,Localización precisa,,DNPyM,Municipal,1952.0,2017
2000010,2,2000,,Espacios de Exhibición Patrimonial,Museos,Ciudad Autónoma de Buenos Aires,Ciudad Autónoma de Buenos Aires,Museo Casa De Yrurtia,O'Higgins 2390,,C1428AGL,11.0,5411 4781,,,-34.5571,-58.4553,Localización precisa,,DNPyM,Nacional,1953.0,2017
2000010,2,2000,,Espacios de Exhibición Patrimonial,Museos,Ciudad Autónoma de Buenos Aires,Ciudad Autónoma de Buenos Aires,Museo Del Serpentario,Avda. Vélez Sarsfield 563,,C1282AFF,11.0,4301 2888,adolab@anlis.gov.ar,,-34.6412,-58.3898,Localización precisa,,DNPyM,Nacional,1957.0,2017
2000010,2,2000,,Espacios de Exhibición Patrimonial,Museos,Ciudad Autónoma de Buenos Aires,Ciudad Autónoma de Buenos Aires,Museo Casa Rosada,Hipólito Irigoyen 219,,C1086AAA,11.0,4344 3802,Museo@presidencia.gov.ar,,-34.6088,-58.3698,Localización precisa,,DNPyM,Nacional,1961.0,2017
2000010,2,2000,,Espacios de Exhibición Patrimonial,Museos,Ciudad Autónoma de Buenos Aires,Ciudad Autónoma de Buenos Aires,Museo Casa De Ricardo Rojas - Instituto De Investigaciones Literarias,Charcas 2837,,C1425BMG,11.0,4824 4039,casadericardorojas@hotmail.com,,-34.5939,-58.4065,Localización precisa,,DNPyM,Nacional,1962.0,2017
2000010,2,2000,,Espacios de Exhibición Patrimonial,Museos,Ciudad Autónoma de Buenos Aires,Ciudad Autónoma de Buenos Aires,Museo Nacional Del Grabado,Agüero 2502. Sede ubicada en el predio de la Biblioteca Nacional,,C1425EID,11.0,4802 3295,,,-34.584541,-58.397598,Localización precisa,,DNPyM,Nacional,1964.0,2017
2000010,2,2000,,Espacios de Exhibición Patrimonial,Museos,Ciudad Autónoma de Buenos Aires,Ciudad Autónoma de Buenos Aires,Museo Criollo De Los Corrales,Avda. de los Corrales 6476,,C1440BBN,11.0,4687 1949,,,-34.6626,-58.5002,Localización precisa,,DNPyM,Privada,1967.0,2017
2000010,2,2000,,Espacios de Exhibición Patrimonial,Museos,Ciudad Autónoma de Buenos Aires,Ciudad Autónoma de Buenos Aires,Museo Nacional De Arte Oriental,Avda. del Libertador 1902,,C1425AAS,11.0,4801 5988,,,-34.582,-58.4015,Localización precisa,,DNPyM,Nacional,1970.0,2017
2000010,2,2000,,Espacios de Exhibición Patrimonial,Museos,Ciudad Autónoma de Buenos Aires,Ciudad Autónoma de Buenos Aires,Museo De La Ciudad,Defensa 219,,C1065AAC,11.0,4331 9855,,,-34.6104,-58.3721,Localización precisa,,DNPyM,Municipal,1972.0,2017
2000010,2,2000,,Espacios de Exhibición Patrimonial,Museos,Ciudad Autónoma de Buenos Aires,Ciudad Autónoma de Buenos Aires,Museo Monumento Antiguo Recinto Del Congreso Nacional,Balcarce 139,,C1064AAC,11.0,4331 5147,,,-34.6093,-58.3708,Localización precisa,,DNPyM,Nacional,1975.0,2017
2000010,2,2000,,Espacios de Exhibición Patrimonial,Museos,Ciudad Autónoma de Buenos Aires,Ciudad Autónoma de Buenos Aires,Museo Nacional De La Historia Del Traje,Chile 832,,C1098AAR,11.0,4343 8427,,,-34.6163,-58.3779,Localización precisa,,DNPyM,Nacional,1976.0,2017
2000010,2,2000,,Espacios de Exhibición Patrimonial,Museos,Ciudad Autónoma de Buenos Aires,Ciudad Autónoma de Buenos Aires,Museo General Belgrano,Saráchaga 4906,,C1407EGP,11.0,4671 6464,,,-34.6332,-58.4944,Localización precisa,,DNPyM,Privada,1984.0,2017
2000010,2,2000,,Espacios de Exhibición Patrimonial,Museos,Ciudad Autónoma de Buenos Aires,Ciudad Autónoma de Buenos Aires,Museo Penitenciario Argentino Antonio Ballvé,Humberto 1° 378,,C1103ACH,11.0,4361 0917 INT. 107,,,-34.6244,-58.4511,Localización precisa,,DNPyM,Nacional,1984.0,2017
2000010,2,2000,,Espacios de Exhibición Patrimonial,Museos,Ciudad Autónoma de Buenos Aires,Ciudad Autónoma de Buenos Aires,Museo Histórico De Cera,Dr. Enrique del Valle Iberlucea 1261,,C1160ABM,11.0,4301 1497,,,-34.6391,-58.362,Localización precisa,,DNPyM,Privada,1984.0,2017
2000010,2,2000,,Espacios de Exhibición Patrimonial,Museos,Ciudad Autónoma de Buenos Aires,Ciudad Autónoma de Buenos Aires,Museo De Arte Sacro María Antonia De San José - Santa Casa De Ejercicios Espirituales,Avda. Independencia 1190,,C1099AAY,11.0,4304 0984,,,-34.6177,-58.3828,Localización precisa,,DNPyM,Privada,1987.0,2017
2000010,2,2000,,Espacios de Exhibición Patrimonial,Museos,Ciudad Autónoma de Buenos Aires,Ciudad Autónoma de Buenos Aires,Museo De Esculturas Luis Perlotti,Pujol 644,,C1405ALD,11.0,4431 2825,,,-34.615,-58.4482,Localización precisa,,DNPyM,Municipal,1994.0,2017
2000010,2,2000,,Espacios de Exhibición Patrimonial,Museos,Ciudad Autónoma de Buenos Aires,Ciudad Autónoma de Buenos Aires,Museo De Patología De La Universidad De Buenos Aires,J.E.Uriburu 950,,C1114AAD,11.0,4508 3602,,,-34.597653,-58.39907,Localización precisa,,DNPyM,Nacional,1998.0,2017
2000010,2,2000,,Espacios de Exhibición Patrimonial,Museos,Ciudad Autónoma de Buenos Aires,Ciudad Autónoma de Buenos Aires,Museo Argentino Del Títere,Piedras 905,,C1070AAS,11.0,4304 4376,sarahbianchi@museoargdeltitere.com.ar,,-34.6186,-58.3773,Localización precisa,,DNPyM,Privada,2000.0,2017
2000010,2,2000,,Espacios de Exhibición Patrimonial,Museos,Ciudad Autónoma de Buenos Aires,Ciudad Autónoma de Buenos Aires,Museo Houssay De Historia De La Ciencia Y La Tecnología,Paraguay 2155,,C1121ABG,11.0,5950 9602 INT. 2104,,,-34.598317,-58.398223,Localización precisa,,DNPyM,Nacional,2001.0,2017
2000010,2,2000,,Espacios de Exhibición Patrimonial,Museos,Ciudad Autónoma de Buenos Aires,Ciudad Autónoma de Buenos Aires,Museo Casa Taller Celia Chevalier,Irala 1162,,C1164ACB,11.0,4302 2337,,,-34.639254,-58.366314,Localización precisa,,DNPyM,Privada,2002.0,2017
2000010,2,2000,,Espacios de Exhibición Patrimonial,Museos,Ciudad Autónoma de Buenos Aires,Ciudad Autónoma de Buenos Aires,Museo De Las Escuelas,Montevideo 950,,C1019ABT,11.0,4129 1000 INT. 7040,,,-34.597883,-58.389786,Localización precisa,,DNPyM,Municipal,2006.0,2017
2000010,2,2000,,Espacios de Exhibición Patrimonial,Museos,Ciudad Autónoma de Buenos Aires,Ciudad Autónoma de Buenos Aires,Museo De La Emigración Gallega En La Argentina,Chacabuco 955,,C1069AAS,11.0,4362 5963,,,-34.619157,-58.375914,Localización precisa,,DNPyM,Privada,2007.0,2017
2000010,2,2000,,Espacios de Exhibición Patrimonial,Museos,Ciudad Autónoma de Buenos Aires,Ciudad Autónoma de Buenos Aires,Museo Del Tiro Federal Argentino,Avda. del Libertador 6935,,C1429BMC,11.0,4782 4000,,,-34.548401,-58.455216,Localización precisa,,DNPyM,Privada,2007.0,2017
2000010,2,2000,,Espacios de Exhibición Patrimonial,Museos,Ciudad Autónoma de Buenos Aires,Ciudad Autónoma de Buenos Aires,Museo Monte De Piedad,Avda. Boedo 870,,C1218AAR,11.0,4931 8204,,,-34.623257,-58.416021,Localización precisa,,DNPyM,Municipal,2007.0,2017
2000010,2,2000,,Espacios de Exhibición Patrimonial,Museos,Ciudad Autónoma de Buenos Aires,Ciudad Autónoma de Buenos Aires,Museo San Telmo,Humberto 1° 340,,C1103ACH,11.0,4361 1168,,,-34.620693,-58.370486,Localización precisa,,DNPyM,Privada,2009.0,2017
2000010,2,2000,,Espacios de Exhibición Patrimonial,Museos,Ciudad Autónoma de Buenos Aires,Ciudad Autónoma de Buenos Aires,Museo Argentino De Ciencias Naturales Bernardino Rivadavia,Avda. Ángel gallardo 490,,C1405DJR,11.0,4982 0306,info@macn.gov.ar,,-34.6048,-58.4377,Localización precisa,,DNPyM,Nacional,1823.0,2017
2000010,2,2000,,Espacios de Exhibición Patrimonial,Museos,Ciudad Autónoma de Buenos Aires,Ciudad Autónoma de Buenos Aires,Museo Histórico Nacional,Defensa 1600,,C1143AAH,11.0,4307 3157,,,-34.6266,-58.3709,Localización precisa,,DNPyM,Nacional,1891.0,2017
2000010,2,2000,,Espacios de Exhibición Patrimonial,Museos,Ciudad Autónoma de Buenos Aires,Ciudad Autónoma de Buenos Aires,Museo Policial,San Martín 353,,C1004AAG,11.0,4394 6857,,,-34.6038,-58.3738,Localización precisa,,DNPyM,Nacional,1899.0,2017
2000010,2,2000,,Espacios de Exhibición Patrimonial,Museos,Ciudad Autónoma de Buenos Aires,Ciudad Autónoma de Buenos Aires,Museo De Fármacobotánica Juan A. Domínguez,Junín 956,,C1113AAD,11.0,4964 8235,secretaria@farmacobotanica.org.ar,,-34.5975,-58.3975,Localización precisa,,DNPyM,Nacional,1900.0,2017
2000010,2,2000,,Espacios de Exhibición Patrimonial,Museos,Ciudad Autónoma de Buenos Aires,Ciudad Autónoma de Buenos Aires,Museo Tecnológico Ing. Eduardo Latzina,Avda. Paseo Colón 650,,C1063ACT,11.0,4331 6865,otokrause@impsat1.com.ar,,-34.6153,-58.3689,Localización precisa,,DNPyM,Municipal,1913.0,2017
2000010,2,2000,,Espacios de Exhibición Patrimonial,Museos,Ciudad Autónoma de Buenos Aires,Ciudad Autónoma de Buenos Aires,Museo De Arte Hispanoamericano Isaac Fernández Blanco - Sede Palacio Noel,Suipacha 1422,,C1011ACF,11.0,4326 3396,,,-34.590876,-58.380079,Localización precisa,,DNPyM,Gobierno de la Ciudad,1922.0,2017
2000010,2,2000,,Espacios de Exhibición Patrimonial,Museos,Ciudad Autónoma de Buenos Aires,Ciudad Autónoma de Buenos Aires,Museo De Arte Hispanoamericano Isaac Fernández Blanco,Suipacha 1422,,C1011ACF,11.0,4326 3396,,,-34.5912,-58.3801,Localización precisa,,DNPyM,Municipal,1922.0,2017
2000010,2,2000,,Espacios de Exhibición Patrimonial,Museos,Ciudad Autónoma de Buenos Aires,Ciudad Autónoma de Buenos Aires,Museo Postal Y Telegráfico,José Aarón Salmun Feijoo 555,,C1274AGE,11.0,4302 3104,,,-34.63914,-58.378851,Localización precisa,,DNPyM,Nacional,1928.0,2017
2000010,2,2000,,Espacios de Exhibición Patrimonial,Museos,Ciudad Autónoma de Buenos Aires,Ciudad Autónoma de Buenos Aires,Museo Geográfico Dr. Juan B. Terán Y Museo De Ciencias Naturales Ángel Gallardo,Catamarca 2099,,C1246AAQ,11.0,4941 3777 INT. 220,,,-34.6342,-58.4013,Localización precisa,,DNPyM,Municipal,1929.0,2017
2000010,2,2000,,Espacios de Exhibición Patrimonial,Museos,Ciudad Autónoma de Buenos Aires,Ciudad Autónoma de Buenos Aires,Museo De Bellas Artes De La Boca De Artistas Argentinos Benito Quinquela Martín,Avda. Pedro de Mendoza 1835,,C1169AAC,11.0,4301 1080,museoquinquela@yahoo.com.ar ,,-34.6393,-58.3615,Localización precisa,,DNPyM,Municipal,1936.0,2017
2000010,2,2000,,Espacios de Exhibición Patrimonial,Museos,Ciudad Autónoma de Buenos Aires,Ciudad Autónoma de Buenos Aires,Instituto Nacional De Estudios De Teatro,Avda. Córdoba 1199,,C1055AAB,11.0,4816 7212 INT. 179,,,-34.5991,-58.384,Localización precisa,,DNPyM,Nacional,1936.0,2017
2000010,2,2000,,Espacios de Exhibición Patrimonial,Museos,Ciudad Autónoma de Buenos Aires,Ciudad Autónoma de Buenos Aires,Museo Nacional De Arte Decorativo,Av. del Libertador 1902,,C1425AAS,11.0,4801 8248,museo@mnad.org,,-34.582,-58.4015,Localización precisa,,DNPyM,Nacional,1937.0,2017
2000010,2,2000,,Espacios de Exhibición Patrimonial,Museos,Ciudad Autónoma de Buenos Aires,Ciudad Autónoma de Buenos Aires,Museo Histórico Y Numismático Del Banco Central De La República Argentina Dr. José Evaristo Uriburu,San Martín 216,,C1004AAF,11.0,4348 3882,museo@bcra.gov.ar,,-34.6055,-58.3737,Localización precisa,,DNPyM,Nacional,1941.0,2017
2000010,2,2000,,Espacios de Exhibición Patrimonial,Museos,Ciudad Autónoma de Buenos Aires,Ciudad Autónoma de Buenos Aires,Museo Sadaic Vicente López Y Planes,Lavalle 1547,,C1048AAK,11.0,4379 8600 INT. 8539,,www.sadaic.org.ar,-34.6029,-58.3887,Localización precisa,,DNPyM,Privada,1962.0,2017
2000010,2,2000,,Espacios de Exhibición Patrimonial,Museos,Ciudad Autónoma de Buenos Aires,Ciudad Autónoma de Buenos Aires,Museo De Arte Español Enrique Larreta,Juramento 2291,,C1428DNK,11.0,4783 2640,museolarreta@infovia.com.ar,,-34.5614,-58.4556,Localización precisa,,DNPyM,Municipal,1962.0,2017
2000010,2,2000,,Espacios de Exhibición Patrimonial,Museos,Ciudad Autónoma de Buenos Aires,Ciudad Autónoma de Buenos Aires,Escuela Museo De Bellas Artes Gral. Urquiza,Yerbal 2370,,C1406GKB,11.0,4612 0566,,,-34.6275,-58.4627,Localización precisa,,DNPyM,Municipal,1963.0,2017
2000010,2,2000,,Espacios de Exhibición Patrimonial,Museos,Ciudad Autónoma de Buenos Aires,Ciudad Autónoma de Buenos Aires,Buque Museo Fragata A.R.A. Presidente Sarmiento,Puerto Madero. dique 3,,1104,11.0,4334 9386,,www.ara.mil.ar,-34.609,-58.3656,Localización precisa,,DNPyM,Nacional,1964.0,2017
2000010,2,2000,,Espacios de Exhibición Patrimonial,Museos,Ciudad Autónoma de Buenos Aires,Ciudad Autónoma de Buenos Aires,Museo Roca - Instituto De Investigaciones Históricas,Vicente López 2220,,C1128ACJ,11.0,4803 2798,,,-34.5876,-58.3954,Localización precisa,,DNPyM,Nacional,1964.0,2017
2000010,2,2000,,Espacios de Exhibición Patrimonial,Museos,Ciudad Autónoma de Buenos Aires,Ciudad Autónoma de Buenos Aires,Museo Histórico Y Numismático Del Banco De La Nación Argentina,Bartolomé Mitre 326,,C1036AAF,11.0,4347 6277,,,-34.6066,-58.3712,Localización precisa,,DNPyM,Nacional,1966.0,2017
2000010,2,2000,,Espacios de Exhibición Patrimonial,Museos,Ciudad Autónoma de Buenos Aires,Ciudad Autónoma de Buenos Aires,Museo Judío De Buenos Aires Dr. Salvador Kibrick,Libertad 769,,C1012AAO,11.0,4123 0102,museojudio@fundacionjudaica.net,,-34.5996,-58.384,Localización precisa,,DNPyM,Privada,1967.0,2017
2000010,2,2000,,Espacios de Exhibición Patrimonial,Museos,Ciudad Autónoma de Buenos Aires,Ciudad Autónoma de Buenos Aires,Museo De La Farmacia Dra. Rosa D'Alessio De Carnevale Bonino,Junín 956,,C1113AAD,11.0,4964 8200 INT. 8339,,,-34.5978,-58.3975,Localización precisa,,DNPyM,Nacional,1970.0,2017
2000010,2,2000,,Espacios de Exhibición Patrimonial,Museos,Ciudad Autónoma de Buenos Aires,Ciudad Autónoma de Buenos Aires,Museo Nacional Y Centro De Estudios Históricos Ferroviarios,Avda. del Libertador San Martín 405,,C1001ABE,11.0,4318 3343,museoferroviario@dnsbe.gov.ar,,-34.59,-58.3795,Localización precisa,,DNPyM,Nacional,1971.0,2017
2000010,2,2000,,Espacios de Exhibición Patrimonial,Museos,Ciudad Autónoma de Buenos Aires,Ciudad Autónoma de Buenos Aires,Museo Histórico De La Afip,Hipólito Irigoyen 370 pb,,C1086AAD,11.0,4347 2396,museo@afip2.gov.ar,,-34.6089,-58.3717,Localización precisa,,DNPyM,Nacional,1974.0,2017
2000010,2,2000,,Espacios de Exhibición Patrimonial,Museos,Ciudad Autónoma de Buenos Aires,Ciudad Autónoma de Buenos Aires,Museo De Telecomunicaciones,Sarmiento 151,,C1041AAC,11.0,4347 9461,museo@secom.gov.ar,,-34.6041,-58.3687,Localización precisa,,DNPyM,Nacional,1978.0,2017
2000010,2,2000,,Espacios de Exhibición Patrimonial,Museos,Ciudad Autónoma de Buenos Aires,Ciudad Autónoma de Buenos Aires,Museo Y Centro De Estudios Históricos De La Facultad De Odontología De Bs. As. Profesor Dr. Orestes Walter Siutti,Marcelo T. de Alvear 2142,,C1122AAH,11.0,4964 1271,,,-34.597304,-58.398227,Localización precisa,,DNPyM,Nacional,1980.0,2017
2000010,2,2000,,Espacios de Exhibición Patrimonial,Museos,Ciudad Autónoma de Buenos Aires,Ciudad Autónoma de Buenos Aires,Museo Nacional Del Hombre,3 de Febrero 1370/78,,C1426BJN,11.0,4783 6554,museo@bibapl.edu.ar,,-34.5666,-58.4462,Localización precisa,,DNPyM,Nacional,1981.0,2017
2000010,2,2000,,Espacios de Exhibición Patrimonial,Museos,Ciudad Autónoma de Buenos Aires,Ciudad Autónoma de Buenos Aires,Museo Notarial Argentino,Avda. Callao 1542,,C1024AAO,11.0,4801 0081 INT. 137,comunicacioninstitucional@colegio-escribanos.org.ar,,-34.5914,-58.3915,Localización precisa,,DNPyM,Privada,1981.0,2017
2000010,2,2000,,Espacios de Exhibición Patrimonial,Museos,Ciudad Autónoma de Buenos Aires,Ciudad Autónoma de Buenos Aires,Museo Manoblanca,Tabaré 1371,,C1437FHG,11.0,4918 9448,,,-34.651063,-58.423712,Localización precisa,,DNPyM,Privada,1983.0,2017
2000010,2,2000,,Espacios de Exhibición Patrimonial,Museos,Ciudad Autónoma de Buenos Aires,Ciudad Autónoma de Buenos Aires,Archivo Y Museo Históricos Del Banco De La Provincia De Buenos Aires Dr. Arturo Jauretche,Sarmiento 362,,C1041AAH,11.0,4331 1775,bpmuseo@bapro.com.ar,www.bapro.com.ar/museo,-34.6043,-58.3719,Localización precisa,,DNPyM,Provincial,1984.0,2017
2000010,2,2000,,Espacios de Exhibición Patrimonial,Museos,Ciudad Autónoma de Buenos Aires,Ciudad Autónoma de Buenos Aires,Museo Histórico De La Gendarmería Nacional,Avda. Presidente Ramón S. Castillo 788 (Avda. Pres. Ramón S Castillo y Prefectura Naval (ex calle 8),,C1104AMT,11.0,4310 2642,,,-34.58028,-58.375036,Localización precisa,,DNPyM,Nacional,1985.0,2017
2000010,2,2000,,Espacios de Exhibición Patrimonial,Museos,Ciudad Autónoma de Buenos Aires,Ciudad Autónoma de Buenos Aires,Museo Participativo De Ciencias,"Junín 1930, 1° Centro Cultural Recoleta",,C1113AAX,11.0,4806 3456,info@mpc.org.ar,,-34.5871,-58.3918,Localización precisa,,DNPyM,Privada,1988.0,2017
2000010,2,2000,,Espacios de Exhibición Patrimonial,Museos,Ciudad Autónoma de Buenos Aires,Ciudad Autónoma de Buenos Aires,Museo De Ciencia Y Técnica,Las Heras 2214,,C1127AAR,11.0,804 3340,,,-34.5885,-58.396,Localización precisa,,DNPyM,Nacional,1991.0,2017
2000010,2,2000,,Espacios de Exhibición Patrimonial,Museos,Ciudad Autónoma de Buenos Aires,Ciudad Autónoma de Buenos Aires,Museo Xul Solar,Laprida 1212,,C1425EKF,11.0,4824 3302,xulsolar@ciudad.com.ar,,-34.5948,-58.4078,Localización precisa,,DNPyM,Privada,1993.0,2017
2000010,2,2000,,Espacios de Exhibición Patrimonial,Museos,Ciudad Autónoma de Buenos Aires,Ciudad Autónoma de Buenos Aires,Primer Museo Histórico Ernesto Che Guevara,Rojas 129,,C1405AAC,11.0,4903 3285,,,-34.61894,-58.442026,Localización precisa,,DNPyM,Municipal,1996.0,2017
2000010,2,2000,,Espacios de Exhibición Patrimonial,Museos,Ciudad Autónoma de Buenos Aires,Ciudad Autónoma de Buenos Aires,Museo Del Patrimonio Del Palacio De Las Aguas Corrientes,Riobamba 750,,C1025ABP,11.0,6319 1104,,,-34.600313,-58.394982,Localización precisa,,DNPyM,Nacional,1996.0,2017
2000010,2,2000,,Espacios de Exhibición Patrimonial,Museos,Ciudad Autónoma de Buenos Aires,Ciudad Autónoma de Buenos Aires,Museo Evita - Instituto Nacional Eva Perón De Investigaciones Históricas,Lafinur 2988,,C1425FAB,11.0,4807 0306,,,-34.580678,-58.414657,Localización precisa,,DNPyM,Nacional,2002.0,2017
2000010,2,2000,,Espacios de Exhibición Patrimonial,Museos,Ciudad Autónoma de Buenos Aires,Ciudad Autónoma de Buenos Aires,Museo Iser,Ramos Mejia 1398,,C1104AJN,11.0,4313 3427,,,-34.603018,-58.433882,Localización precisa,,DNPyM,Nacional,2004.0,2017
2000010,2,2000,,Espacios de Exhibición Patrimonial,Museos,Ciudad Autónoma de Buenos Aires,Ciudad Autónoma de Buenos Aires,Museo Histórico Vecinal De Flores Blanca Angélica Gandini,Avda. Nazca 371,,C1406AJC,11.0,4611 2607,,,-34.627719,-58.470875,Localización precisa,,DNPyM,Privada,2004.0,2017
2000010,2,2000,,Espacios de Exhibición Patrimonial,Museos,Ciudad Autónoma de Buenos Aires,Ciudad Autónoma de Buenos Aires,Museo De La Deuda Externa,José E. Uriburu 781,,C1027AAO,11.0,4370 6105,,,-34.599955,-58.398539,Localización precisa,,DNPyM,Nacional,2005.0,2017
2000010,2,2000,,Espacios de Exhibición Patrimonial,Museos,Ciudad Autónoma de Buenos Aires,Ciudad Autónoma de Buenos Aires,Museo Anconetani Del Acordeón - Musa,Guevara 492/ 478,,C1427BRJ,11.0,4553 9440,,,-34.586478,-58.451672,Localización precisa,,DNPyM,Privada,2005.0,2017
2000010,2,2000,,Espacios de Exhibición Patrimonial,Museos,Ciudad Autónoma de Buenos Aires,Ciudad Autónoma de Buenos Aires,Colección De Arte Amalia Lacroze De Fortabat,Olga Cossettini 141,,C1107CCC,11.0,4310 6600,,,-34.599619,-58.364956,Localización precisa,,DNPyM,Privada,2008.0,2017
2000010,2,2000,,Espacios de Exhibición Patrimonial,Museos,Ciudad Autónoma de Buenos Aires,Ciudad Autónoma de Buenos Aires,Muhu - Museo Del Humor,Av. de los Italianos 851,,C1107BLF,11.0,4516 0944,,,-34.605057,-58.361448,Localización precisa,,DNPyM,Gobierno de la Ciudad,2012.0,2017
